{
 "type": "FeatureCollection",
 "name": "odisha_habitations_angul",
 "description": "The ANGUL part of the Phase 2 full habitation set (per-habitation convex hull + 300 m, dissolved). One of four per-district AOIs; see odisha_phase2_0_aois.py.",
 "features": [
  {
   "type": "Feature",
   "properties": {
    "name": "odisha_habitations_angul",
    "n_parts": 4,
    "parts": [
     {
      "habitations": [
       "KANSAB"
      ],
      "area_ha": 97.91
     },
     {
      "habitations": [
       "GHANAJODI"
      ],
      "area_ha": 206.23
     },
     {
      "habitations": [
       "JOGI BANDHA"
      ],
      "area_ha": 65.28
     },
     {
      "habitations": [
       "ANANDA PUR"
      ],
      "area_ha": 69.9
     }
    ],
    "generated_by": "odisha_script/odisha_phase2_0_aois.py"
   },
   "geometry": {
    "type": "MultiPolygon",
    "coordinates": [
     [
      [
       [
        84.7010927,
        20.743238
       ],
       [
        84.7012223,
        20.7430002
       ],
       [
        84.7013263,
        20.7427515
       ],
       [
        84.7014038,
        20.7424943
       ],
       [
        84.701454,
        20.7422312
       ],
       [
        84.7014764,
        20.7419648
       ],
       [
        84.7014707,
        20.7416975
       ],
       [
        84.7014371,
        20.7414321
       ],
       [
        84.7013758,
        20.7411711
       ],
       [
        84.7012875,
        20.7409171
       ],
       [
        84.701173,
        20.7406725
       ],
       [
        84.7010335,
        20.7404396
       ],
       [
        84.7008702,
        20.7402209
       ],
       [
        84.7006848,
        20.7400184
       ],
       [
        84.7004791,
        20.739834
       ],
       [
        84.700255,
        20.7396696
       ],
       [
        84.7000149,
        20.7395267
       ],
       [
        84.6997609,
        20.7394069
       ],
       [
        84.6994956,
        20.7393111
       ],
       [
        84.6992216,
        20.7392404
       ],
       [
        84.6989415,
        20.7391955
       ],
       [
        84.6986581,
        20.7391767
       ],
       [
        84.6983741,
        20.7391843
       ],
       [
        84.6980923,
        20.7392183
       ],
       [
        84.6978154,
        20.7392781
       ],
       [
        84.6955494,
        20.7398801
       ],
       [
        84.6952804,
        20.7399653
       ],
       [
        84.6950215,
        20.7400749
       ],
       [
        84.6947755,
        20.740208
       ],
       [
        84.6945445,
        20.7403632
       ],
       [
        84.6917665,
        20.7424322
       ],
       [
        84.6916872,
        20.7424935
       ],
       [
        84.6904062,
        20.7435195
       ],
       [
        84.6901938,
        20.7437079
       ],
       [
        84.6900028,
        20.7439155
       ],
       [
        84.6898351,
        20.7441402
       ],
       [
        84.6896925,
        20.7443798
       ],
       [
        84.6895763,
        20.7446317
       ],
       [
        84.6894879,
        20.7448934
       ],
       [
        84.6894281,
        20.7451622
       ],
       [
        84.6891471,
        20.7468472
       ],
       [
        84.6891167,
        20.7471173
       ],
       [
        84.6891152,
        20.747389
       ],
       [
        84.6891427,
        20.7476595
       ],
       [
        84.6891988,
        20.747926
       ],
       [
        84.689283,
        20.7481859
       ],
       [
        84.6893945,
        20.7484365
       ],
       [
        84.6895321,
        20.7486754
       ],
       [
        84.6896944,
        20.7489001
       ],
       [
        84.6898799,
        20.7491084
       ],
       [
        84.6900866,
        20.7492981
       ],
       [
        84.6903125,
        20.7494674
       ],
       [
        84.6905553,
        20.7496146
       ],
       [
        84.6908125,
        20.7497382
       ],
       [
        84.6910816,
        20.7498369
       ],
       [
        84.6913598,
        20.7499098
       ],
       [
        84.6916444,
        20.749956
       ],
       [
        84.6919325,
        20.7499753
       ],
       [
        84.6922212,
        20.7499672
       ],
       [
        84.6925076,
        20.7499321
       ],
       [
        84.6927888,
        20.7498701
       ],
       [
        84.693062,
        20.7497819
       ],
       [
        84.6955031,
        20.7488629
       ],
       [
        84.6957491,
        20.7487574
       ],
       [
        84.6959835,
        20.7486307
       ],
       [
        84.6962043,
        20.7484838
       ],
       [
        84.6964094,
        20.7483182
       ],
       [
        84.6965971,
        20.7481351
       ],
       [
        84.7007621,
        20.7436721
       ],
       [
        84.7009388,
        20.7434627
       ],
       [
        84.7010927,
        20.743238
       ]
      ]
     ],
     [
      [
       [
        84.7094759,
        20.7566525
       ],
       [
        84.7092098,
        20.7566946
       ],
       [
        84.708949,
        20.75676
       ],
       [
        84.7086959,
        20.756848
       ],
       [
        84.7084526,
        20.7569579
       ],
       [
        84.7082214,
        20.7570888
       ],
       [
        84.7080042,
        20.7572394
       ],
       [
        84.7048132,
        20.7596774
       ],
       [
        84.7046001,
        20.7598575
       ],
       [
        84.704407,
        20.7600567
       ],
       [
        84.7042359,
        20.7602729
       ],
       [
        84.7040885,
        20.760504
       ],
       [
        84.7039663,
        20.7607478
       ],
       [
        84.7038704,
        20.7610018
       ],
       [
        84.7038018,
        20.7612635
       ],
       [
        84.7037613,
        20.7615303
       ],
       [
        84.7037491,
        20.7617996
       ],
       [
        84.7037654,
        20.7620687
       ],
       [
        84.7038101,
        20.7623349
       ],
       [
        84.7038826,
        20.7625957
       ],
       [
        84.7039824,
        20.7628483
       ],
       [
        84.7041084,
        20.7630904
       ],
       [
        84.7042593,
        20.7633195
       ],
       [
        84.7044337,
        20.7635334
       ],
       [
        84.7046298,
        20.7637299
       ],
       [
        84.7048458,
        20.7639071
       ],
       [
        84.7050793,
        20.7640633
       ],
       [
        84.7053282,
        20.7641968
       ],
       [
        84.70559,
        20.7643065
       ],
       [
        84.7058621,
        20.7643911
       ],
       [
        84.7147153,
        20.7666911
       ],
       [
        84.7149301,
        20.7667387
       ],
       [
        84.7151482,
        20.7667706
       ],
       [
        84.7185832,
        20.7671476
       ],
       [
        84.7188621,
        20.7671654
       ],
       [
        84.7191415,
        20.7671576
       ],
       [
        84.7194188,
        20.7671244
       ],
       [
        84.7196914,
        20.7670661
       ],
       [
        84.7199567,
        20.7669832
       ],
       [
        84.7238597,
        20.7655622
       ],
       [
        84.7241183,
        20.7654541
       ],
       [
        84.7243643,
        20.7653226
       ],
       [
        84.7245954,
        20.765169
       ],
       [
        84.7248093,
        20.7649949
       ],
       [
        84.7250041,
        20.7648018
       ],
       [
        84.7251778,
        20.7645917
       ],
       [
        84.7253287,
        20.7643666
       ],
       [
        84.7254554,
        20.7641286
       ],
       [
        84.7255567,
        20.7638801
       ],
       [
        84.7256315,
        20.7636234
       ],
       [
        84.7256793,
        20.7633611
       ],
       [
        84.7258792,
        20.7618051
       ],
       [
        84.7258995,
        20.7615311
       ],
       [
        84.7258902,
        20.7612566
       ],
       [
        84.7258514,
        20.7609844
       ],
       [
        84.7257835,
        20.7607172
       ],
       [
        84.7256872,
        20.760458
       ],
       [
        84.7255634,
        20.7602092
       ],
       [
        84.7254136,
        20.7599735
       ],
       [
        84.7252391,
        20.7597533
       ],
       [
        84.7250418,
        20.7595508
       ],
       [
        84.7248237,
        20.7593681
       ],
       [
        84.7229497,
        20.7579522
       ],
       [
        84.7227128,
        20.7577911
       ],
       [
        84.7224599,
        20.7576534
       ],
       [
        84.7221934,
        20.7575406
       ],
       [
        84.7219161,
        20.7574537
       ],
       [
        84.7216308,
        20.7573938
       ],
       [
        84.7213406,
        20.7573613
       ],
       [
        84.7100148,
        20.7566393
       ],
       [
        84.709745,
        20.7566341
       ],
       [
        84.7094759,
        20.7566525
       ]
      ]
     ],
     [
      [
       [
        84.6542007,
        20.801564
       ],
       [
        84.6540671,
        20.8013365
       ],
       [
        84.6539109,
        20.801122
       ],
       [
        84.6537336,
        20.8009226
       ],
       [
        84.6535368,
        20.8007401
       ],
       [
        84.6533222,
        20.8005762
       ],
       [
        84.653092,
        20.8004324
       ],
       [
        84.6528481,
        20.80031
       ],
       [
        84.6525929,
        20.8002101
       ],
       [
        84.6523287,
        20.8001337
       ],
       [
        84.6520579,
        20.8000815
       ],
       [
        84.6517831,
        20.8000539
       ],
       [
        84.6515067,
        20.8000512
       ],
       [
        84.6512313,
        20.8000734
       ],
       [
        84.6509594,
        20.8001203
       ],
       [
        84.6506935,
        20.8001916
       ],
       [
        84.6487406,
        20.8008116
       ],
       [
        84.6484962,
        20.800901
       ],
       [
        84.6482615,
        20.8010109
       ],
       [
        84.6480384,
        20.8011405
       ],
       [
        84.6478287,
        20.8012886
       ],
       [
        84.6476343,
        20.801454
       ],
       [
        84.6474566,
        20.8016354
       ],
       [
        84.6470616,
        20.8020773
       ],
       [
        84.6468846,
        20.8022972
       ],
       [
        84.6467323,
        20.8025329
       ],
       [
        84.6466062,
        20.8027819
       ],
       [
        84.6465078,
        20.8030417
       ],
       [
        84.6464379,
        20.8033095
       ],
       [
        84.6463974,
        20.8035827
       ],
       [
        84.6463866,
        20.8038582
       ],
       [
        84.6464056,
        20.8041334
       ],
       [
        84.6464544,
        20.8044054
       ],
       [
        84.6465322,
        20.8046713
       ],
       [
        84.6470772,
        20.8062193
       ],
       [
        84.6471764,
        20.8064614
       ],
       [
        84.6472997,
        20.8066934
       ],
       [
        84.6474461,
        20.8069134
       ],
       [
        84.6476141,
        20.8071191
       ],
       [
        84.6478024,
        20.8073088
       ],
       [
        84.648009,
        20.8074806
       ],
       [
        84.6482323,
        20.8076331
       ],
       [
        84.6494243,
        20.8083681
       ],
       [
        84.6496691,
        20.8085034
       ],
       [
        84.6499269,
        20.8086153
       ],
       [
        84.6501952,
        20.8087028
       ],
       [
        84.6504714,
        20.8087651
       ],
       [
        84.6507527,
        20.8088014
       ],
       [
        84.6510365,
        20.8088116
       ],
       [
        84.6513199,
        20.8087954
       ],
       [
        84.6516003,
        20.8087531
       ],
       [
        84.6518749,
        20.808685
       ],
       [
        84.652141,
        20.8085918
       ],
       [
        84.6523961,
        20.8084745
       ],
       [
        84.6526377,
        20.8083341
       ],
       [
        84.6528633,
        20.808172
       ],
       [
        84.653071,
        20.8079898
       ],
       [
        84.6532585,
        20.8077893
       ],
       [
        84.6534241,
        20.8075724
       ],
       [
        84.6541431,
        20.8065254
       ],
       [
        84.654297,
        20.8062724
       ],
       [
        84.6544211,
        20.8060052
       ],
       [
        84.6545139,
        20.8057272
       ],
       [
        84.6547829,
        20.8047381
       ],
       [
        84.6548415,
        20.8044648
       ],
       [
        84.6548699,
        20.8041873
       ],
       [
        84.6548678,
        20.8039085
       ],
       [
        84.6548352,
        20.8036314
       ],
       [
        84.6547725,
        20.8033589
       ],
       [
        84.6543955,
        20.8020499
       ],
       [
        84.6543105,
        20.8018026
       ],
       [
        84.6542007,
        20.801564
       ]
      ]
     ],
     [
      [
       [
        84.6462471,
        20.8230368
       ],
       [
        84.6459559,
        20.8229976
       ],
       [
        84.645662,
        20.8229864
       ],
       [
        84.6453684,
        20.8230035
       ],
       [
        84.6450782,
        20.8230487
       ],
       [
        84.6447943,
        20.8231214
       ],
       [
        84.6439163,
        20.8233924
       ],
       [
        84.643669,
        20.8234808
       ],
       [
        84.6434314,
        20.8235901
       ],
       [
        84.6407504,
        20.82497
       ],
       [
        84.6405123,
        20.8251071
       ],
       [
        84.6402894,
        20.8252652
       ],
       [
        84.6400839,
        20.8254428
       ],
       [
        84.6398975,
        20.8256383
       ],
       [
        84.6397322,
        20.8258499
       ],
       [
        84.6395895,
        20.8260755
       ],
       [
        84.6394706,
        20.826313
       ],
       [
        84.6393768,
        20.8265602
       ],
       [
        84.6393088,
        20.8268148
       ],
       [
        84.6392674,
        20.8270744
       ],
       [
        84.6392529,
        20.8273365
       ],
       [
        84.6392654,
        20.8275988
       ],
       [
        84.6393049,
        20.8278586
       ],
       [
        84.639371,
        20.8281137
       ],
       [
        84.639463,
        20.8283615
       ],
       [
        84.6395801,
        20.8285998
       ],
       [
        84.6397212,
        20.8288263
       ],
       [
        84.6398849,
        20.829039
       ],
       [
        84.6400698,
        20.8292357
       ],
       [
        84.6407658,
        20.8299077
       ],
       [
        84.640965,
        20.8300827
       ],
       [
        84.641181,
        20.8302392
       ],
       [
        84.6414118,
        20.8303758
       ],
       [
        84.6416552,
        20.8304913
       ],
       [
        84.6419092,
        20.8305847
       ],
       [
        84.6421715,
        20.830655
       ],
       [
        84.6424396,
        20.8307018
       ],
       [
        84.6438396,
        20.8308818
       ],
       [
        84.6441388,
        20.8309054
       ],
       [
        84.6444389,
        20.8308996
       ],
       [
        84.6447368,
        20.8308645
       ],
       [
        84.6450291,
        20.8308005
       ],
       [
        84.6453128,
        20.8307082
       ],
       [
        84.6455848,
        20.8305886
       ],
       [
        84.6478028,
        20.8294776
       ],
       [
        84.6480378,
        20.8293461
       ],
       [
        84.6482584,
        20.8291942
       ],
       [
        84.6484628,
        20.8290233
       ],
       [
        84.648649,
        20.828835
       ],
       [
        84.6488153,
        20.8286309
       ],
       [
        84.6489604,
        20.828413
       ],
       [
        84.6490828,
        20.8281831
       ],
       [
        84.6491814,
        20.8279433
       ],
       [
        84.6492555,
        20.8276958
       ],
       [
        84.6493042,
        20.8274428
       ],
       [
        84.6494502,
        20.8264068
       ],
       [
        84.6494737,
        20.8261359
       ],
       [
        84.6494683,
        20.8258642
       ],
       [
        84.6494339,
        20.8255944
       ],
       [
        84.649371,
        20.8253292
       ],
       [
        84.6492801,
        20.8250713
       ],
       [
        84.6491621,
        20.8248232
       ],
       [
        84.6490184,
        20.8245875
       ],
       [
        84.6488502,
        20.8243665
       ],
       [
        84.6486593,
        20.8241624
       ],
       [
        84.6484477,
        20.8239774
       ],
       [
        84.6482174,
        20.8238132
       ],
       [
        84.6479707,
        20.8236715
       ],
       [
        84.6477102,
        20.8235538
       ],
       [
        84.6468092,
        20.8231978
       ],
       [
        84.6465326,
        20.8231038
       ],
       [
        84.6462471,
        20.8230368
       ]
      ]
     ]
    ]
   }
  }
 ]
}
