{
 "type": "FeatureCollection",
 "name": "odisha_habitations_kendujhar",
 "description": "The KENDUJHAR part of the Phase 2 full habitation set (per-habitation convex hull + 300 m, dissolved). One of four per-district AOIs; see odisha_phase2_0_aois.py.",
 "features": [
  {
   "type": "Feature",
   "properties": {
    "name": "odisha_habitations_kendujhar",
    "n_parts": 1,
    "parts": [
     {
      "habitations": [
       "BHANRADI SAHI"
      ],
      "area_ha": 404.7
     }
    ],
    "generated_by": "odisha_script/odisha_phase2_0_aois.py"
   },
   "geometry": {
    "type": "MultiPolygon",
    "coordinates": [
     [
      [
       [
        85.3921879,
        21.5723889
       ],
       [
        85.3919963,
        21.5722047
       ],
       [
        85.3917869,
        21.5720382
       ],
       [
        85.3915616,
        21.5718911
       ],
       [
        85.3913224,
        21.5717646
       ],
       [
        85.3910714,
        21.5716599
       ],
       [
        85.390811,
        21.5715779
       ],
       [
        85.3905435,
        21.5715194
       ],
       [
        85.3902712,
        21.5714848
       ],
       [
        85.3899966,
        21.5714745
       ],
       [
        85.3897223,
        21.5714886
       ],
       [
        85.3894506,
        21.5715269
       ],
       [
        85.389184,
        21.5715892
       ],
       [
        85.3889249,
        21.5716747
       ],
       [
        85.3873769,
        21.5722647
       ],
       [
        85.3871312,
        21.5723712
       ],
       [
        85.3868971,
        21.5724986
       ],
       [
        85.3866768,
        21.572646
       ],
       [
        85.3864722,
        21.5728119
       ],
       [
        85.386285,
        21.572995
       ],
       [
        85.3861169,
        21.5731936
       ],
       [
        85.3859694,
        21.5734061
       ],
       [
        85.3853504,
        21.5743961
       ],
       [
        85.3852213,
        21.5746275
       ],
       [
        85.3851166,
        21.5748694
       ],
       [
        85.3850373,
        21.5751196
       ],
       [
        85.384984,
        21.5753758
       ],
       [
        85.3849574,
        21.5756357
       ],
       [
        85.3849576,
        21.5758967
       ],
       [
        85.3849847,
        21.5761564
       ],
       [
        85.3850384,
        21.5764126
       ],
       [
        85.3851181,
        21.5766627
       ],
       [
        85.3852232,
        21.5769045
       ],
       [
        85.4046136,
        21.6159817
       ],
       [
        85.4047473,
        21.6162194
       ],
       [
        85.4049055,
        21.6164436
       ],
       [
        85.4050866,
        21.616652
       ],
       [
        85.4052889,
        21.6168426
       ],
       [
        85.4055104,
        21.6170136
       ],
       [
        85.4057489,
        21.6171632
       ],
       [
        85.4060021,
        21.61729
       ],
       [
        85.4062674,
        21.6173927
       ],
       [
        85.4065423,
        21.6174704
       ],
       [
        85.4068241,
        21.6175223
       ],
       [
        85.40711,
        21.6175478
       ],
       [
        85.4073972,
        21.6175467
       ],
       [
        85.4076829,
        21.617519
       ],
       [
        85.4079642,
        21.6174651
       ],
       [
        85.4082384,
        21.6173853
       ],
       [
        85.4085029,
        21.6172806
       ],
       [
        85.408755,
        21.6171519
       ],
       [
        85.4089922,
        21.6170005
       ],
       [
        85.4092122,
        21.6168279
       ],
       [
        85.4094128,
        21.6166358
       ],
       [
        85.4095922,
        21.616426
       ],
       [
        85.4097484,
        21.6162007
       ],
       [
        85.4098801,
        21.615962
       ],
       [
        85.4099858,
        21.6157123
       ],
       [
        85.4100645,
        21.615454
       ],
       [
        85.4101156,
        21.6151898
       ],
       [
        85.4101384,
        21.6149221
       ],
       [
        85.4101327,
        21.6146536
       ],
       [
        85.4100987,
        21.6143869
       ],
       [
        85.4100366,
        21.6141247
       ],
       [
        85.409947,
        21.6138696
       ],
       [
        85.3936603,
        21.5742048
       ],
       [
        85.3935569,
        21.5739828
       ],
       [
        85.3934326,
        21.5737704
       ],
       [
        85.3932885,
        21.5735692
       ],
       [
        85.3931259,
        21.5733809
       ],
       [
        85.3921879,
        21.5723889
       ]
      ]
     ]
    ]
   }
  }
 ]
}
