{
 "type": "FeatureCollection",
 "name": "odisha_habitations_koraput",
 "description": "The KORAPUT part of the Phase 2 full habitation set (per-habitation convex hull + 300 m, dissolved). One of four per-district AOIs; see odisha_phase2_0_aois.py.",
 "features": [
  {
   "type": "Feature",
   "properties": {
    "name": "odisha_habitations_koraput",
    "n_parts": 7,
    "parts": [
     {
      "habitations": [
       "HANDAPUR"
      ],
      "area_ha": 98.88
     },
     {
      "habitations": [
       "BILAPUT",
       "HATIMUNDA"
      ],
      "area_ha": 422.85
     },
     {
      "habitations": [
       "BARIGUDA"
      ],
      "area_ha": 70.57
     },
     {
      "habitations": [
       "KONDASRIMUNDA"
      ],
      "area_ha": 37.92
     },
     {
      "habitations": [
       "KHASUGUDA"
      ],
      "area_ha": 466.95
     },
     {
      "habitations": [
       "SAKIAGUDA"
      ],
      "area_ha": 45.28
     },
     {
      "habitations": [
       "BARAKANTI"
      ],
      "area_ha": 1316.79
     }
    ],
    "generated_by": "odisha_script/odisha_phase2_0_aois.py"
   },
   "geometry": {
    "type": "MultiPolygon",
    "coordinates": [
     [
      [
       [
        82.8383968,
        18.5733339
       ],
       [
        82.8381354,
        18.5732364
       ],
       [
        82.8378652,
        18.573164
       ],
       [
        82.8375888,
        18.5731173
       ],
       [
        82.8373089,
        18.5730968
       ],
       [
        82.8370283,
        18.5731028
       ],
       [
        82.8367496,
        18.5731352
       ],
       [
        82.8364757,
        18.5731936
       ],
       [
        82.8338967,
        18.5738726
       ],
       [
        82.8336147,
        18.5739622
       ],
       [
        82.833344,
        18.5740794
       ],
       [
        82.8330876,
        18.574223
       ],
       [
        82.8328484,
        18.5743914
       ],
       [
        82.8316314,
        18.5753454
       ],
       [
        82.8314243,
        18.5755247
       ],
       [
        82.8312366,
        18.5757226
       ],
       [
        82.8310703,
        18.5759371
       ],
       [
        82.830927,
        18.5761662
       ],
       [
        82.8308079,
        18.5764076
       ],
       [
        82.8307143,
        18.5766591
       ],
       [
        82.8306471,
        18.576918
       ],
       [
        82.8306069,
        18.577182
       ],
       [
        82.8305348,
        18.577903
       ],
       [
        82.8305222,
        18.5781924
       ],
       [
        82.8305421,
        18.5784813
       ],
       [
        82.8305941,
        18.5787666
       ],
       [
        82.8306778,
        18.5790449
       ],
       [
        82.8311828,
        18.5804389
       ],
       [
        82.8312831,
        18.5806783
       ],
       [
        82.8314068,
        18.5809074
       ],
       [
        82.8315527,
        18.5811244
       ],
       [
        82.8317196,
        18.5813271
       ],
       [
        82.831906,
        18.5815138
       ],
       [
        82.8321101,
        18.5816827
       ],
       [
        82.8323301,
        18.5818325
       ],
       [
        82.832564,
        18.5819616
       ],
       [
        82.8328097,
        18.5820689
       ],
       [
        82.833065,
        18.5821535
       ],
       [
        82.8333276,
        18.5822145
       ],
       [
        82.8335951,
        18.5822516
       ],
       [
        82.8338651,
        18.5822642
       ],
       [
        82.834135,
        18.5822523
       ],
       [
        82.8344026,
        18.582216
       ],
       [
        82.8399097,
        18.5812119
       ],
       [
        82.8401984,
        18.5811442
       ],
       [
        82.8404781,
        18.5810481
       ],
       [
        82.8407457,
        18.5809246
       ],
       [
        82.8409983,
        18.5807752
       ],
       [
        82.8416363,
        18.5803522
       ],
       [
        82.841863,
        18.5801851
       ],
       [
        82.8420709,
        18.5799971
       ],
       [
        82.8422579,
        18.5797902
       ],
       [
        82.8424221,
        18.5795663
       ],
       [
        82.8425618,
        18.5793277
       ],
       [
        82.8426756,
        18.579077
       ],
       [
        82.8427624,
        18.5788167
       ],
       [
        82.8428212,
        18.5785493
       ],
       [
        82.8428516,
        18.5782776
       ],
       [
        82.842853,
        18.5780044
       ],
       [
        82.8428257,
        18.5777324
       ],
       [
        82.8427697,
        18.5774645
       ],
       [
        82.8426858,
        18.5772033
       ],
       [
        82.8425747,
        18.5769514
       ],
       [
        82.8424375,
        18.5767116
       ],
       [
        82.8422758,
        18.5764861
       ],
       [
        82.8420911,
        18.5762772
       ],
       [
        82.8418852,
        18.5760872
       ],
       [
        82.8391032,
        18.5737662
       ],
       [
        82.8388831,
        18.5736002
       ],
       [
        82.8386469,
        18.5734556
       ],
       [
        82.8383968,
        18.5733339
       ]
      ]
     ],
     [
      [
       [
        82.8216696,
        18.5866229
       ],
       [
        82.8215702,
        18.5863687
       ],
       [
        82.8214447,
        18.5861252
       ],
       [
        82.8212942,
        18.5858948
       ],
       [
        82.8211204,
        18.58568
       ],
       [
        82.8209249,
        18.5854828
       ],
       [
        82.8207097,
        18.5853053
       ],
       [
        82.820477,
        18.5851492
       ],
       [
        82.8202291,
        18.585016
       ],
       [
        82.8199684,
        18.5849071
       ],
       [
        82.8196977,
        18.5848237
       ],
       [
        82.8194195,
        18.5847665
       ],
       [
        82.8191368,
        18.5847361
       ],
       [
        82.8188522,
        18.5847328
       ],
       [
        82.8185688,
        18.5847566
       ],
       [
        82.8182893,
        18.5848074
       ],
       [
        82.8180165,
        18.5848845
       ],
       [
        82.8177531,
        18.5849873
       ],
       [
        82.8175019,
        18.5851147
       ],
       [
        82.8172652,
        18.5852654
       ],
       [
        82.8125202,
        18.5886263
       ],
       [
        82.8123097,
        18.5887909
       ],
       [
        82.8121167,
        18.588974
       ],
       [
        82.8119429,
        18.5891738
       ],
       [
        82.81179,
        18.5893885
       ],
       [
        82.8116593,
        18.5896162
       ],
       [
        82.811552,
        18.5898548
       ],
       [
        82.8114692,
        18.5901021
       ],
       [
        82.8114116,
        18.5903558
       ],
       [
        82.8113797,
        18.5906136
       ],
       [
        82.8113738,
        18.5908731
       ],
       [
        82.811394,
        18.591132
       ],
       [
        82.81144,
        18.5913879
       ],
       [
        82.8115001,
        18.5915985
       ],
       [
        82.8106122,
        18.5919993
       ],
       [
        82.8103679,
        18.5921238
       ],
       [
        82.8101374,
        18.5922703
       ],
       [
        82.8099231,
        18.5924376
       ],
       [
        82.8097268,
        18.592624
       ],
       [
        82.8095504,
        18.5928277
       ],
       [
        82.8093957,
        18.5930468
       ],
       [
        82.8092641,
        18.5932792
       ],
       [
        82.8091569,
        18.5935227
       ],
       [
        82.809075,
        18.5937751
       ],
       [
        82.8090193,
        18.5940338
       ],
       [
        82.8089902,
        18.5942965
       ],
       [
        82.8089882,
        18.5945606
       ],
       [
        82.809013,
        18.5948237
       ],
       [
        82.8090646,
        18.5950832
       ],
       [
        82.8091425,
        18.5953366
       ],
       [
        82.8092459,
        18.5955817
       ],
       [
        82.8093738,
        18.595816
       ],
       [
        82.8156607,
        18.6060781
       ],
       [
        82.8158111,
        18.6062983
       ],
       [
        82.8159831,
        18.6065035
       ],
       [
        82.8161752,
        18.606692
       ],
       [
        82.8163855,
        18.6068618
       ],
       [
        82.8166121,
        18.6070114
       ],
       [
        82.8168528,
        18.6071393
       ],
       [
        82.8171054,
        18.6072445
       ],
       [
        82.8173674,
        18.6073258
       ],
       [
        82.8176365,
        18.6073825
       ],
       [
        82.8179101,
        18.6074141
       ],
       [
        82.8181856,
        18.6074204
       ],
       [
        82.8184605,
        18.6074011
       ],
       [
        82.8187321,
        18.6073566
       ],
       [
        82.8189979,
        18.6072871
       ],
       [
        82.8192554,
        18.6071935
       ],
       [
        82.8195022,
        18.6070765
       ],
       [
        82.8197359,
        18.6069373
       ],
       [
        82.8199544,
        18.6067772
       ],
       [
        82.8201556,
        18.6065977
       ],
       [
        82.8300166,
        18.5969006
       ],
       [
        82.8302043,
        18.5966964
       ],
       [
        82.8303697,
        18.5964753
       ],
       [
        82.830511,
        18.5962396
       ],
       [
        82.8306269,
        18.5959916
       ],
       [
        82.8325968,
        18.5911346
       ],
       [
        82.8326764,
        18.5909095
       ],
       [
        82.832735,
        18.5906786
       ],
       [
        82.8327722,
        18.5904438
       ],
       [
        82.8331581,
        18.5869848
       ],
       [
        82.833174,
        18.5867237
       ],
       [
        82.8331633,
        18.5864624
       ],
       [
        82.8331264,
        18.5862034
       ],
       [
        82.8330634,
        18.5859489
       ],
       [
        82.832975,
        18.5857014
       ],
       [
        82.8328619,
        18.5854632
       ],
       [
        82.8327254,
        18.5852364
       ],
       [
        82.8325665,
        18.5850233
       ],
       [
        82.8323869,
        18.5848258
       ],
       [
        82.8321881,
        18.5846456
       ],
       [
        82.8319721,
        18.5844846
       ],
       [
        82.8317408,
        18.5843442
       ],
       [
        82.8314964,
        18.5842257
       ],
       [
        82.8312411,
        18.5841302
       ],
       [
        82.8309774,
        18.5840586
       ],
       [
        82.8307077,
        18.5840116
       ],
       [
        82.8304345,
        18.5839896
       ],
       [
        82.8301603,
        18.5839928
       ],
       [
        82.8298877,
        18.5840211
       ],
       [
        82.8296193,
        18.5840744
       ],
       [
        82.8266803,
        18.5848004
       ],
       [
        82.8264244,
        18.5848761
       ],
       [
        82.826177,
        18.5849744
       ],
       [
        82.8217557,
        18.5869699
       ],
       [
        82.8217418,
        18.5868854
       ],
       [
        82.8216696,
        18.5866229
       ]
      ]
     ],
     [
      [
       [
        82.840558,
        18.6116894
       ],
       [
        82.8402961,
        18.6116268
       ],
       [
        82.8400291,
        18.6115882
       ],
       [
        82.8397595,
        18.6115739
       ],
       [
        82.8394896,
        18.6115841
       ],
       [
        82.839222,
        18.6116187
       ],
       [
        82.8389591,
        18.6116773
       ],
       [
        82.8387032,
        18.6117595
       ],
       [
        82.8384566,
        18.6118644
       ],
       [
        82.8382215,
        18.6119911
       ],
       [
        82.8380002,
        18.6121386
       ],
       [
        82.8377945,
        18.6123054
       ],
       [
        82.8375155,
        18.6125544
       ],
       [
        82.8373194,
        18.6127476
       ],
       [
        82.8371445,
        18.6129584
       ],
       [
        82.8369922,
        18.6131846
       ],
       [
        82.8368643,
        18.6134241
       ],
       [
        82.8367618,
        18.6136746
       ],
       [
        82.8366859,
        18.6139334
       ],
       [
        82.8366372,
        18.6141982
       ],
       [
        82.8366163,
        18.6144662
       ],
       [
        82.8366233,
        18.614735
       ],
       [
        82.8366933,
        18.615628
       ],
       [
        82.8367371,
        18.6159406
       ],
       [
        82.8368187,
        18.6162462
       ],
       [
        82.8372457,
        18.6175282
       ],
       [
        82.8373406,
        18.6177718
       ],
       [
        82.8374594,
        18.6180056
       ],
       [
        82.8376012,
        18.6182275
       ],
       [
        82.8377647,
        18.6184354
       ],
       [
        82.8379482,
        18.6186275
       ],
       [
        82.8381502,
        18.6188019
       ],
       [
        82.8383688,
        18.618957
       ],
       [
        82.838602,
        18.6190915
       ],
       [
        82.8388476,
        18.6192041
       ],
       [
        82.8402587,
        18.6197731
       ],
       [
        82.840516,
        18.6198632
       ],
       [
        82.8407813,
        18.6199292
       ],
       [
        82.841052,
        18.6199706
       ],
       [
        82.8413256,
        18.6199869
       ],
       [
        82.8415996,
        18.619978
       ],
       [
        82.8418714,
        18.619944
       ],
       [
        82.8421385,
        18.6198851
       ],
       [
        82.8443596,
        18.6192871
       ],
       [
        82.8446275,
        18.6192011
       ],
       [
        82.8448851,
        18.6190901
       ],
       [
        82.8451298,
        18.6189552
       ],
       [
        82.8453593,
        18.6187979
       ],
       [
        82.8455713,
        18.6186196
       ],
       [
        82.8457637,
        18.618422
       ],
       [
        82.8459345,
        18.6182073
       ],
       [
        82.8460821,
        18.6179774
       ],
       [
        82.846205,
        18.6177347
       ],
       [
        82.8463021,
        18.6174816
       ],
       [
        82.8463723,
        18.6172205
       ],
       [
        82.8464149,
        18.6169541
       ],
       [
        82.8464296,
        18.6166849
       ],
       [
        82.8464161,
        18.6164157
       ],
       [
        82.8463747,
        18.6161491
       ],
       [
        82.8463057,
        18.6158877
       ],
       [
        82.8462098,
        18.6156342
       ],
       [
        82.846088,
        18.615391
       ],
       [
        82.8459415,
        18.6151605
       ],
       [
        82.8457716,
        18.6149451
       ],
       [
        82.8455802,
        18.6147467
       ],
       [
        82.845369,
        18.6145676
       ],
       [
        82.8451403,
        18.6144092
       ],
       [
        82.8412903,
        18.6120143
       ],
       [
        82.8410574,
        18.611884
       ],
       [
        82.8408126,
        18.6117753
       ],
       [
        82.840558,
        18.6116894
       ]
      ]
     ],
     [
      [
       [
        82.8550167,
        18.6130927
       ],
       [
        82.8547433,
        18.613133
       ],
       [
        82.8544753,
        18.6131985
       ],
       [
        82.8542153,
        18.6132885
       ],
       [
        82.8539656,
        18.6134022
       ],
       [
        82.8537288,
        18.6135384
       ],
       [
        82.8535069,
        18.613696
       ],
       [
        82.8533022,
        18.6138734
       ],
       [
        82.8531165,
        18.614069
       ],
       [
        82.8529516,
        18.6142808
       ],
       [
        82.8528091,
        18.6145069
       ],
       [
        82.8526904,
        18.6147451
       ],
       [
        82.8525964,
        18.6149932
       ],
       [
        82.8525283,
        18.6152489
       ],
       [
        82.8524865,
        18.6155096
       ],
       [
        82.8524715,
        18.615773
       ],
       [
        82.8524834,
        18.6160365
       ],
       [
        82.8525222,
        18.6162977
       ],
       [
        82.8525874,
        18.616554
       ],
       [
        82.8526784,
        18.6168031
       ],
       [
        82.8527944,
        18.6170426
       ],
       [
        82.8529342,
        18.6172702
       ],
       [
        82.8530966,
        18.6174837
       ],
       [
        82.85328,
        18.6176812
       ],
       [
        82.854219,
        18.6185982
       ],
       [
        82.8544261,
        18.6187813
       ],
       [
        82.8546513,
        18.6189439
       ],
       [
        82.8548922,
        18.6190844
       ],
       [
        82.8551466,
        18.6192014
       ],
       [
        82.8554119,
        18.6192938
       ],
       [
        82.8556856,
        18.6193606
       ],
       [
        82.8559648,
        18.6194012
       ],
       [
        82.8562468,
        18.6194151
       ],
       [
        82.856529,
        18.6194023
       ],
       [
        82.8568084,
        18.6193629
       ],
       [
        82.8570823,
        18.6192972
       ],
       [
        82.857348,
        18.619206
       ],
       [
        82.857603,
        18.61909
       ],
       [
        82.8578445,
        18.6189505
       ],
       [
        82.8580704,
        18.6187888
       ],
       [
        82.8582784,
        18.6186066
       ],
       [
        82.8584663,
        18.6184056
       ],
       [
        82.8586324,
        18.6181878
       ],
       [
        82.858775,
        18.6179553
       ],
       [
        82.8588927,
        18.6177105
       ],
       [
        82.8589843,
        18.6174558
       ],
       [
        82.859049,
        18.6171937
       ],
       [
        82.859086,
        18.6169267
       ],
       [
        82.85913,
        18.6164157
       ],
       [
        82.8591391,
        18.6161443
       ],
       [
        82.8591196,
        18.6158733
       ],
       [
        82.8590717,
        18.6156056
       ],
       [
        82.8589961,
        18.6153438
       ],
       [
        82.8588933,
        18.6150905
       ],
       [
        82.8587644,
        18.6148484
       ],
       [
        82.8586107,
        18.6146197
       ],
       [
        82.8584339,
        18.6144068
       ],
       [
        82.8582355,
        18.6142119
       ],
       [
        82.8580177,
        18.6140369
       ],
       [
        82.8577827,
        18.6138835
       ],
       [
        82.8575327,
        18.6137533
       ],
       [
        82.8567157,
        18.6133773
       ],
       [
        82.8564873,
        18.6132838
       ],
       [
        82.8562513,
        18.6132095
       ],
       [
        82.8560094,
        18.6131553
       ],
       [
        82.8558434,
        18.6131253
       ],
       [
        82.8555694,
        18.6130888
       ],
       [
        82.855293,
        18.6130779
       ],
       [
        82.8550167,
        18.6130927
       ]
      ]
     ],
     [
      [
       [
        82.9337119,
        18.6219166
       ],
       [
        82.9334369,
        18.6219177
       ],
       [
        82.9331634,
        18.6219441
       ],
       [
        82.9328938,
        18.6219956
       ],
       [
        82.9326306,
        18.6220716
       ],
       [
        82.9323764,
        18.6221716
       ],
       [
        82.9321336,
        18.6222944
       ],
       [
        82.9319043,
        18.6224391
       ],
       [
        82.9316907,
        18.6226042
       ],
       [
        82.9314949,
        18.6227883
       ],
       [
        82.9313187,
        18.6229895
       ],
       [
        82.9311636,
        18.6232059
       ],
       [
        82.9310313,
        18.6234357
       ],
       [
        82.9309228,
        18.6236766
       ],
       [
        82.9308392,
        18.6239263
       ],
       [
        82.9307814,
        18.6241826
       ],
       [
        82.9307498,
        18.624443
       ],
       [
        82.9307447,
        18.6247051
       ],
       [
        82.9307662,
        18.6249664
       ],
       [
        82.9308141,
        18.6252245
       ],
       [
        82.9308879,
        18.625477
       ],
       [
        82.930987,
        18.6257216
       ],
       [
        82.9311104,
        18.6259558
       ],
       [
        82.9312569,
        18.6261776
       ],
       [
        82.9314253,
        18.6263849
       ],
       [
        82.9316138,
        18.6265757
       ],
       [
        82.9318208,
        18.6267482
       ],
       [
        82.9320444,
        18.6269009
       ],
       [
        82.9322823,
        18.6270322
       ],
       [
        82.9727518,
        18.6469374
       ],
       [
        82.973001,
        18.6470458
       ],
       [
        82.9732599,
        18.6471308
       ],
       [
        82.9735263,
        18.6471917
       ],
       [
        82.9737975,
        18.6472278
       ],
       [
        82.9740712,
        18.6472389
       ],
       [
        82.9743447,
        18.6472248
       ],
       [
        82.9746155,
        18.6471858
       ],
       [
        82.9748811,
        18.647122
       ],
       [
        82.975139,
        18.6470342
       ],
       [
        82.9753869,
        18.6469231
       ],
       [
        82.9756224,
        18.6467898
       ],
       [
        82.9758434,
        18.6466356
       ],
       [
        82.9760477,
        18.6464617
       ],
       [
        82.9762336,
        18.64627
       ],
       [
        82.9763992,
        18.646062
       ],
       [
        82.9765431,
        18.6458399
       ],
       [
        82.9766639,
        18.6456056
       ],
       [
        82.9767605,
        18.6453613
       ],
       [
        82.9768319,
        18.6451092
       ],
       [
        82.9768776,
        18.6448518
       ],
       [
        82.9768971,
        18.6445914
       ],
       [
        82.9768902,
        18.6443304
       ],
       [
        82.976857,
        18.6440712
       ],
       [
        82.9767978,
        18.6438163
       ],
       [
        82.9767131,
        18.643568
       ],
       [
        82.973736,
        18.6360851
       ],
       [
        82.9736257,
        18.6358439
       ],
       [
        82.9734915,
        18.6356141
       ],
       [
        82.9733345,
        18.6353978
       ],
       [
        82.9731562,
        18.635197
       ],
       [
        82.9729584,
        18.6350136
       ],
       [
        82.9727428,
        18.6348494
       ],
       [
        82.9725116,
        18.6347059
       ],
       [
        82.9722669,
        18.6345844
       ],
       [
        82.9720109,
        18.6344861
       ],
       [
        82.9345194,
        18.6220643
       ],
       [
        82.9342557,
        18.6219903
       ],
       [
        82.9339856,
        18.6219409
       ],
       [
        82.9337119,
        18.6219166
       ]
      ]
     ],
     [
      [
       [
        82.810875,
        18.6497358
       ],
       [
        82.8105917,
        18.6497715
       ],
       [
        82.8103137,
        18.6498342
       ],
       [
        82.8100436,
        18.6499231
       ],
       [
        82.8097842,
        18.6500375
       ],
       [
        82.8095382,
        18.6501761
       ],
       [
        82.8093081,
        18.6503375
       ],
       [
        82.8090961,
        18.6505201
       ],
       [
        82.8089044,
        18.6507221
       ],
       [
        82.8087349,
        18.6509414
       ],
       [
        82.8085894,
        18.6511759
       ],
       [
        82.8084693,
        18.651423
       ],
       [
        82.8082653,
        18.651905
       ],
       [
        82.8081725,
        18.6521602
       ],
       [
        82.8081068,
        18.6524229
       ],
       [
        82.8080689,
        18.6526905
       ],
       [
        82.8080591,
        18.6529604
       ],
       [
        82.8080775,
        18.6532299
       ],
       [
        82.808124,
        18.6534963
       ],
       [
        82.8081981,
        18.653757
       ],
       [
        82.808299,
        18.6540094
       ],
       [
        82.8084258,
        18.6542509
       ],
       [
        82.8085771,
        18.6544792
       ],
       [
        82.8087516,
        18.654692
       ],
       [
        82.8089474,
        18.6548872
       ],
       [
        82.8091626,
        18.6550628
       ],
       [
        82.8093951,
        18.6552172
       ],
       [
        82.8096425,
        18.6553488
       ],
       [
        82.8099025,
        18.6554562
       ],
       [
        82.8101723,
        18.6555384
       ],
       [
        82.8119504,
        18.6559884
       ],
       [
        82.8122286,
        18.6560448
       ],
       [
        82.8125115,
        18.6560744
       ],
       [
        82.8127959,
        18.6560769
       ],
       [
        82.8130793,
        18.6560523
       ],
       [
        82.8133586,
        18.6560009
       ],
       [
        82.8136312,
        18.655923
       ],
       [
        82.8138942,
        18.6558196
       ],
       [
        82.814145,
        18.6556917
       ],
       [
        82.8143812,
        18.6555405
       ],
       [
        82.8146004,
        18.6553676
       ],
       [
        82.8148003,
        18.6551746
       ],
       [
        82.814979,
        18.6549636
       ],
       [
        82.8151347,
        18.6547366
       ],
       [
        82.8152658,
        18.654496
       ],
       [
        82.815371,
        18.654244
       ],
       [
        82.8154492,
        18.6539833
       ],
       [
        82.8156262,
        18.6532583
       ],
       [
        82.8156769,
        18.6529908
       ],
       [
        82.8156991,
        18.6527198
       ],
       [
        82.8156928,
        18.652448
       ],
       [
        82.8156579,
        18.6521782
       ],
       [
        82.8155949,
        18.6519131
       ],
       [
        82.8155043,
        18.6516554
       ],
       [
        82.8153871,
        18.6514076
       ],
       [
        82.8152445,
        18.6511723
       ],
       [
        82.8150778,
        18.6509517
       ],
       [
        82.8148888,
        18.6507482
       ],
       [
        82.8146793,
        18.6505637
       ],
       [
        82.8144516,
        18.6504002
       ],
       [
        82.8142077,
        18.6502592
       ],
       [
        82.8139504,
        18.6501422
       ],
       [
        82.813682,
        18.6500504
       ],
       [
        82.8134053,
        18.6499847
       ],
       [
        82.8123163,
        18.6497807
       ],
       [
        82.8121501,
        18.6497544
       ],
       [
        82.8118871,
        18.6497204
       ],
       [
        82.811581,
        18.6496968
       ],
       [
        82.811274,
        18.6497048
       ],
       [
        82.810875,
        18.6497358
       ]
      ]
     ],
     [
      [
       [
        82.963078,
        18.6740933
       ],
       [
        82.9627903,
        18.6741227
       ],
       [
        82.8685107,
        18.6883933
       ],
       [
        82.8682381,
        18.6884477
       ],
       [
        82.8679725,
        18.6885271
       ],
       [
        82.8677162,
        18.688631
       ],
       [
        82.8674719,
        18.6887582
       ],
       [
        82.8672418,
        18.6889076
       ],
       [
        82.8670281,
        18.6890777
       ],
       [
        82.8668329,
        18.689267
       ],
       [
        82.8666581,
        18.6894735
       ],
       [
        82.8665052,
        18.6896953
       ],
       [
        82.8663759,
        18.6899303
       ],
       [
        82.8662713,
        18.6901762
       ],
       [
        82.8661925,
        18.6904307
       ],
       [
        82.8661401,
        18.6906913
       ],
       [
        82.8661148,
        18.6909555
       ],
       [
        82.8661166,
        18.6912209
       ],
       [
        82.8661457,
        18.6914848
       ],
       [
        82.8662017,
        18.6917447
       ],
       [
        82.8662842,
        18.6919982
       ],
       [
        82.8663922,
        18.6922427
       ],
       [
        82.8665249,
        18.692476
       ],
       [
        82.8666808,
        18.6926959
       ],
       [
        82.8668586,
        18.6929001
       ],
       [
        82.8670564,
        18.6930868
       ],
       [
        82.8672725,
        18.6932542
       ],
       [
        82.8675047,
        18.6934006
       ],
       [
        82.8677508,
        18.6935247
       ],
       [
        82.8680085,
        18.6936252
       ],
       [
        82.8682752,
        18.6937013
       ],
       [
        82.8685485,
        18.6937521
       ],
       [
        82.8688257,
        18.6937772
       ],
       [
        82.8691042,
        18.6937764
       ],
       [
        82.9619496,
        18.6891372
       ],
       [
        82.9622565,
        18.6891058
       ],
       [
        82.962558,
        18.6890429
       ],
       [
        82.9628506,
        18.6889492
       ],
       [
        82.9757627,
        18.6840561
       ],
       [
        82.9760016,
        18.6839532
       ],
       [
        82.9762294,
        18.6838298
       ],
       [
        82.9769544,
        18.6833938
       ],
       [
        82.9771729,
        18.6832484
       ],
       [
        82.9773761,
        18.6830841
       ],
       [
        82.9775622,
        18.6829024
       ],
       [
        82.9777297,
        18.6827049
       ],
       [
        82.9778771,
        18.6824933
       ],
       [
        82.9780031,
        18.6822695
       ],
       [
        82.9781065,
        18.6820354
       ],
       [
        82.9781864,
        18.6817932
       ],
       [
        82.9782422,
        18.6815449
       ],
       [
        82.9782734,
        18.6812927
       ],
       [
        82.9782797,
        18.6810388
       ],
       [
        82.9782467,
        18.6796908
       ],
       [
        82.9782259,
        18.679421
       ],
       [
        82.978177,
        18.6791546
       ],
       [
        82.9781005,
        18.6788942
       ],
       [
        82.9779971,
        18.6786423
       ],
       [
        82.977868,
        18.6784015
       ],
       [
        82.9777142,
        18.6781741
       ],
       [
        82.9775375,
        18.6779625
       ],
       [
        82.9773395,
        18.6777688
       ],
       [
        82.9771222,
        18.6775948
       ],
       [
        82.9768878,
        18.6774423
       ],
       [
        82.9766387,
        18.6773129
       ],
       [
        82.9763772,
        18.6772077
       ],
       [
        82.9761061,
        18.677128
       ],
       [
        82.9639392,
        18.674173
       ],
       [
        82.9636555,
        18.6741186
       ],
       [
        82.9633674,
        18.6740919
       ],
       [
        82.963078,
        18.6740933
       ]
      ]
     ]
    ]
   }
  }
 ]
}
