{
 "type": "FeatureCollection",
 "name": "odisha_habitations_dhenkanal",
 "description": "The DHENKANAL part of the Phase 2 full habitation set (per-habitation convex hull + 300 m, dissolved). One of four per-district AOIs; see odisha_phase2_0_aois.py.",
 "features": [
  {
   "type": "Feature",
   "properties": {
    "name": "odisha_habitations_dhenkanal",
    "n_parts": 8,
    "parts": [
     {
      "habitations": [
       "TULASIPASI"
      ],
      "area_ha": 246.98
     },
     {
      "habitations": [
       "KANKANA"
      ],
      "area_ha": 67.91
     },
     {
      "habitations": [
       "BALIKUMA"
      ],
      "area_ha": 144.76
     },
     {
      "habitations": [
       "NUA SAHI"
      ],
      "area_ha": 189.05
     },
     {
      "habitations": [
       "ADHAPALLI"
      ],
      "area_ha": 105.62
     },
     {
      "habitations": [
       "BURUGI BHUIN"
      ],
      "area_ha": 73.7
     },
     {
      "habitations": [
       "BALI SAHI"
      ],
      "area_ha": 63.88
     },
     {
      "habitations": [
       "RAIJHARANA"
      ],
      "area_ha": 103.5
     }
    ],
    "generated_by": "odisha_script/odisha_phase2_0_aois.py"
   },
   "geometry": {
    "type": "MultiPolygon",
    "coordinates": [
     [
      [
       [
        85.6517062,
        20.9238878
       ],
       [
        85.6514326,
        20.9239732
       ],
       [
        85.6511694,
        20.9240839
       ],
       [
        85.6509192,
        20.9242187
       ],
       [
        85.6506847,
        20.9243764
       ],
       [
        85.6504681,
        20.9245552
       ],
       [
        85.6502715,
        20.9247535
       ],
       [
        85.6500971,
        20.9249692
       ],
       [
        85.6499464,
        20.9252002
       ],
       [
        85.649821,
        20.9254442
       ],
       [
        85.6497222,
        20.9256987
       ],
       [
        85.6496509,
        20.9259612
       ],
       [
        85.6496079,
        20.9262291
       ],
       [
        85.6495935,
        20.9264997
       ],
       [
        85.649608,
        20.9267703
       ],
       [
        85.649762,
        20.9282083
       ],
       [
        85.6498029,
        20.9284656
       ],
       [
        85.6498699,
        20.928718
       ],
       [
        85.6499623,
        20.9289632
       ],
       [
        85.6500793,
        20.9291989
       ],
       [
        85.6502198,
        20.9294231
       ],
       [
        85.6503826,
        20.9296335
       ],
       [
        85.6505661,
        20.9298283
       ],
       [
        85.6507686,
        20.9300057
       ],
       [
        85.6509883,
        20.930164
       ],
       [
        85.6512231,
        20.9303018
       ],
       [
        85.6640683,
        20.9370559
       ],
       [
        85.6643079,
        20.9371685
       ],
       [
        85.6645577,
        20.9372598
       ],
       [
        85.6648154,
        20.9373288
       ],
       [
        85.6650788,
        20.9373751
       ],
       [
        85.6677288,
        20.9377221
       ],
       [
        85.6680083,
        20.9377458
       ],
       [
        85.6682888,
        20.9377438
       ],
       [
        85.6685679,
        20.9377162
       ],
       [
        85.6688427,
        20.9376633
       ],
       [
        85.6691108,
        20.9375856
       ],
       [
        85.6693696,
        20.9374837
       ],
       [
        85.6696167,
        20.9373588
       ],
       [
        85.6698496,
        20.9372118
       ],
       [
        85.6700663,
        20.9370443
       ],
       [
        85.6702645,
        20.9368578
       ],
       [
        85.6704426,
        20.9366541
       ],
       [
        85.6705988,
        20.9364351
       ],
       [
        85.6707316,
        20.9362029
       ],
       [
        85.6708397,
        20.9359597
       ],
       [
        85.6709222,
        20.9357077
       ],
       [
        85.6709782,
        20.9354495
       ],
       [
        85.6710073,
        20.9351873
       ],
       [
        85.6710091,
        20.9349237
       ],
       [
        85.6709836,
        20.9346612
       ],
       [
        85.6697665,
        20.9265172
       ],
       [
        85.6697121,
        20.9262507
       ],
       [
        85.6696296,
        20.9259907
       ],
       [
        85.6695198,
        20.9257397
       ],
       [
        85.6693839,
        20.9255004
       ],
       [
        85.6692231,
        20.9252749
       ],
       [
        85.6690392,
        20.9250657
       ],
       [
        85.668834,
        20.9248749
       ],
       [
        85.6686095,
        20.9247042
       ],
       [
        85.6683679,
        20.9245556
       ],
       [
        85.6681117,
        20.9244303
       ],
       [
        85.6678435,
        20.9243298
       ],
       [
        85.6675659,
        20.9242549
       ],
       [
        85.6672817,
        20.9242065
       ],
       [
        85.6669939,
        20.9241851
       ],
       [
        85.6525621,
        20.9237901
       ],
       [
        85.6522738,
        20.9237957
       ],
       [
        85.6519876,
        20.9238284
       ],
       [
        85.6517062,
        20.9238878
       ]
      ]
     ],
     [
      [
       [
        85.6989439,
        20.965706
       ],
       [
        85.6987061,
        20.9655485
       ],
       [
        85.6984526,
        20.9654142
       ],
       [
        85.698186,
        20.9653046
       ],
       [
        85.697909,
        20.9652208
       ],
       [
        85.6976245,
        20.9651636
       ],
       [
        85.6973352,
        20.9651337
       ],
       [
        85.6970442,
        20.9651312
       ],
       [
        85.6967544,
        20.9651564
       ],
       [
        85.6964688,
        20.9652087
       ],
       [
        85.6961903,
        20.9652879
       ],
       [
        85.6959217,
        20.965393
       ],
       [
        85.6956657,
        20.965523
       ],
       [
        85.6954249,
        20.9656765
       ],
       [
        85.6952018,
        20.9658521
       ],
       [
        85.6938428,
        20.967036
       ],
       [
        85.6936352,
        20.9672366
       ],
       [
        85.6934507,
        20.9674563
       ],
       [
        85.6932913,
        20.9676926
       ],
       [
        85.6931586,
        20.9679431
       ],
       [
        85.6930542,
        20.9682052
       ],
       [
        85.6929791,
        20.9684759
       ],
       [
        85.6929341,
        20.9687525
       ],
       [
        85.692758,
        20.9704005
       ],
       [
        85.6927442,
        20.9706191
       ],
       [
        85.6927081,
        20.9723851
       ],
       [
        85.692717,
        20.9726561
       ],
       [
        85.6927547,
        20.9729249
       ],
       [
        85.6928208,
        20.9731888
       ],
       [
        85.6929147,
        20.9734452
       ],
       [
        85.6930353,
        20.9736915
       ],
       [
        85.6931816,
        20.9739252
       ],
       [
        85.6933519,
        20.9741441
       ],
       [
        85.6935448,
        20.9743458
       ],
       [
        85.6937581,
        20.9745285
       ],
       [
        85.6939897,
        20.9746902
       ],
       [
        85.6942374,
        20.9748294
       ],
       [
        85.6944987,
        20.9749446
       ],
       [
        85.694771,
        20.9750348
       ],
       [
        85.6950514,
        20.9750989
       ],
       [
        85.6953373,
        20.9751364
       ],
       [
        85.6956258,
        20.9751469
       ],
       [
        85.6959139,
        20.9751303
       ],
       [
        85.6961988,
        20.9750867
       ],
       [
        85.6964776,
        20.9750166
       ],
       [
        85.6967476,
        20.9749207
       ],
       [
        85.697006,
        20.9747999
       ],
       [
        85.6972503,
        20.9746555
       ],
       [
        85.697478,
        20.9744888
       ],
       [
        85.6976869,
        20.9743017
       ],
       [
        85.6978747,
        20.9740958
       ],
       [
        85.6987837,
        20.9729928
       ],
       [
        85.6989527,
        20.9727645
       ],
       [
        85.6990958,
        20.9725212
       ],
       [
        85.6992117,
        20.9722654
       ],
       [
        85.7003306,
        20.9693933
       ],
       [
        85.7004128,
        20.9691466
       ],
       [
        85.7004695,
        20.9688937
       ],
       [
        85.7005003,
        20.9686369
       ],
       [
        85.700505,
        20.9683784
       ],
       [
        85.7004834,
        20.9681207
       ],
       [
        85.7004357,
        20.9678662
       ],
       [
        85.7003625,
        20.967617
       ],
       [
        85.7002643,
        20.9673755
       ],
       [
        85.7001421,
        20.967144
       ],
       [
        85.6999969,
        20.9669244
       ],
       [
        85.6995399,
        20.9663014
       ],
       [
        85.699363,
        20.9660844
       ],
       [
        85.6991636,
        20.9658853
       ],
       [
        85.6989439,
        20.965706
       ]
      ]
     ],
     [
      [
       [
        85.6118905,
        21.016193
       ],
       [
        85.6116161,
        21.01627
       ],
       [
        85.611351,
        21.0163721
       ],
       [
        85.6110981,
        21.0164984
       ],
       [
        85.6093701,
        21.0174674
       ],
       [
        85.6091387,
        21.0176118
       ],
       [
        85.6089231,
        21.0177764
       ],
       [
        85.6087253,
        21.0179598
       ],
       [
        85.6085473,
        21.0181602
       ],
       [
        85.6083906,
        21.0183757
       ],
       [
        85.6082567,
        21.0186044
       ],
       [
        85.6074127,
        21.0202263
       ],
       [
        85.6073009,
        21.0204711
       ],
       [
        85.6072152,
        21.0207249
       ],
       [
        85.6071564,
        21.0209854
       ],
       [
        85.6071252,
        21.0212501
       ],
       [
        85.6071217,
        21.0215164
       ],
       [
        85.6071461,
        21.0217817
       ],
       [
        85.6071982,
        21.0220434
       ],
       [
        85.6072773,
        21.0222992
       ],
       [
        85.6073828,
        21.0225463
       ],
       [
        85.6075136,
        21.0227826
       ],
       [
        85.6076685,
        21.0230057
       ],
       [
        85.6078459,
        21.0232134
       ],
       [
        85.6093439,
        21.0248004
       ],
       [
        85.6095561,
        21.0250028
       ],
       [
        85.6097897,
        21.0251832
       ],
       [
        85.6100421,
        21.0253397
       ],
       [
        85.6103106,
        21.0254705
       ],
       [
        85.6105922,
        21.0255742
       ],
       [
        85.6108838,
        21.0256497
       ],
       [
        85.6154249,
        21.0265877
       ],
       [
        85.6157051,
        21.0266321
       ],
       [
        85.6159886,
        21.0266505
       ],
       [
        85.6162726,
        21.0266426
       ],
       [
        85.6165545,
        21.0266084
       ],
       [
        85.6168314,
        21.0265485
       ],
       [
        85.6171007,
        21.0264632
       ],
       [
        85.6173598,
        21.0263535
       ],
       [
        85.6176061,
        21.0262204
       ],
       [
        85.6178372,
        21.0260653
       ],
       [
        85.6207293,
        21.0239142
       ],
       [
        85.62094,
        21.0237412
       ],
       [
        85.6211318,
        21.0235499
       ],
       [
        85.6213031,
        21.023342
       ],
       [
        85.621452,
        21.0231196
       ],
       [
        85.6215774,
        21.0228846
       ],
       [
        85.6225813,
        21.0207496
       ],
       [
        85.6226809,
        21.0205071
       ],
       [
        85.6227552,
        21.0202567
       ],
       [
        85.6228037,
        21.0200008
       ],
       [
        85.6228258,
        21.0197417
       ],
       [
        85.6228213,
        21.0194818
       ],
       [
        85.6227904,
        21.0192235
       ],
       [
        85.6227333,
        21.0189692
       ],
       [
        85.6226504,
        21.0187211
       ],
       [
        85.6225427,
        21.0184817
       ],
       [
        85.622411,
        21.0182531
       ],
       [
        85.6222566,
        21.0180373
       ],
       [
        85.6220809,
        21.0178365
       ],
       [
        85.6218855,
        21.0176524
       ],
       [
        85.6216722,
        21.0174867
       ],
       [
        85.621443,
        21.0173409
       ],
       [
        85.6212,
        21.0172164
       ],
       [
        85.6209454,
        21.0171144
       ],
       [
        85.6206816,
        21.0170357
       ],
       [
        85.6204109,
        21.0169812
       ],
       [
        85.616126,
        21.0163172
       ],
       [
        85.6158215,
        21.0162855
       ],
       [
        85.6127435,
        21.0161195
       ],
       [
        85.6124571,
        21.0161174
       ],
       [
        85.6121718,
        21.016142
       ],
       [
        85.6118905,
        21.016193
       ]
      ]
     ],
     [
      [
       [
        85.6932815,
        21.0394381
       ],
       [
        85.6931512,
        21.0392063
       ],
       [
        85.6929977,
        21.0389873
       ],
       [
        85.6928224,
        21.0387833
       ],
       [
        85.6926269,
        21.0385962
       ],
       [
        85.6924131,
        21.0384276
       ],
       [
        85.6921829,
        21.0382793
       ],
       [
        85.6919385,
        21.0381525
       ],
       [
        85.6916822,
        21.0380484
       ],
       [
        85.6914165,
        21.0379681
       ],
       [
        85.6911437,
        21.0379123
       ],
       [
        85.6908664,
        21.0378815
       ],
       [
        85.6905872,
        21.0378759
       ],
       [
        85.6903088,
        21.0378958
       ],
       [
        85.6900338,
        21.0379407
       ],
       [
        85.6897646,
        21.0380104
       ],
       [
        85.6871267,
        21.0388244
       ],
       [
        85.6868767,
        21.0389138
       ],
       [
        85.6866367,
        21.0390245
       ],
       [
        85.6864085,
        21.0391556
       ],
       [
        85.6861943,
        21.0393059
       ],
       [
        85.6859958,
        21.0394742
       ],
       [
        85.6858148,
        21.0396591
       ],
       [
        85.6814858,
        21.044512
       ],
       [
        85.6813101,
        21.0447305
       ],
       [
        85.6811588,
        21.0449645
       ],
       [
        85.6810334,
        21.0452117
       ],
       [
        85.6809352,
        21.0454694
       ],
       [
        85.6808652,
        21.0457352
       ],
       [
        85.6808241,
        21.0460062
       ],
       [
        85.6808123,
        21.0462797
       ],
       [
        85.68083,
        21.046553
       ],
       [
        85.680877,
        21.0468232
       ],
       [
        85.6809528,
        21.0470875
       ],
       [
        85.6810566,
        21.0473433
       ],
       [
        85.6811874,
        21.047588
       ],
       [
        85.6813438,
        21.0478191
       ],
       [
        85.6845337,
        21.0520441
       ],
       [
        85.6846977,
        21.0522414
       ],
       [
        85.6848804,
        21.0524236
       ],
       [
        85.6850803,
        21.0525892
       ],
       [
        85.6852955,
        21.0527368
       ],
       [
        85.6855244,
        21.0528652
       ],
       [
        85.6886424,
        21.0544352
       ],
       [
        85.6889035,
        21.0545513
       ],
       [
        85.6891756,
        21.0546422
       ],
       [
        85.689456,
        21.0547072
       ],
       [
        85.6897419,
        21.0547456
       ],
       [
        85.6900306,
        21.054757
       ],
       [
        85.6903189,
        21.0547412
       ],
       [
        85.6906042,
        21.0546984
       ],
       [
        85.6908834,
        21.0546292
       ],
       [
        85.6911539,
        21.054534
       ],
       [
        85.6914129,
        21.054414
       ],
       [
        85.6916579,
        21.0542702
       ],
       [
        85.6918863,
        21.0541043
       ],
       [
        85.6920959,
        21.0539177
       ],
       [
        85.6922845,
        21.0537124
       ],
       [
        85.6924504,
        21.0534904
       ],
       [
        85.6925918,
        21.0532539
       ],
       [
        85.6927074,
        21.0530054
       ],
       [
        85.6935523,
        21.0509074
       ],
       [
        85.693591,
        21.0508054
       ],
       [
        85.6944829,
        21.0482914
       ],
       [
        85.6945562,
        21.0480472
       ],
       [
        85.6946049,
        21.0477977
       ],
       [
        85.6946285,
        21.047545
       ],
       [
        85.6946268,
        21.0472913
       ],
       [
        85.6945998,
        21.0470389
       ],
       [
        85.6935217,
        21.0401889
       ],
       [
        85.6934676,
        21.0399317
       ],
       [
        85.6933873,
        21.0396807
       ],
       [
        85.6932815,
        21.0394381
       ]
      ]
     ],
     [
      [
       [
        85.5224269,
        21.0416844
       ],
       [
        85.5221456,
        21.0416457
       ],
       [
        85.5218616,
        21.0416331
       ],
       [
        85.5215777,
        21.0416468
       ],
       [
        85.5212966,
        21.0416867
       ],
       [
        85.5190337,
        21.0421157
       ],
       [
        85.5187607,
        21.0421806
       ],
       [
        85.5184958,
        21.0422702
       ],
       [
        85.5182414,
        21.0423835
       ],
       [
        85.518,
        21.0425196
       ],
       [
        85.5177739,
        21.0426771
       ],
       [
        85.5175652,
        21.0428546
       ],
       [
        85.5173759,
        21.0430502
       ],
       [
        85.5172079,
        21.0432623
       ],
       [
        85.5170626,
        21.0434887
       ],
       [
        85.5169415,
        21.0437274
       ],
       [
        85.5168458,
        21.043976
       ],
       [
        85.5167763,
        21.0442321
       ],
       [
        85.5167337,
        21.0444934
       ],
       [
        85.5167184,
        21.0447574
       ],
       [
        85.5167306,
        21.0450214
       ],
       [
        85.5167702,
        21.0452832
       ],
       [
        85.5168367,
        21.04554
       ],
       [
        85.5169296,
        21.0457895
       ],
       [
        85.5170479,
        21.0460294
       ],
       [
        85.5171906,
        21.0462573
       ],
       [
        85.5173562,
        21.0464711
       ],
       [
        85.5186122,
        21.0479361
       ],
       [
        85.5187872,
        21.048122
       ],
       [
        85.5189795,
        21.0482922
       ],
       [
        85.5216755,
        21.0504672
       ],
       [
        85.5218983,
        21.0506298
       ],
       [
        85.5221368,
        21.0507713
       ],
       [
        85.5223889,
        21.0508901
       ],
       [
        85.5226522,
        21.0509853
       ],
       [
        85.5240142,
        21.0514074
       ],
       [
        85.524289,
        21.0514786
       ],
       [
        85.5245698,
        21.051524
       ],
       [
        85.5248541,
        21.0515432
       ],
       [
        85.525139,
        21.051536
       ],
       [
        85.5254217,
        21.0515025
       ],
       [
        85.5256996,
        21.0514429
       ],
       [
        85.5259698,
        21.051358
       ],
       [
        85.5262298,
        21.0512484
       ],
       [
        85.5287129,
        21.0500604
       ],
       [
        85.528953,
        21.0499315
       ],
       [
        85.529179,
        21.0497816
       ],
       [
        85.5293886,
        21.0496121
       ],
       [
        85.5295799,
        21.0494246
       ],
       [
        85.5297513,
        21.0492207
       ],
       [
        85.5299011,
        21.0490024
       ],
       [
        85.5300279,
        21.0487716
       ],
       [
        85.5301306,
        21.0485304
       ],
       [
        85.5302083,
        21.0482812
       ],
       [
        85.5302601,
        21.0480261
       ],
       [
        85.5302858,
        21.0477675
       ],
       [
        85.5302849,
        21.0475078
       ],
       [
        85.5302576,
        21.0472493
       ],
       [
        85.530204,
        21.0469945
       ],
       [
        85.5301247,
        21.0467457
       ],
       [
        85.5300204,
        21.0465052
       ],
       [
        85.5298921,
        21.0462751
       ],
       [
        85.5297408,
        21.0460577
       ],
       [
        85.5293008,
        21.0454867
       ],
       [
        85.5291422,
        21.0452989
       ],
       [
        85.5289665,
        21.045125
       ],
       [
        85.5287751,
        21.0449663
       ],
       [
        85.5285695,
        21.0448241
       ],
       [
        85.5271745,
        21.0439462
       ],
       [
        85.5269265,
        21.0438065
       ],
       [
        85.5232275,
        21.0419525
       ],
       [
        85.5229705,
        21.0418385
       ],
       [
        85.5227027,
        21.0417489
       ],
       [
        85.5224269,
        21.0416844
       ]
      ]
     ],
     [
      [
       [
        85.3891233,
        21.0738847
       ],
       [
        85.3888494,
        21.0738723
       ],
       [
        85.3885755,
        21.0738843
       ],
       [
        85.3883041,
        21.0739206
       ],
       [
        85.3880376,
        21.073981
       ],
       [
        85.3877783,
        21.0740648
       ],
       [
        85.3875287,
        21.0741713
       ],
       [
        85.387291,
        21.0742995
       ],
       [
        85.3870673,
        21.0744483
       ],
       [
        85.3868597,
        21.0746164
       ],
       [
        85.38667,
        21.0748022
       ],
       [
        85.3864999,
        21.0750041
       ],
       [
        85.3847469,
        21.0773011
       ],
       [
        85.3845921,
        21.0775267
       ],
       [
        85.3844619,
        21.0777656
       ],
       [
        85.3843575,
        21.0780154
       ],
       [
        85.3842799,
        21.0782736
       ],
       [
        85.3842299,
        21.0785378
       ],
       [
        85.384208,
        21.0788054
       ],
       [
        85.3842144,
        21.0790737
       ],
       [
        85.384249,
        21.07934
       ],
       [
        85.3843115,
        21.0796019
       ],
       [
        85.3844013,
        21.0798566
       ],
       [
        85.3845176,
        21.0801018
       ],
       [
        85.3846591,
        21.080335
       ],
       [
        85.3848244,
        21.0805539
       ],
       [
        85.3850121,
        21.0807564
       ],
       [
        85.3852201,
        21.0809404
       ],
       [
        85.3854466,
        21.0811043
       ],
       [
        85.3856891,
        21.0812463
       ],
       [
        85.3859455,
        21.0813651
       ],
       [
        85.3862131,
        21.0814595
       ],
       [
        85.3864894,
        21.0815286
       ],
       [
        85.3867716,
        21.0815718
       ],
       [
        85.3891896,
        21.0818268
       ],
       [
        85.3895182,
        21.0818437
       ],
       [
        85.3898468,
        21.0818255
       ],
       [
        85.390171,
        21.0817722
       ],
       [
        85.39108,
        21.0815722
       ],
       [
        85.391348,
        21.0815003
       ],
       [
        85.3916074,
        21.0814044
       ],
       [
        85.3918557,
        21.0812855
       ],
       [
        85.3920906,
        21.0811447
       ],
       [
        85.3937816,
        21.0800197
       ],
       [
        85.3940029,
        21.0798567
       ],
       [
        85.3942062,
        21.0796743
       ],
       [
        85.3943897,
        21.0794742
       ],
       [
        85.3945515,
        21.0792583
       ],
       [
        85.3946902,
        21.0790286
       ],
       [
        85.3948044,
        21.0787873
       ],
       [
        85.394893,
        21.0785368
       ],
       [
        85.3949553,
        21.0782794
       ],
       [
        85.3949905,
        21.0780175
       ],
       [
        85.3949985,
        21.0777536
       ],
       [
        85.394979,
        21.0774902
       ],
       [
        85.3949324,
        21.0772299
       ],
       [
        85.394859,
        21.0769751
       ],
       [
        85.3947595,
        21.0767282
       ],
       [
        85.3946349,
        21.0764915
       ],
       [
        85.3944863,
        21.0762673
       ],
       [
        85.3943152,
        21.0760578
       ],
       [
        85.3941232,
        21.0758649
       ],
       [
        85.3939121,
        21.0756905
       ],
       [
        85.3936839,
        21.0755361
       ],
       [
        85.3934408,
        21.0754033
       ],
       [
        85.3931851,
        21.0752934
       ],
       [
        85.3899202,
        21.0740664
       ],
       [
        85.3896611,
        21.0739822
       ],
       [
        85.3893946,
        21.0739215
       ],
       [
        85.3891233,
        21.0738847
       ]
      ]
     ],
     [
      [
       [
        85.5680164,
        21.1048506
       ],
       [
        85.5678678,
        21.1046182
       ],
       [
        85.5676953,
        21.104401
       ],
       [
        85.5675004,
        21.1042009
       ],
       [
        85.5672853,
        21.1040202
       ],
       [
        85.567052,
        21.1038605
       ],
       [
        85.5668029,
        21.1037235
       ],
       [
        85.5665404,
        21.1036105
       ],
       [
        85.5662672,
        21.1035227
       ],
       [
        85.5659861,
        21.1034609
       ],
       [
        85.5656997,
        21.1034257
       ],
       [
        85.5654111,
        21.1034176
       ],
       [
        85.5651231,
        21.1034366
       ],
       [
        85.5648385,
        21.1034825
       ],
       [
        85.5645602,
        21.1035548
       ],
       [
        85.564291,
        21.1036528
       ],
       [
        85.5640335,
        21.1037756
       ],
       [
        85.5637905,
        21.1039219
       ],
       [
        85.5635642,
        21.1040902
       ],
       [
        85.5631222,
        21.1044542
       ],
       [
        85.5629191,
        21.1046387
       ],
       [
        85.5627361,
        21.104841
       ],
       [
        85.5625752,
        21.1050591
       ],
       [
        85.5624377,
        21.105291
       ],
       [
        85.5623251,
        21.1055343
       ],
       [
        85.5616351,
        21.1072503
       ],
       [
        85.5615912,
        21.1073676
       ],
       [
        85.5610891,
        21.1088136
       ],
       [
        85.5610073,
        21.1091025
       ],
       [
        85.5609599,
        21.1093981
       ],
       [
        85.5609475,
        21.1096969
       ],
       [
        85.5609625,
        21.1105659
       ],
       [
        85.5609811,
        21.1108323
       ],
       [
        85.5610275,
        21.1110957
       ],
       [
        85.5611014,
        21.1113535
       ],
       [
        85.5612019,
        21.1116033
       ],
       [
        85.5613282,
        21.1118426
       ],
       [
        85.5614789,
        21.1120691
       ],
       [
        85.5616527,
        21.1122805
       ],
       [
        85.5618477,
        21.1124749
       ],
       [
        85.5620623,
        21.1126503
       ],
       [
        85.5622941,
        21.112805
       ],
       [
        85.5625411,
        21.1129376
       ],
       [
        85.5628008,
        21.1130467
       ],
       [
        85.5630707,
        21.1131314
       ],
       [
        85.5633481,
        21.1131907
       ],
       [
        85.5636304,
        21.1132241
       ],
       [
        85.5639148,
        21.1132312
       ],
       [
        85.5641987,
        21.1132121
       ],
       [
        85.5644791,
        21.1131668
       ],
       [
        85.5647534,
        21.1130959
       ],
       [
        85.5650189,
        21.113
       ],
       [
        85.5652731,
        21.11288
       ],
       [
        85.5655135,
        21.1127372
       ],
       [
        85.5657378,
        21.1125728
       ],
       [
        85.5659437,
        21.1123885
       ],
       [
        85.5661293,
        21.1121861
       ],
       [
        85.5662927,
        21.1119676
       ],
       [
        85.5679817,
        21.1094546
       ],
       [
        85.568132,
        21.1092019
       ],
       [
        85.5682528,
        21.1089356
       ],
       [
        85.5683426,
        21.1086588
       ],
       [
        85.5684005,
        21.1083745
       ],
       [
        85.5685315,
        21.1074715
       ],
       [
        85.5685568,
        21.1071785
       ],
       [
        85.5685482,
        21.1068846
       ],
       [
        85.5685057,
        21.1065933
       ],
       [
        85.5683047,
        21.1056143
       ],
       [
        85.5682359,
        21.1053511
       ],
       [
        85.5681395,
        21.1050957
       ],
       [
        85.5680164,
        21.1048506
       ]
      ]
     ],
     [
      [
       [
        85.3664329,
        21.1520389
       ],
       [
        85.3661684,
        21.1519396
       ],
       [
        85.3658947,
        21.1518653
       ],
       [
        85.3656145,
        21.1518166
       ],
       [
        85.3653306,
        21.151794
       ],
       [
        85.3650458,
        21.1517978
       ],
       [
        85.3647626,
        21.1518279
       ],
       [
        85.3644841,
        21.151884
       ],
       [
        85.3642127,
        21.1519656
       ],
       [
        85.3639513,
        21.1520718
       ],
       [
        85.3637023,
        21.1522017
       ],
       [
        85.3634682,
        21.152354
       ],
       [
        85.3632511,
        21.1525272
       ],
       [
        85.3630534,
        21.1527196
       ],
       [
        85.3628767,
        21.1529293
       ],
       [
        85.362723,
        21.1531544
       ],
       [
        85.3625937,
        21.1533925
       ],
       [
        85.36249,
        21.1536415
       ],
       [
        85.3604899,
        21.1592435
       ],
       [
        85.3604137,
        21.1594973
       ],
       [
        85.3603641,
        21.1597569
       ],
       [
        85.3603417,
        21.1600198
       ],
       [
        85.3603467,
        21.1602835
       ],
       [
        85.360379,
        21.1605455
       ],
       [
        85.3604382,
        21.1608034
       ],
       [
        85.3605239,
        21.1610545
       ],
       [
        85.3606352,
        21.1612967
       ],
       [
        85.3607711,
        21.1615276
       ],
       [
        85.3609303,
        21.161745
       ],
       [
        85.3611113,
        21.1619469
       ],
       [
        85.3613123,
        21.1621313
       ],
       [
        85.3615315,
        21.1622964
       ],
       [
        85.3640445,
        21.1640085
       ],
       [
        85.3642855,
        21.164156
       ],
       [
        85.364541,
        21.1642804
       ],
       [
        85.3648084,
        21.1643803
       ],
       [
        85.3650851,
        21.1644547
       ],
       [
        85.3653683,
        21.1645029
       ],
       [
        85.3656552,
        21.1645245
       ],
       [
        85.365943,
        21.1645191
       ],
       [
        85.3662288,
        21.1644869
       ],
       [
        85.3665097,
        21.1644282
       ],
       [
        85.366783,
        21.1643436
       ],
       [
        85.367046,
        21.1642339
       ],
       [
        85.367296,
        21.1641002
       ],
       [
        85.3675307,
        21.1639438
       ],
       [
        85.3677475,
        21.1637662
       ],
       [
        85.3679445,
        21.1635693
       ],
       [
        85.3681195,
        21.163355
       ],
       [
        85.368271,
        21.1631255
       ],
       [
        85.3683974,
        21.1628829
       ],
       [
        85.3684974,
        21.1626297
       ],
       [
        85.3697153,
        21.1590007
       ],
       [
        85.3697833,
        21.1587599
       ],
       [
        85.3698275,
        21.1585143
       ],
       [
        85.3698474,
        21.158266
       ],
       [
        85.3699154,
        21.156079
       ],
       [
        85.3699099,
        21.155816
       ],
       [
        85.3698773,
        21.1555547
       ],
       [
        85.3698179,
        21.1552977
       ],
       [
        85.3697321,
        21.1550472
       ],
       [
        85.3696209,
        21.1548058
       ],
       [
        85.3694852,
        21.1545756
       ],
       [
        85.3693264,
        21.1543588
       ],
       [
        85.369146,
        21.1541575
       ],
       [
        85.3689455,
        21.1539735
       ],
       [
        85.3671465,
        21.1524755
       ],
       [
        85.3669244,
        21.1523082
       ],
       [
        85.3666857,
        21.1521621
       ],
       [
        85.3664329,
        21.1520389
       ]
      ]
     ]
    ]
   }
  }
 ]
}
