{
 "type": "FeatureCollection",
 "name": "odisha_dhenkanal_sites",
 "description": "Six FES Dhenkanal village-forest polygons (Odisha_sites.csv), each buffered 200 m in local UTM and dissolved. Pilot AOI for Phase 2 stand-level validation.",
 "features": [
  {
   "type": "Feature",
   "properties": {
    "name": "odisha_dhenkanal_sites",
    "n_parts": 6,
    "parts": [
     {
      "sites": [
       "Balikurma"
      ],
      "area_ha": 207.0
     },
     {
      "sites": [
       "Adhapalli"
      ],
      "area_ha": 140.9
     },
     {
      "sites": [
       "Kampulei"
      ],
      "area_ha": 305.98
     },
     {
      "sites": [
       "Mahabirod"
      ],
      "area_ha": 106.51
     },
     {
      "sites": [
       "Kerijoli"
      ],
      "area_ha": 48.66
     },
     {
      "sites": [
       "Pangatira"
      ],
      "area_ha": 102.97
     }
    ],
    "generated_by": "odisha_script/odisha_phase2_0_aois.py"
   },
   "geometry": {
    "type": "MultiPolygon",
    "coordinates": [
     [
      [
       [
        85.6072091,
        21.0236876
       ],
       [
        85.6073321,
        21.0238572
       ],
       [
        85.6074747,
        21.0240126
       ],
       [
        85.6079343,
        21.0244594
       ],
       [
        85.6083583,
        21.0248936
       ],
       [
        85.6088498,
        21.0256028
       ],
       [
        85.6093569,
        21.0263525
       ],
       [
        85.6094291,
        21.0264517
       ],
       [
        85.6096265,
        21.0267046
       ],
       [
        85.6098434,
        21.0270977
       ],
       [
        85.609924,
        21.0272299
       ],
       [
        85.6100161,
        21.0273552
       ],
       [
        85.6101192,
        21.0274728
       ],
       [
        85.6106855,
        21.0280658
       ],
       [
        85.6108086,
        21.0281835
       ],
       [
        85.6109426,
        21.0282901
       ],
       [
        85.6110864,
        21.0283848
       ],
       [
        85.6112388,
        21.0284667
       ],
       [
        85.6113986,
        21.0285353
       ],
       [
        85.6115643,
        21.02859
       ],
       [
        85.6117346,
        21.0286302
       ],
       [
        85.6125284,
        21.0287818
       ],
       [
        85.6127937,
        21.0288147
       ],
       [
        85.6139733,
        21.0288829
       ],
       [
        85.6158553,
        21.0292376
       ],
       [
        85.6159125,
        21.0292475
       ],
       [
        85.617286,
        21.029466
       ],
       [
        85.617517,
        21.0294894
       ],
       [
        85.6177494,
        21.0294865
       ],
       [
        85.6183915,
        21.0294419
       ],
       [
        85.6185857,
        21.029419
       ],
       [
        85.6187765,
        21.0293777
       ],
       [
        85.6189618,
        21.0293185
       ],
       [
        85.6191397,
        21.0292419
       ],
       [
        85.6193085,
        21.0291487
       ],
       [
        85.6194662,
        21.0290398
       ],
       [
        85.6196114,
        21.0289165
       ],
       [
        85.6197425,
        21.02878
       ],
       [
        85.6198581,
        21.0286317
       ],
       [
        85.6199571,
        21.0284731
       ],
       [
        85.6200384,
        21.0283059
       ],
       [
        85.6202078,
        21.0279046
       ],
       [
        85.6202591,
        21.0277674
       ],
       [
        85.6207705,
        21.0261978
       ],
       [
        85.6213528,
        21.0245345
       ],
       [
        85.6214007,
        21.0243728
       ],
       [
        85.6214324,
        21.0242077
       ],
       [
        85.6214476,
        21.0240405
       ],
       [
        85.6214675,
        21.0235589
       ],
       [
        85.6216189,
        21.0231545
       ],
       [
        85.6219513,
        21.0226337
       ],
       [
        85.6220524,
        21.0224527
       ],
       [
        85.6221311,
        21.0222623
       ],
       [
        85.6221864,
        21.0220647
       ],
       [
        85.6224418,
        21.020884
       ],
       [
        85.622815,
        21.0196973
       ],
       [
        85.6228618,
        21.0195134
       ],
       [
        85.6228879,
        21.0193258
       ],
       [
        85.6230185,
        21.01775
       ],
       [
        85.6231117,
        21.0170257
       ],
       [
        85.6231252,
        21.0168447
       ],
       [
        85.6231193,
        21.0166633
       ],
       [
        85.6230941,
        21.0164834
       ],
       [
        85.6230498,
        21.0163068
       ],
       [
        85.6229868,
        21.0161353
       ],
       [
        85.6229058,
        21.0159705
       ],
       [
        85.6228076,
        21.0158142
       ],
       [
        85.6226933,
        21.015668
       ],
       [
        85.6225639,
        21.0155332
       ],
       [
        85.6224207,
        21.0154113
       ],
       [
        85.6222653,
        21.0153036
       ],
       [
        85.6220991,
        21.015211
       ],
       [
        85.6219239,
        21.0151345
       ],
       [
        85.6217413,
        21.0150749
       ],
       [
        85.6215534,
        21.0150328
       ],
       [
        85.6213619,
        21.0150086
       ],
       [
        85.6211687,
        21.0150026
       ],
       [
        85.619773,
        21.0150249
       ],
       [
        85.6195163,
        21.0150452
       ],
       [
        85.6173314,
        21.0153573
       ],
       [
        85.6172688,
        21.0153673
       ],
       [
        85.613211,
        21.0160762
       ],
       [
        85.6130946,
        21.0161001
       ],
       [
        85.6103701,
        21.0167422
       ],
       [
        85.6101396,
        21.0168113
       ],
       [
        85.6094294,
        21.0170712
       ],
       [
        85.6093168,
        21.0170605
       ],
       [
        85.6091306,
        21.0170597
       ],
       [
        85.6089452,
        21.0170759
       ],
       [
        85.6087624,
        21.0171088
       ],
       [
        85.6085838,
        21.0171581
       ],
       [
        85.6084111,
        21.0172234
       ],
       [
        85.608246,
        21.017304
       ],
       [
        85.6080899,
        21.0173993
       ],
       [
        85.6079444,
        21.0175083
       ],
       [
        85.6078107,
        21.01763
       ],
       [
        85.6076902,
        21.0177632
       ],
       [
        85.607584,
        21.0179067
       ],
       [
        85.607493,
        21.0180592
       ],
       [
        85.6074182,
        21.0182193
       ],
       [
        85.6073602,
        21.0183854
       ],
       [
        85.6073196,
        21.018556
       ],
       [
        85.6072967,
        21.0187294
       ],
       [
        85.6072917,
        21.0189042
       ],
       [
        85.6073048,
        21.0190785
       ],
       [
        85.6073761,
        21.0196404
       ],
       [
        85.6073785,
        21.0196585
       ],
       [
        85.6074469,
        21.0201546
       ],
       [
        85.6073628,
        21.020586
       ],
       [
        85.6073565,
        21.0206205
       ],
       [
        85.6072023,
        21.0215076
       ],
       [
        85.6071356,
        21.021681
       ],
       [
        85.6071011,
        21.0217401
       ],
       [
        85.6070145,
        21.021908
       ],
       [
        85.6069468,
        21.0220834
       ],
       [
        85.6068987,
        21.0222644
       ],
       [
        85.6068708,
        21.0224491
       ],
       [
        85.6068633,
        21.0226355
       ],
       [
        85.6068764,
        21.0228217
       ],
       [
        85.6069098,
        21.0230056
       ],
       [
        85.6069632,
        21.0231853
       ],
       [
        85.6070361,
        21.0233588
       ],
       [
        85.6071074,
        21.023506
       ],
       [
        85.6072091,
        21.0236876
       ]
      ]
     ],
     [
      [
       [
        85.5164234,
        21.0484517
       ],
       [
        85.5165309,
        21.0485915
       ],
       [
        85.5166521,
        21.048721
       ],
       [
        85.5169598,
        21.0490198
       ],
       [
        85.5171001,
        21.049143
       ],
       [
        85.5172527,
        21.0492525
       ],
       [
        85.5174162,
        21.0493472
       ],
       [
        85.517589,
        21.0494261
       ],
       [
        85.5179234,
        21.0495598
       ],
       [
        85.518022,
        21.0495963
       ],
       [
        85.5185621,
        21.0497801
       ],
       [
        85.5188803,
        21.0499282
       ],
       [
        85.5197527,
        21.0504629
       ],
       [
        85.5199434,
        21.0505657
       ],
       [
        85.5201452,
        21.0506474
       ],
       [
        85.520915,
        21.050911
       ],
       [
        85.5214083,
        21.0512128
       ],
       [
        85.5215771,
        21.051305
       ],
       [
        85.521755,
        21.0513806
       ],
       [
        85.5219401,
        21.051439
       ],
       [
        85.5221305,
        21.0514794
       ],
       [
        85.5223244,
        21.0515015
       ],
       [
        85.5225196,
        21.051505
       ],
       [
        85.5233971,
        21.0514791
       ],
       [
        85.5235975,
        21.0515392
       ],
       [
        85.5239491,
        21.0516707
       ],
       [
        85.5249344,
        21.0521634
       ],
       [
        85.5251082,
        21.0522401
       ],
       [
        85.5252892,
        21.0523001
       ],
       [
        85.5254757,
        21.0523429
       ],
       [
        85.5256658,
        21.0523681
       ],
       [
        85.5258577,
        21.0523754
       ],
       [
        85.5260493,
        21.0523646
       ],
       [
        85.5262389,
        21.052336
       ],
       [
        85.5264245,
        21.0522898
       ],
       [
        85.5266043,
        21.0522265
       ],
       [
        85.5267764,
        21.0521467
       ],
       [
        85.5269392,
        21.0520512
       ],
       [
        85.5270911,
        21.0519409
       ],
       [
        85.5272305,
        21.051817
       ],
       [
        85.5273561,
        21.0516806
       ],
       [
        85.5274665,
        21.0515332
       ],
       [
        85.5281621,
        21.0504986
       ],
       [
        85.5282452,
        21.0503623
       ],
       [
        85.5283153,
        21.0502198
       ],
       [
        85.5289701,
        21.0487207
       ],
       [
        85.5293669,
        21.0480957
       ],
       [
        85.529382,
        21.0480722
       ],
       [
        85.5299724,
        21.0477617
       ],
       [
        85.5301498,
        21.047656
       ],
       [
        85.5303139,
        21.0475329
       ],
       [
        85.5304628,
        21.0473936
       ],
       [
        85.5309711,
        21.046863
       ],
       [
        85.5310888,
        21.0467274
       ],
       [
        85.5311921,
        21.0465817
       ],
       [
        85.5312798,
        21.0464274
       ],
       [
        85.5313513,
        21.0462658
       ],
       [
        85.5314057,
        21.0460985
       ],
       [
        85.5314427,
        21.045927
       ],
       [
        85.5314618,
        21.045753
       ],
       [
        85.5314629,
        21.0455781
       ],
       [
        85.5314459,
        21.0454038
       ],
       [
        85.5314111,
        21.045232
       ],
       [
        85.5313588,
        21.0450641
       ],
       [
        85.5312894,
        21.0449017
       ],
       [
        85.5312036,
        21.0447464
       ],
       [
        85.530615,
        21.0437966
       ],
       [
        85.5305149,
        21.0436516
       ],
       [
        85.5304004,
        21.0435161
       ],
       [
        85.5302728,
        21.0433916
       ],
       [
        85.530133,
        21.043279
       ],
       [
        85.5299824,
        21.0431796
       ],
       [
        85.5295855,
        21.0429432
       ],
       [
        85.5294297,
        21.0428597
       ],
       [
        85.5292663,
        21.0427902
       ],
       [
        85.5290967,
        21.0427353
       ],
       [
        85.5289224,
        21.0426955
       ],
       [
        85.5287449,
        21.042671
       ],
       [
        85.5285657,
        21.0426622
       ],
       [
        85.5277364,
        21.0426578
       ],
       [
        85.5275635,
        21.0426641
       ],
       [
        85.5264804,
        21.04275
       ],
       [
        85.5254303,
        21.0427316
       ],
       [
        85.5245756,
        21.0423797
       ],
       [
        85.5237617,
        21.0419565
       ],
       [
        85.5236562,
        21.0419056
       ],
       [
        85.5234467,
        21.0418119
       ],
       [
        85.5234431,
        21.0418103
       ],
       [
        85.523122,
        21.0416677
       ],
       [
        85.5230884,
        21.0416531
       ],
       [
        85.5224552,
        21.0413855
       ],
       [
        85.5222861,
        21.0413229
       ],
       [
        85.5221115,
        21.0412756
       ],
       [
        85.5219329,
        21.0412439
       ],
       [
        85.5217519,
        21.0412282
       ],
       [
        85.5213982,
        21.0412132
       ],
       [
        85.5213837,
        21.0412085
       ],
       [
        85.5212936,
        21.0411452
       ],
       [
        85.5211361,
        21.0410456
       ],
       [
        85.520969,
        21.040961
       ],
       [
        85.5207938,
        21.0408922
       ],
       [
        85.5206122,
        21.0408401
       ],
       [
        85.520426,
        21.0408049
       ],
       [
        85.5202371,
        21.0407872
       ],
       [
        85.5200472,
        21.040787
       ],
       [
        85.5198582,
        21.0408045
       ],
       [
        85.519672,
        21.0408393
       ],
       [
        85.5194903,
        21.0408911
       ],
       [
        85.519315,
        21.0409596
       ],
       [
        85.5191476,
        21.0410439
       ],
       [
        85.51899,
        21.0411433
       ],
       [
        85.5188436,
        21.0412568
       ],
       [
        85.5187098,
        21.0413832
       ],
       [
        85.5185899,
        21.0415215
       ],
       [
        85.5182198,
        21.0419942
       ],
       [
        85.5180871,
        21.0421886
       ],
       [
        85.5175843,
        21.0430404
       ],
       [
        85.5175134,
        21.0430966
       ],
       [
        85.51737,
        21.0432381
       ],
       [
        85.5172437,
        21.0433934
       ],
       [
        85.5163483,
        21.0446267
       ],
       [
        85.5159352,
        21.0451647
       ],
       [
        85.5158295,
        21.045318
       ],
       [
        85.5157409,
        21.0454806
       ],
       [
        85.5156702,
        21.0456507
       ],
       [
        85.5156182,
        21.0458267
       ],
       [
        85.5155853,
        21.0460067
       ],
       [
        85.515572,
        21.0461889
       ],
       [
        85.5155784,
        21.0463714
       ],
       [
        85.5156043,
        21.0465524
       ],
       [
        85.5156496,
        21.04673
       ],
       [
        85.5157138,
        21.0469024
       ],
       [
        85.5162533,
        21.0481465
       ],
       [
        85.5163306,
        21.0483029
       ],
       [
        85.5164234,
        21.0484517
       ]
      ]
     ],
     [
      [
       [
        85.6780326,
        21.0434484
       ],
       [
        85.6784473,
        21.0448129
       ],
       [
        85.6784951,
        21.0449496
       ],
       [
        85.6790347,
        21.0463051
       ],
       [
        85.6791001,
        21.0464499
       ],
       [
        85.6791787,
        21.0465889
       ],
       [
        85.6792699,
        21.0467208
       ],
       [
        85.6793729,
        21.0468449
       ],
       [
        85.6805189,
        21.0481068
       ],
       [
        85.680541,
        21.0481307
       ],
       [
        85.6822862,
        21.0499855
       ],
       [
        85.6837376,
        21.0516803
       ],
       [
        85.6847601,
        21.0530357
       ],
       [
        85.6855931,
        21.054569
       ],
       [
        85.6856902,
        21.0547273
       ],
       [
        85.6858038,
        21.0548757
       ],
       [
        85.6859328,
        21.0550125
       ],
       [
        85.6860759,
        21.0551364
       ],
       [
        85.6862316,
        21.0552461
       ],
       [
        85.6863983,
        21.0553405
       ],
       [
        85.6865743,
        21.0554186
       ],
       [
        85.6867578,
        21.0554796
       ],
       [
        85.6869469,
        21.0555229
       ],
       [
        85.6871832,
        21.0555652
       ],
       [
        85.6879064,
        21.0557419
       ],
       [
        85.6881005,
        21.0557794
       ],
       [
        85.6882976,
        21.055798
       ],
       [
        85.6884957,
        21.0557975
       ],
       [
        85.6886927,
        21.0557778
       ],
       [
        85.6888865,
        21.0557393
       ],
       [
        85.6901886,
        21.0554138
       ],
       [
        85.6903799,
        21.0553557
       ],
       [
        85.6905637,
        21.0552793
       ],
       [
        85.6919594,
        21.0546149
       ],
       [
        85.6921183,
        21.0545301
       ],
       [
        85.6922679,
        21.0544316
       ],
       [
        85.6944227,
        21.0528641
       ],
       [
        85.6953377,
        21.052236
       ],
       [
        85.6971779,
        21.051118
       ],
       [
        85.69732,
        21.0510228
       ],
       [
        85.6974522,
        21.050916
       ],
       [
        85.6985358,
        21.0499573
       ],
       [
        85.698597,
        21.0499007
       ],
       [
        85.6999659,
        21.0485763
       ],
       [
        85.7000921,
        21.0484414
       ],
       [
        85.7002035,
        21.0482953
       ],
       [
        85.7002988,
        21.0481396
       ],
       [
        85.7003772,
        21.0479758
       ],
       [
        85.7008098,
        21.0469368
       ],
       [
        85.7008708,
        21.0467653
       ],
       [
        85.7009133,
        21.046589
       ],
       [
        85.7009368,
        21.0464095
       ],
       [
        85.700941,
        21.0462287
       ],
       [
        85.700926,
        21.0460485
       ],
       [
        85.7008919,
        21.0458705
       ],
       [
        85.700839,
        21.0456966
       ],
       [
        85.7007678,
        21.0455286
       ],
       [
        85.7006792,
        21.0453681
       ],
       [
        85.7005738,
        21.0452167
       ],
       [
        85.7004529,
        21.045076
       ],
       [
        85.7000852,
        21.0446893
       ],
       [
        85.6987912,
        21.0430153
       ],
       [
        85.6986892,
        21.0428945
       ],
       [
        85.6985765,
        21.0427822
       ],
       [
        85.6975991,
        21.0418884
       ],
       [
        85.6967935,
        21.0409956
       ],
       [
        85.6966678,
        21.0408691
       ],
       [
        85.6960435,
        21.0402983
       ],
       [
        85.6958998,
        21.0401795
       ],
       [
        85.6957442,
        21.0400746
       ],
       [
        85.6955783,
        21.0399847
       ],
       [
        85.6944077,
        21.0394217
       ],
       [
        85.693357,
        21.0387306
       ],
       [
        85.6932988,
        21.0386939
       ],
       [
        85.6919567,
        21.0378779
       ],
       [
        85.6918231,
        21.0378036
       ],
       [
        85.6916836,
        21.0377398
       ],
       [
        85.6913045,
        21.0375837
       ],
       [
        85.69112,
        21.0375181
       ],
       [
        85.6909294,
        21.0374706
       ],
       [
        85.6907345,
        21.0374416
       ],
       [
        85.6905375,
        21.0374316
       ],
       [
        85.6903404,
        21.0374405
       ],
       [
        85.6901454,
        21.0374683
       ],
       [
        85.6899544,
        21.0375147
       ],
       [
        85.6897695,
        21.0375793
       ],
       [
        85.6895926,
        21.0376612
       ],
       [
        85.6885194,
        21.0382244
       ],
       [
        85.6863048,
        21.0393673
       ],
       [
        85.6861445,
        21.0394599
       ],
       [
        85.6859945,
        21.0395668
       ],
       [
        85.6858564,
        21.0396869
       ],
       [
        85.6857315,
        21.0398191
       ],
       [
        85.6856209,
        21.0399621
       ],
       [
        85.6853026,
        21.0404194
       ],
       [
        85.6849501,
        21.0406803
       ],
       [
        85.6847195,
        21.0407334
       ],
       [
        85.6828782,
        21.040574
       ],
       [
        85.6827025,
        21.0405663
       ],
       [
        85.6825269,
        21.0405738
       ],
       [
        85.6823527,
        21.0405962
       ],
       [
        85.6821814,
        21.0406335
       ],
       [
        85.6815133,
        21.0408095
       ],
       [
        85.6804196,
        21.0409125
       ],
       [
        85.6802182,
        21.0408809
       ],
       [
        85.6800296,
        21.0408602
       ],
       [
        85.6798396,
        21.0408571
       ],
       [
        85.6796503,
        21.0408716
       ],
       [
        85.6794634,
        21.0409035
       ],
       [
        85.6792808,
        21.0409526
       ],
       [
        85.6791042,
        21.0410183
       ],
       [
        85.6789354,
        21.0411001
       ],
       [
        85.678776,
        21.041197
       ],
       [
        85.6786276,
        21.0413083
       ],
       [
        85.6784915,
        21.0414328
       ],
       [
        85.6783692,
        21.0415692
       ],
       [
        85.6782618,
        21.0417163
       ],
       [
        85.6781704,
        21.0418726
       ],
       [
        85.6780959,
        21.0420367
       ],
       [
        85.6780389,
        21.0422068
       ],
       [
        85.6780001,
        21.0423813
       ],
       [
        85.6779798,
        21.0425586
       ],
       [
        85.6779619,
        21.0428485
       ],
       [
        85.6779616,
        21.0430505
       ],
       [
        85.6779852,
        21.0432513
       ],
       [
        85.6780326,
        21.0434484
       ]
      ]
     ],
     [
      [
       [
        85.3840329,
        21.0794073
       ],
       [
        85.3840477,
        21.0795928
       ],
       [
        85.3840827,
        21.0797759
       ],
       [
        85.3841375,
        21.0799547
       ],
       [
        85.3842117,
        21.0801272
       ],
       [
        85.3843044,
        21.0802916
       ],
       [
        85.3844146,
        21.0804462
       ],
       [
        85.3847089,
        21.0808163
       ],
       [
        85.3847291,
        21.0808412
       ],
       [
        85.3849583,
        21.0811192
       ],
       [
        85.3851024,
        21.0813231
       ],
       [
        85.3851075,
        21.0813303
       ],
       [
        85.3852089,
        21.0814724
       ],
       [
        85.3853932,
        21.081741
       ],
       [
        85.3855482,
        21.0819875
       ],
       [
        85.3855852,
        21.0820439
       ],
       [
        85.38571,
        21.0822267
       ],
       [
        85.3858343,
        21.0823883
       ],
       [
        85.3859768,
        21.0825361
       ],
       [
        85.3860139,
        21.0825705
       ],
       [
        85.386092,
        21.0826487
       ],
       [
        85.3862199,
        21.0827653
       ],
       [
        85.3863587,
        21.0828702
       ],
       [
        85.3865073,
        21.0829627
       ],
       [
        85.3866643,
        21.0830418
       ],
       [
        85.3868285,
        21.083107
       ],
       [
        85.3869984,
        21.0831576
       ],
       [
        85.3871725,
        21.0831933
       ],
       [
        85.3873495,
        21.0832137
       ],
       [
        85.3874227,
        21.083219
       ],
       [
        85.3875899,
        21.0832394
       ],
       [
        85.3876243,
        21.0832433
       ],
       [
        85.388048,
        21.0832879
       ],
       [
        85.3882625,
        21.0832992
       ],
       [
        85.3884676,
        21.0832992
       ],
       [
        85.3886632,
        21.0832898
       ],
       [
        85.3888568,
        21.0832619
       ],
       [
        85.3890464,
        21.0832156
       ],
       [
        85.3892299,
        21.0831515
       ],
       [
        85.3894056,
        21.0830702
       ],
       [
        85.3895716,
        21.0829725
       ],
       [
        85.3895803,
        21.0829668
       ],
       [
        85.3897458,
        21.0829303
       ],
       [
        85.3899191,
        21.082884
       ],
       [
        85.390087,
        21.0828227
       ],
       [
        85.390248,
        21.082747
       ],
       [
        85.3903598,
        21.0826881
       ],
       [
        85.390411,
        21.0826853
       ],
       [
        85.3905824,
        21.0826688
       ],
       [
        85.3907515,
        21.082638
       ],
       [
        85.390917,
        21.0825931
       ],
       [
        85.3911931,
        21.0825054
       ],
       [
        85.3916743,
        21.0823553
       ],
       [
        85.3918405,
        21.0822953
       ],
       [
        85.3920001,
        21.0822212
       ],
       [
        85.3925575,
        21.0819313
       ],
       [
        85.3925617,
        21.0819291
       ],
       [
        85.3931414,
        21.0816259
       ],
       [
        85.393317,
        21.081522
       ],
       [
        85.3934797,
        21.0814009
       ],
       [
        85.3936276,
        21.0812641
       ],
       [
        85.3939123,
        21.0809706
       ],
       [
        85.3942401,
        21.0807578
       ],
       [
        85.3943802,
        21.0806577
       ],
       [
        85.39451,
        21.0805459
       ],
       [
        85.3946284,
        21.0804234
       ],
       [
        85.3947344,
        21.0802913
       ],
       [
        85.394827,
        21.0801506
       ],
       [
        85.3949535,
        21.0799373
       ],
       [
        85.3950928,
        21.079789
       ],
       [
        85.3952209,
        21.0796369
       ],
       [
        85.3953309,
        21.0794727
       ],
       [
        85.3956297,
        21.0789688
       ],
       [
        85.3957095,
        21.0788181
       ],
       [
        85.395774,
        21.078661
       ],
       [
        85.3958227,
        21.078499
       ],
       [
        85.3958551,
        21.0783334
       ],
       [
        85.3958709,
        21.0781657
       ],
       [
        85.3958887,
        21.0777644
       ],
       [
        85.3958869,
        21.0775799
       ],
       [
        85.395865,
        21.0773965
       ],
       [
        85.3958233,
        21.0772162
       ],
       [
        85.3957622,
        21.0770408
       ],
       [
        85.3956161,
        21.0766841
       ],
       [
        85.3954787,
        21.076332
       ],
       [
        85.3954221,
        21.0762028
       ],
       [
        85.395355,
        21.076078
       ],
       [
        85.395034,
        21.075534
       ],
       [
        85.3948906,
        21.075326
       ],
       [
        85.3944491,
        21.0747731
       ],
       [
        85.3942646,
        21.0745741
       ],
       [
        85.394098,
        21.074419
       ],
       [
        85.3940798,
        21.0743792
       ],
       [
        85.3939872,
        21.0742222
       ],
       [
        85.3938786,
        21.0740746
       ],
       [
        85.3937548,
        21.0739379
       ],
       [
        85.3933948,
        21.0735778
       ],
       [
        85.3932866,
        21.0734462
       ],
       [
        85.3931698,
        21.0733171
       ],
       [
        85.3930406,
        21.0731989
       ],
       [
        85.3929002,
        21.0730925
       ],
       [
        85.3924721,
        21.0727982
       ],
       [
        85.3923132,
        21.0726999
       ],
       [
        85.3921446,
        21.0726168
       ],
       [
        85.3919682,
        21.0725497
       ],
       [
        85.3917855,
        21.0724993
       ],
       [
        85.3912727,
        21.0723834
       ],
       [
        85.3910766,
        21.072349
       ],
       [
        85.3908778,
        21.0723339
       ],
       [
        85.3903184,
        21.0723187
       ],
       [
        85.3897539,
        21.07225
       ],
       [
        85.3895658,
        21.0722359
       ],
       [
        85.3893772,
        21.0722391
       ],
       [
        85.3891898,
        21.0722597
       ],
       [
        85.3890055,
        21.0722974
       ],
       [
        85.388826,
        21.0723518
       ],
       [
        85.388653,
        21.0724224
       ],
       [
        85.3884882,
        21.0725087
       ],
       [
        85.3883332,
        21.0726096
       ],
       [
        85.3881895,
        21.0727243
       ],
       [
        85.3880584,
        21.0728517
       ],
       [
        85.3879412,
        21.0729905
       ],
       [
        85.3878391,
        21.0731394
       ],
       [
        85.3875125,
        21.0736711
       ],
       [
        85.3874492,
        21.0737645
       ],
       [
        85.3870528,
        21.0741821
       ],
       [
        85.3869508,
        21.074299
       ],
       [
        85.3865762,
        21.0747672
       ],
       [
        85.3865555,
        21.0747937
       ],
       [
        85.3862567,
        21.0751816
       ],
       [
        85.3861454,
        21.0753438
       ],
       [
        85.3856782,
        21.0761113
       ],
       [
        85.3852058,
        21.0767784
       ],
       [
        85.3852002,
        21.0767863
       ],
       [
        85.3850441,
        21.0770093
       ],
       [
        85.3849343,
        21.0771876
       ],
       [
        85.3847868,
        21.0774619
       ],
       [
        85.3847409,
        21.0775294
       ],
       [
        85.3846142,
        21.0776902
       ],
       [
        85.384509,
        21.0778387
       ],
       [
        85.3844198,
        21.0779963
       ],
       [
        85.3843396,
        21.0781568
       ],
       [
        85.3842771,
        21.0782817
       ],
       [
        85.3842138,
        21.0784237
       ],
       [
        85.3841637,
        21.0785703
       ],
       [
        85.384127,
        21.0787204
       ],
       [
        85.3840645,
        21.079037
       ],
       [
        85.3840385,
        21.0792214
       ],
       [
        85.3840329,
        21.0794073
       ]
      ]
     ],
     [
      [
       [
        85.5609331,
        21.1101019
       ],
       [
        85.5609538,
        21.1102716
       ],
       [
        85.5609914,
        21.1104388
       ],
       [
        85.5610457,
        21.1106018
       ],
       [
        85.5611162,
        21.1107593
       ],
       [
        85.5612022,
        21.1109099
       ],
       [
        85.561303,
        21.1110521
       ],
       [
        85.5614177,
        21.1111848
       ],
       [
        85.5615452,
        21.1113068
       ],
       [
        85.5616844,
        21.1114168
       ],
       [
        85.5618341,
        21.1115141
       ],
       [
        85.5619437,
        21.1115784
       ],
       [
        85.5621695,
        21.111718
       ],
       [
        85.5622362,
        21.1117551
       ],
       [
        85.5622434,
        21.1117621
       ],
       [
        85.5623281,
        21.1118379
       ],
       [
        85.5624737,
        21.1119556
       ],
       [
        85.562631,
        21.1120592
       ],
       [
        85.5627985,
        21.1121475
       ],
       [
        85.5629746,
        21.1122198
       ],
       [
        85.5631574,
        21.1122752
       ],
       [
        85.5633453,
        21.1123132
       ],
       [
        85.563443,
        21.1123282
       ],
       [
        85.5635541,
        21.1123474
       ],
       [
        85.5637558,
        21.1123719
       ],
       [
        85.5639592,
        21.1123763
       ],
       [
        85.564162,
        21.1123606
       ],
       [
        85.5643618,
        21.1123248
       ],
       [
        85.5644777,
        21.1122981
       ],
       [
        85.5646884,
        21.1122373
       ],
       [
        85.5648903,
        21.1121543
       ],
       [
        85.5651801,
        21.112016
       ],
       [
        85.565335,
        21.1119335
       ],
       [
        85.5654812,
        21.1118379
       ],
       [
        85.5657532,
        21.1116417
       ],
       [
        85.56588,
        21.1115418
       ],
       [
        85.5659972,
        21.111432
       ],
       [
        85.5661039,
        21.1113132
       ],
       [
        85.5662894,
        21.1110876
       ],
       [
        85.5664656,
        21.1109024
       ],
       [
        85.5665423,
        21.1108282
       ],
       [
        85.5666384,
        21.1107272
       ],
       [
        85.5668805,
        21.1105276
       ],
       [
        85.5670211,
        21.1103992
       ],
       [
        85.5671471,
        21.110258
       ],
       [
        85.5673388,
        21.1100195
       ],
       [
        85.5675035,
        21.109821
       ],
       [
        85.5676091,
        21.1096804
       ],
       [
        85.5677,
        21.109531
       ],
       [
        85.5677753,
        21.1093741
       ],
       [
        85.5678344,
        21.1092113
       ],
       [
        85.5678767,
        21.1090439
       ],
       [
        85.5679019,
        21.1088735
       ],
       [
        85.5679097,
        21.1087017
       ],
       [
        85.5679,
        21.1085299
       ],
       [
        85.5678729,
        21.1083597
       ],
       [
        85.5678194,
        21.1081063
       ],
       [
        85.5677834,
        21.1078368
       ],
       [
        85.567782,
        21.1078262
       ],
       [
        85.5677992,
        21.1077622
       ],
       [
        85.5678264,
        21.1076007
       ],
       [
        85.5678379,
        21.1074375
       ],
       [
        85.5678336,
        21.107274
       ],
       [
        85.5678208,
        21.1071702
       ],
       [
        85.5678506,
        21.1070886
       ],
       [
        85.567904,
        21.1069137
       ],
       [
        85.5679385,
        21.1067346
       ],
       [
        85.5679535,
        21.1065531
       ],
       [
        85.567949,
        21.1063712
       ],
       [
        85.5679455,
        21.106326
       ],
       [
        85.5679518,
        21.1062798
       ],
       [
        85.5679667,
        21.1061034
       ],
       [
        85.5679632,
        21.1059265
       ],
       [
        85.5679412,
        21.1057508
       ],
       [
        85.567901,
        21.1055779
       ],
       [
        85.567843,
        21.1054096
       ],
       [
        85.5677677,
        21.1052474
       ],
       [
        85.5676759,
        21.1050929
       ],
       [
        85.5675684,
        21.1049475
       ],
       [
        85.5674463,
        21.1048127
       ],
       [
        85.567366,
        21.1047325
       ],
       [
        85.5672219,
        21.1046026
       ],
       [
        85.5670642,
        21.1044874
       ],
       [
        85.5669349,
        21.1044027
       ],
       [
        85.5667835,
        21.104313
       ],
       [
        85.5666238,
        21.1042369
       ],
       [
        85.5664574,
        21.1041751
       ],
       [
        85.5662855,
        21.104128
       ],
       [
        85.5661097,
        21.1040962
       ],
       [
        85.5657173,
        21.1040426
       ],
       [
        85.5655169,
        21.1040253
       ],
       [
        85.5649194,
        21.104003
       ],
       [
        85.5647331,
        21.1040045
       ],
       [
        85.5645478,
        21.1040229
       ],
       [
        85.5643653,
        21.1040581
       ],
       [
        85.5641872,
        21.1041096
       ],
       [
        85.5640153,
        21.104177
       ],
       [
        85.5638512,
        21.1042597
       ],
       [
        85.5636963,
        21.1043569
       ],
       [
        85.5635522,
        21.1044677
       ],
       [
        85.5634201,
        21.1045911
       ],
       [
        85.5633014,
        21.1047258
       ],
       [
        85.5631971,
        21.1048707
       ],
       [
        85.5631083,
        21.1050244
       ],
       [
        85.5630357,
        21.1051854
       ],
       [
        85.56298,
        21.1053523
       ],
       [
        85.5629417,
        21.1055234
       ],
       [
        85.5629213,
        21.1056972
       ],
       [
        85.5629189,
        21.105872
       ],
       [
        85.5629344,
        21.1060462
       ],
       [
        85.5629679,
        21.1062182
       ],
       [
        85.5629939,
        21.1063038
       ],
       [
        85.5629769,
        21.1063435
       ],
       [
        85.5629267,
        21.1065004
       ],
       [
        85.5628821,
        21.1066669
       ],
       [
        85.5628157,
        21.106778
       ],
       [
        85.5623254,
        21.1074702
       ],
       [
        85.5622475,
        21.1075901
       ],
       [
        85.5621797,
        21.1077153
       ],
       [
        85.5621067,
        21.1078641
       ],
       [
        85.5619093,
        21.1080441
       ],
       [
        85.5618059,
        21.108146
       ],
       [
        85.5617113,
        21.1082552
       ],
       [
        85.5613902,
        21.1086565
       ],
       [
        85.5612699,
        21.1088261
       ],
       [
        85.5611706,
        21.1090073
       ],
       [
        85.5611305,
        21.109092
       ],
       [
        85.5610574,
        21.1092714
       ],
       [
        85.5610051,
        21.109457
       ],
       [
        85.5609895,
        21.1095269
       ],
       [
        85.5609741,
        21.1095924
       ],
       [
        85.5609433,
        21.1097608
       ],
       [
        85.5609296,
        21.1099311
       ],
       [
        85.5609331,
        21.1101019
       ]
      ]
     ],
     [
      [
       [
        85.3601326,
        21.1615998
       ],
       [
        85.3601217,
        21.1617863
       ],
       [
        85.3601313,
        21.1619728
       ],
       [
        85.360158,
        21.1622225
       ],
       [
        85.360188,
        21.1624065
       ],
       [
        85.360238,
        21.1625866
       ],
       [
        85.3603075,
        21.1627609
       ],
       [
        85.3603957,
        21.1629275
       ],
       [
        85.3605017,
        21.1630848
       ],
       [
        85.3606245,
        21.163231
       ],
       [
        85.3607626,
        21.1633646
       ],
       [
        85.3609146,
        21.1634842
       ],
       [
        85.3610789,
        21.1635884
       ],
       [
        85.361449,
        21.163798
       ],
       [
        85.3616199,
        21.163884
       ],
       [
        85.3617991,
        21.1639535
       ],
       [
        85.3619848,
        21.1640058
       ],
       [
        85.3621752,
        21.1640402
       ],
       [
        85.3623683,
        21.1640565
       ],
       [
        85.3625622,
        21.1640545
       ],
       [
        85.3630443,
        21.1640268
       ],
       [
        85.3635407,
        21.164065
       ],
       [
        85.3635906,
        21.1640719
       ],
       [
        85.3636132,
        21.1640817
       ],
       [
        85.3637682,
        21.1641417
       ],
       [
        85.3639282,
        21.1641887
       ],
       [
        85.3640919,
        21.1642226
       ],
       [
        85.3647162,
        21.1643252
       ],
       [
        85.3648755,
        21.1643449
       ],
       [
        85.365036,
        21.1643522
       ],
       [
        85.3657717,
        21.1643567
       ],
       [
        85.3659758,
        21.1643477
       ],
       [
        85.3661777,
        21.1643186
       ],
       [
        85.3663751,
        21.1642695
       ],
       [
        85.3665659,
        21.1642012
       ],
       [
        85.3671545,
        21.1639559
       ],
       [
        85.3673219,
        21.1638768
       ],
       [
        85.3674803,
        21.1637828
       ],
       [
        85.3676282,
        21.1636748
       ],
       [
        85.3679047,
        21.1634518
       ],
       [
        85.3680273,
        21.1633439
       ],
       [
        85.3681394,
        21.1632264
       ],
       [
        85.3682401,
        21.1631001
       ],
       [
        85.3689132,
        21.1621745
       ],
       [
        85.369176,
        21.1618197
       ],
       [
        85.3692676,
        21.1616836
       ],
       [
        85.3693458,
        21.1615404
       ],
       [
        85.3694101,
        21.1613912
       ],
       [
        85.3696152,
        21.1608472
       ],
       [
        85.36967,
        21.1606753
       ],
       [
        85.3697063,
        21.160499
       ],
       [
        85.3697078,
        21.1604835
       ],
       [
        85.3698134,
        21.1603436
       ],
       [
        85.3699092,
        21.1601849
       ],
       [
        85.3699874,
        21.160018
       ],
       [
        85.3700473,
        21.1598445
       ],
       [
        85.3700882,
        21.1596663
       ],
       [
        85.3701098,
        21.1594851
       ],
       [
        85.3701118,
        21.1593027
       ],
       [
        85.3700942,
        21.1591212
       ],
       [
        85.3700009,
        21.1585054
       ],
       [
        85.3699984,
        21.1581745
       ],
       [
        85.3700592,
        21.1577656
       ],
       [
        85.370076,
        21.1575923
       ],
       [
        85.3700754,
        21.1574973
       ],
       [
        85.3701435,
        21.1572709
       ],
       [
        85.3701867,
        21.1570935
       ],
       [
        85.3702107,
        21.1569129
       ],
       [
        85.3702152,
        21.156731
       ],
       [
        85.3702002,
        21.1565496
       ],
       [
        85.3701657,
        21.1563706
       ],
       [
        85.3701123,
        21.1561957
       ],
       [
        85.3700404,
        21.1560267
       ],
       [
        85.3699507,
        21.1558654
       ],
       [
        85.3698442,
        21.1557133
       ],
       [
        85.3697219,
        21.1555721
       ],
       [
        85.3695851,
        21.1554431
       ],
       [
        85.3691927,
        21.1551087
       ],
       [
        85.3690451,
        21.154995
       ],
       [
        85.3690277,
        21.1546377
       ],
       [
        85.3690112,
        21.1544696
       ],
       [
        85.3689779,
        21.1543037
       ],
       [
        85.3689283,
        21.1541414
       ],
       [
        85.36879,
        21.1537579
       ],
       [
        85.3687177,
        21.1535865
       ],
       [
        85.3686271,
        21.153423
       ],
       [
        85.3685192,
        21.1532689
       ],
       [
        85.3683951,
        21.1531259
       ],
       [
        85.3682561,
        21.1529956
       ],
       [
        85.3681037,
        21.1528792
       ],
       [
        85.3679395,
        21.152778
       ],
       [
        85.3677651,
        21.1526931
       ],
       [
        85.3675824,
        21.1526252
       ],
       [
        85.3673932,
        21.1525752
       ],
       [
        85.3671996,
        21.1525435
       ],
       [
        85.3668288,
        21.1525009
       ],
       [
        85.3662895,
        21.1523431
       ],
       [
        85.3656904,
        21.1521505
       ],
       [
        85.3654173,
        21.1520833
       ],
       [
        85.3652121,
        21.1520476
       ],
       [
        85.3650256,
        21.1520239
       ],
       [
        85.3648376,
        21.1520175
       ],
       [
        85.3646497,
        21.1520283
       ],
       [
        85.3644639,
        21.1520562
       ],
       [
        85.3642819,
        21.152101
       ],
       [
        85.3641054,
        21.1521623
       ],
       [
        85.3639361,
        21.1522394
       ],
       [
        85.3637757,
        21.1523317
       ],
       [
        85.3636256,
        21.1524382
       ],
       [
        85.3634873,
        21.1525579
       ],
       [
        85.3633622,
        21.1526898
       ],
       [
        85.3632513,
        21.1528325
       ],
       [
        85.3631558,
        21.1529846
       ],
       [
        85.3630767,
        21.1531447
       ],
       [
        85.3630145,
        21.1533114
       ],
       [
        85.36297,
        21.1534829
       ],
       [
        85.3628185,
        21.1542227
       ],
       [
        85.3626135,
        21.1552211
       ],
       [
        85.3626036,
        21.1552732
       ],
       [
        85.3624252,
        21.1563032
       ],
       [
        85.362406,
        21.1564539
       ],
       [
        85.3623328,
        21.1573442
       ],
       [
        85.3622694,
        21.1575961
       ],
       [
        85.3619673,
        21.1580759
       ],
       [
        85.3614852,
        21.1588278
       ],
       [
        85.3613878,
        21.1590002
       ],
       [
        85.3610614,
        21.1596617
       ],
       [
        85.3608819,
        21.1600172
       ],
       [
        85.3605459,
        21.1605445
       ],
       [
        85.3604383,
        21.1607395
       ],
       [
        85.3602867,
        21.1610606
       ],
       [
        85.3602155,
        21.161235
       ],
       [
        85.360164,
        21.1614154
       ],
       [
        85.3601326,
        21.1615998
       ]
      ]
     ]
    ]
   }
  }
 ]
}
