{
 "type": "FeatureCollection",
 "name": "odisha_habitations",
 "description": "Per FES habitation with >= 5 field plots: convex hull of the plot cloud plus a 300 m buffer in local UTM, overlapping hulls dissolved. Full Phase 2 AOI set.",
 "features": [
  {
   "type": "Feature",
   "properties": {
    "name": "odisha_habitations",
    "n_parts": 20,
    "parts": [
     {
      "habitations": [
       "HANDAPUR"
      ],
      "area_ha": 98.88
     },
     {
      "habitations": [
       "BILAPUT",
       "HATIMUNDA"
      ],
      "area_ha": 422.85
     },
     {
      "habitations": [
       "BARIGUDA"
      ],
      "area_ha": 70.57
     },
     {
      "habitations": [
       "KONDASRIMUNDA"
      ],
      "area_ha": 37.92
     },
     {
      "habitations": [
       "KHASUGUDA"
      ],
      "area_ha": 466.95
     },
     {
      "habitations": [
       "SAKIAGUDA"
      ],
      "area_ha": 45.28
     },
     {
      "habitations": [
       "BARAKANTI"
      ],
      "area_ha": 1316.79
     },
     {
      "habitations": [
       "KANSAB"
      ],
      "area_ha": 97.91
     },
     {
      "habitations": [
       "JOGI BANDHA"
      ],
      "area_ha": 65.28
     },
     {
      "habitations": [
       "ANANDA PUR"
      ],
      "area_ha": 69.9
     },
     {
      "habitations": [
       "GHANAJODI"
      ],
      "area_ha": 206.23
     },
     {
      "habitations": [
       "TULASIPASI"
      ],
      "area_ha": 246.98
     },
     {
      "habitations": [
       "KANKANA"
      ],
      "area_ha": 67.91
     },
     {
      "habitations": [
       "BALIKUMA"
      ],
      "area_ha": 144.76
     },
     {
      "habitations": [
       "NUA SAHI"
      ],
      "area_ha": 189.05
     },
     {
      "habitations": [
       "ADHAPALLI"
      ],
      "area_ha": 105.62
     },
     {
      "habitations": [
       "BURUGI BHUIN"
      ],
      "area_ha": 73.7
     },
     {
      "habitations": [
       "BALI SAHI"
      ],
      "area_ha": 63.88
     },
     {
      "habitations": [
       "RAIJHARANA"
      ],
      "area_ha": 103.5
     },
     {
      "habitations": [
       "BHANRADI SAHI"
      ],
      "area_ha": 404.7
     }
    ],
    "generated_by": "odisha_script/odisha_phase2_0_aois.py"
   },
   "geometry": {
    "type": "MultiPolygon",
    "coordinates": [
     [
      [
       [
        82.8381354,
        18.5732364
       ],
       [
        82.8378652,
        18.573164
       ],
       [
        82.8375888,
        18.5731173
       ],
       [
        82.8373089,
        18.5730968
       ],
       [
        82.8370283,
        18.5731028
       ],
       [
        82.8367496,
        18.5731352
       ],
       [
        82.8364757,
        18.5731936
       ],
       [
        82.8338967,
        18.5738726
       ],
       [
        82.8336147,
        18.5739622
       ],
       [
        82.833344,
        18.5740794
       ],
       [
        82.8330876,
        18.574223
       ],
       [
        82.8328484,
        18.5743914
       ],
       [
        82.8316314,
        18.5753454
       ],
       [
        82.8314243,
        18.5755247
       ],
       [
        82.8312366,
        18.5757226
       ],
       [
        82.8310703,
        18.5759371
       ],
       [
        82.830927,
        18.5761662
       ],
       [
        82.8308079,
        18.5764076
       ],
       [
        82.8307143,
        18.5766591
       ],
       [
        82.8306471,
        18.576918
       ],
       [
        82.8306069,
        18.577182
       ],
       [
        82.8305348,
        18.577903
       ],
       [
        82.8305222,
        18.5781924
       ],
       [
        82.8305421,
        18.5784813
       ],
       [
        82.8305941,
        18.5787666
       ],
       [
        82.8306778,
        18.5790449
       ],
       [
        82.8311828,
        18.5804389
       ],
       [
        82.8312831,
        18.5806783
       ],
       [
        82.8314068,
        18.5809074
       ],
       [
        82.8315527,
        18.5811244
       ],
       [
        82.8317196,
        18.5813271
       ],
       [
        82.831906,
        18.5815138
       ],
       [
        82.8321101,
        18.5816827
       ],
       [
        82.8323301,
        18.5818325
       ],
       [
        82.832564,
        18.5819616
       ],
       [
        82.8328097,
        18.5820689
       ],
       [
        82.833065,
        18.5821535
       ],
       [
        82.8333276,
        18.5822145
       ],
       [
        82.8335951,
        18.5822516
       ],
       [
        82.8338651,
        18.5822642
       ],
       [
        82.834135,
        18.5822523
       ],
       [
        82.8344026,
        18.582216
       ],
       [
        82.8399097,
        18.5812119
       ],
       [
        82.8401984,
        18.5811442
       ],
       [
        82.8404781,
        18.5810481
       ],
       [
        82.8407457,
        18.5809246
       ],
       [
        82.8409983,
        18.5807752
       ],
       [
        82.8416363,
        18.5803522
       ],
       [
        82.841863,
        18.5801851
       ],
       [
        82.8420709,
        18.5799971
       ],
       [
        82.8422579,
        18.5797902
       ],
       [
        82.8424221,
        18.5795663
       ],
       [
        82.8425618,
        18.5793277
       ],
       [
        82.8426756,
        18.579077
       ],
       [
        82.8427624,
        18.5788167
       ],
       [
        82.8428212,
        18.5785493
       ],
       [
        82.8428516,
        18.5782776
       ],
       [
        82.842853,
        18.5780044
       ],
       [
        82.8428257,
        18.5777324
       ],
       [
        82.8427697,
        18.5774645
       ],
       [
        82.8426858,
        18.5772033
       ],
       [
        82.8425747,
        18.5769514
       ],
       [
        82.8424375,
        18.5767116
       ],
       [
        82.8422758,
        18.5764861
       ],
       [
        82.8420911,
        18.5762772
       ],
       [
        82.8418852,
        18.5760872
       ],
       [
        82.8391032,
        18.5737662
       ],
       [
        82.8388831,
        18.5736002
       ],
       [
        82.8386469,
        18.5734556
       ],
       [
        82.8383968,
        18.5733339
       ],
       [
        82.8381354,
        18.5732364
       ]
      ]
     ],
     [
      [
       [
        82.8215702,
        18.5863687
       ],
       [
        82.8214447,
        18.5861252
       ],
       [
        82.8212942,
        18.5858948
       ],
       [
        82.8211204,
        18.58568
       ],
       [
        82.8209249,
        18.5854828
       ],
       [
        82.8207097,
        18.5853053
       ],
       [
        82.820477,
        18.5851492
       ],
       [
        82.8202291,
        18.585016
       ],
       [
        82.8199684,
        18.5849071
       ],
       [
        82.8196977,
        18.5848237
       ],
       [
        82.8194195,
        18.5847665
       ],
       [
        82.8191368,
        18.5847361
       ],
       [
        82.8188522,
        18.5847328
       ],
       [
        82.8185688,
        18.5847566
       ],
       [
        82.8182893,
        18.5848074
       ],
       [
        82.8180165,
        18.5848845
       ],
       [
        82.8177531,
        18.5849873
       ],
       [
        82.8175019,
        18.5851147
       ],
       [
        82.8172652,
        18.5852654
       ],
       [
        82.8125202,
        18.5886263
       ],
       [
        82.8123097,
        18.5887909
       ],
       [
        82.8121167,
        18.588974
       ],
       [
        82.8119429,
        18.5891738
       ],
       [
        82.81179,
        18.5893885
       ],
       [
        82.8116593,
        18.5896162
       ],
       [
        82.811552,
        18.5898548
       ],
       [
        82.8114692,
        18.5901021
       ],
       [
        82.8114116,
        18.5903558
       ],
       [
        82.8113797,
        18.5906136
       ],
       [
        82.8113738,
        18.5908731
       ],
       [
        82.811394,
        18.591132
       ],
       [
        82.81144,
        18.5913879
       ],
       [
        82.8115001,
        18.5915985
       ],
       [
        82.8106122,
        18.5919993
       ],
       [
        82.8103679,
        18.5921238
       ],
       [
        82.8101374,
        18.5922703
       ],
       [
        82.8099231,
        18.5924376
       ],
       [
        82.8097268,
        18.592624
       ],
       [
        82.8095504,
        18.5928277
       ],
       [
        82.8093957,
        18.5930468
       ],
       [
        82.8092641,
        18.5932792
       ],
       [
        82.8091569,
        18.5935227
       ],
       [
        82.809075,
        18.5937751
       ],
       [
        82.8090193,
        18.5940338
       ],
       [
        82.8089902,
        18.5942965
       ],
       [
        82.8089882,
        18.5945606
       ],
       [
        82.809013,
        18.5948237
       ],
       [
        82.8090646,
        18.5950832
       ],
       [
        82.8091425,
        18.5953366
       ],
       [
        82.8092459,
        18.5955817
       ],
       [
        82.8093738,
        18.595816
       ],
       [
        82.8156607,
        18.6060781
       ],
       [
        82.8158111,
        18.6062983
       ],
       [
        82.8159831,
        18.6065035
       ],
       [
        82.8161752,
        18.606692
       ],
       [
        82.8163855,
        18.6068618
       ],
       [
        82.8166121,
        18.6070114
       ],
       [
        82.8168528,
        18.6071393
       ],
       [
        82.8171054,
        18.6072445
       ],
       [
        82.8173674,
        18.6073258
       ],
       [
        82.8176365,
        18.6073825
       ],
       [
        82.8179101,
        18.6074141
       ],
       [
        82.8181856,
        18.6074204
       ],
       [
        82.8184605,
        18.6074011
       ],
       [
        82.8187321,
        18.6073566
       ],
       [
        82.8189979,
        18.6072871
       ],
       [
        82.8192554,
        18.6071935
       ],
       [
        82.8195022,
        18.6070765
       ],
       [
        82.8197359,
        18.6069373
       ],
       [
        82.8199544,
        18.6067772
       ],
       [
        82.8201556,
        18.6065977
       ],
       [
        82.8300166,
        18.5969006
       ],
       [
        82.8302043,
        18.5966964
       ],
       [
        82.8303697,
        18.5964753
       ],
       [
        82.830511,
        18.5962396
       ],
       [
        82.8306269,
        18.5959916
       ],
       [
        82.8325968,
        18.5911346
       ],
       [
        82.8326764,
        18.5909095
       ],
       [
        82.832735,
        18.5906786
       ],
       [
        82.8327722,
        18.5904438
       ],
       [
        82.8331581,
        18.5869848
       ],
       [
        82.833174,
        18.5867237
       ],
       [
        82.8331633,
        18.5864624
       ],
       [
        82.8331264,
        18.5862034
       ],
       [
        82.8330634,
        18.5859489
       ],
       [
        82.832975,
        18.5857014
       ],
       [
        82.8328619,
        18.5854632
       ],
       [
        82.8327254,
        18.5852364
       ],
       [
        82.8325665,
        18.5850233
       ],
       [
        82.8323869,
        18.5848258
       ],
       [
        82.8321881,
        18.5846456
       ],
       [
        82.8319721,
        18.5844846
       ],
       [
        82.8317408,
        18.5843442
       ],
       [
        82.8314964,
        18.5842257
       ],
       [
        82.8312411,
        18.5841302
       ],
       [
        82.8309774,
        18.5840586
       ],
       [
        82.8307077,
        18.5840116
       ],
       [
        82.8304345,
        18.5839896
       ],
       [
        82.8301603,
        18.5839928
       ],
       [
        82.8298877,
        18.5840211
       ],
       [
        82.8296193,
        18.5840744
       ],
       [
        82.8266803,
        18.5848004
       ],
       [
        82.8264244,
        18.5848761
       ],
       [
        82.826177,
        18.5849744
       ],
       [
        82.8217557,
        18.5869699
       ],
       [
        82.8217418,
        18.5868854
       ],
       [
        82.8216696,
        18.5866229
       ],
       [
        82.8215702,
        18.5863687
       ]
      ]
     ],
     [
      [
       [
        82.8400291,
        18.6115882
       ],
       [
        82.8397595,
        18.6115739
       ],
       [
        82.8394896,
        18.6115841
       ],
       [
        82.839222,
        18.6116187
       ],
       [
        82.8389591,
        18.6116773
       ],
       [
        82.8387032,
        18.6117595
       ],
       [
        82.8384566,
        18.6118644
       ],
       [
        82.8382215,
        18.6119911
       ],
       [
        82.8380002,
        18.6121386
       ],
       [
        82.8377945,
        18.6123054
       ],
       [
        82.8375155,
        18.6125544
       ],
       [
        82.8373194,
        18.6127476
       ],
       [
        82.8371445,
        18.6129584
       ],
       [
        82.8369922,
        18.6131846
       ],
       [
        82.8368643,
        18.6134241
       ],
       [
        82.8367618,
        18.6136746
       ],
       [
        82.8366859,
        18.6139334
       ],
       [
        82.8366372,
        18.6141982
       ],
       [
        82.8366163,
        18.6144662
       ],
       [
        82.8366233,
        18.614735
       ],
       [
        82.8366933,
        18.615628
       ],
       [
        82.8367371,
        18.6159406
       ],
       [
        82.8368187,
        18.6162462
       ],
       [
        82.8372457,
        18.6175282
       ],
       [
        82.8373406,
        18.6177718
       ],
       [
        82.8374594,
        18.6180056
       ],
       [
        82.8376012,
        18.6182275
       ],
       [
        82.8377647,
        18.6184354
       ],
       [
        82.8379482,
        18.6186275
       ],
       [
        82.8381502,
        18.6188019
       ],
       [
        82.8383688,
        18.618957
       ],
       [
        82.838602,
        18.6190915
       ],
       [
        82.8388476,
        18.6192041
       ],
       [
        82.8402587,
        18.6197731
       ],
       [
        82.840516,
        18.6198632
       ],
       [
        82.8407813,
        18.6199292
       ],
       [
        82.841052,
        18.6199706
       ],
       [
        82.8413256,
        18.6199869
       ],
       [
        82.8415996,
        18.619978
       ],
       [
        82.8418714,
        18.619944
       ],
       [
        82.8421385,
        18.6198851
       ],
       [
        82.8443596,
        18.6192871
       ],
       [
        82.8446275,
        18.6192011
       ],
       [
        82.8448851,
        18.6190901
       ],
       [
        82.8451298,
        18.6189552
       ],
       [
        82.8453593,
        18.6187979
       ],
       [
        82.8455713,
        18.6186196
       ],
       [
        82.8457637,
        18.618422
       ],
       [
        82.8459345,
        18.6182073
       ],
       [
        82.8460821,
        18.6179774
       ],
       [
        82.846205,
        18.6177347
       ],
       [
        82.8463021,
        18.6174816
       ],
       [
        82.8463723,
        18.6172205
       ],
       [
        82.8464149,
        18.6169541
       ],
       [
        82.8464296,
        18.6166849
       ],
       [
        82.8464161,
        18.6164157
       ],
       [
        82.8463747,
        18.6161491
       ],
       [
        82.8463057,
        18.6158877
       ],
       [
        82.8462098,
        18.6156342
       ],
       [
        82.846088,
        18.615391
       ],
       [
        82.8459415,
        18.6151605
       ],
       [
        82.8457716,
        18.6149451
       ],
       [
        82.8455802,
        18.6147467
       ],
       [
        82.845369,
        18.6145676
       ],
       [
        82.8451403,
        18.6144092
       ],
       [
        82.8412903,
        18.6120143
       ],
       [
        82.8410574,
        18.611884
       ],
       [
        82.8408126,
        18.6117753
       ],
       [
        82.840558,
        18.6116894
       ],
       [
        82.8402961,
        18.6116268
       ],
       [
        82.8400291,
        18.6115882
       ]
      ]
     ],
     [
      [
       [
        82.8544753,
        18.6131985
       ],
       [
        82.8542153,
        18.6132885
       ],
       [
        82.8539656,
        18.6134022
       ],
       [
        82.8537288,
        18.6135384
       ],
       [
        82.8535069,
        18.613696
       ],
       [
        82.8533022,
        18.6138734
       ],
       [
        82.8531165,
        18.614069
       ],
       [
        82.8529516,
        18.6142808
       ],
       [
        82.8528091,
        18.6145069
       ],
       [
        82.8526904,
        18.6147451
       ],
       [
        82.8525964,
        18.6149932
       ],
       [
        82.8525283,
        18.6152489
       ],
       [
        82.8524865,
        18.6155096
       ],
       [
        82.8524715,
        18.615773
       ],
       [
        82.8524834,
        18.6160365
       ],
       [
        82.8525222,
        18.6162977
       ],
       [
        82.8525874,
        18.616554
       ],
       [
        82.8526784,
        18.6168031
       ],
       [
        82.8527944,
        18.6170426
       ],
       [
        82.8529342,
        18.6172702
       ],
       [
        82.8530966,
        18.6174837
       ],
       [
        82.85328,
        18.6176812
       ],
       [
        82.854219,
        18.6185982
       ],
       [
        82.8544261,
        18.6187813
       ],
       [
        82.8546513,
        18.6189439
       ],
       [
        82.8548922,
        18.6190844
       ],
       [
        82.8551466,
        18.6192014
       ],
       [
        82.8554119,
        18.6192938
       ],
       [
        82.8556856,
        18.6193606
       ],
       [
        82.8559648,
        18.6194012
       ],
       [
        82.8562468,
        18.6194151
       ],
       [
        82.856529,
        18.6194023
       ],
       [
        82.8568084,
        18.6193629
       ],
       [
        82.8570823,
        18.6192972
       ],
       [
        82.857348,
        18.619206
       ],
       [
        82.857603,
        18.61909
       ],
       [
        82.8578445,
        18.6189505
       ],
       [
        82.8580704,
        18.6187888
       ],
       [
        82.8582784,
        18.6186066
       ],
       [
        82.8584663,
        18.6184056
       ],
       [
        82.8586324,
        18.6181878
       ],
       [
        82.858775,
        18.6179553
       ],
       [
        82.8588927,
        18.6177105
       ],
       [
        82.8589843,
        18.6174558
       ],
       [
        82.859049,
        18.6171937
       ],
       [
        82.859086,
        18.6169267
       ],
       [
        82.85913,
        18.6164157
       ],
       [
        82.8591391,
        18.6161443
       ],
       [
        82.8591196,
        18.6158733
       ],
       [
        82.8590717,
        18.6156056
       ],
       [
        82.8589961,
        18.6153438
       ],
       [
        82.8588933,
        18.6150905
       ],
       [
        82.8587644,
        18.6148484
       ],
       [
        82.8586107,
        18.6146197
       ],
       [
        82.8584339,
        18.6144068
       ],
       [
        82.8582355,
        18.6142119
       ],
       [
        82.8580177,
        18.6140369
       ],
       [
        82.8577827,
        18.6138835
       ],
       [
        82.8575327,
        18.6137533
       ],
       [
        82.8567157,
        18.6133773
       ],
       [
        82.8564873,
        18.6132838
       ],
       [
        82.8562513,
        18.6132095
       ],
       [
        82.8560094,
        18.6131553
       ],
       [
        82.8558434,
        18.6131253
       ],
       [
        82.8555694,
        18.6130888
       ],
       [
        82.855293,
        18.6130779
       ],
       [
        82.8550167,
        18.6130927
       ],
       [
        82.8547433,
        18.613133
       ],
       [
        82.8544753,
        18.6131985
       ]
      ]
     ],
     [
      [
       [
        82.9334369,
        18.6219177
       ],
       [
        82.9331634,
        18.6219441
       ],
       [
        82.9328938,
        18.6219956
       ],
       [
        82.9326306,
        18.6220716
       ],
       [
        82.9323764,
        18.6221716
       ],
       [
        82.9321336,
        18.6222944
       ],
       [
        82.9319043,
        18.6224391
       ],
       [
        82.9316907,
        18.6226042
       ],
       [
        82.9314949,
        18.6227883
       ],
       [
        82.9313187,
        18.6229895
       ],
       [
        82.9311636,
        18.6232059
       ],
       [
        82.9310313,
        18.6234357
       ],
       [
        82.9309228,
        18.6236766
       ],
       [
        82.9308392,
        18.6239263
       ],
       [
        82.9307814,
        18.6241826
       ],
       [
        82.9307498,
        18.624443
       ],
       [
        82.9307447,
        18.6247051
       ],
       [
        82.9307662,
        18.6249664
       ],
       [
        82.9308141,
        18.6252245
       ],
       [
        82.9308879,
        18.625477
       ],
       [
        82.930987,
        18.6257216
       ],
       [
        82.9311104,
        18.6259558
       ],
       [
        82.9312569,
        18.6261776
       ],
       [
        82.9314253,
        18.6263849
       ],
       [
        82.9316138,
        18.6265757
       ],
       [
        82.9318208,
        18.6267482
       ],
       [
        82.9320444,
        18.6269009
       ],
       [
        82.9322823,
        18.6270322
       ],
       [
        82.9727518,
        18.6469374
       ],
       [
        82.973001,
        18.6470458
       ],
       [
        82.9732599,
        18.6471308
       ],
       [
        82.9735263,
        18.6471917
       ],
       [
        82.9737975,
        18.6472278
       ],
       [
        82.9740712,
        18.6472389
       ],
       [
        82.9743447,
        18.6472248
       ],
       [
        82.9746155,
        18.6471858
       ],
       [
        82.9748811,
        18.647122
       ],
       [
        82.975139,
        18.6470342
       ],
       [
        82.9753869,
        18.6469231
       ],
       [
        82.9756224,
        18.6467898
       ],
       [
        82.9758434,
        18.6466356
       ],
       [
        82.9760477,
        18.6464617
       ],
       [
        82.9762336,
        18.64627
       ],
       [
        82.9763992,
        18.646062
       ],
       [
        82.9765431,
        18.6458399
       ],
       [
        82.9766639,
        18.6456056
       ],
       [
        82.9767605,
        18.6453613
       ],
       [
        82.9768319,
        18.6451092
       ],
       [
        82.9768776,
        18.6448518
       ],
       [
        82.9768971,
        18.6445914
       ],
       [
        82.9768902,
        18.6443304
       ],
       [
        82.976857,
        18.6440712
       ],
       [
        82.9767978,
        18.6438163
       ],
       [
        82.9767131,
        18.643568
       ],
       [
        82.973736,
        18.6360851
       ],
       [
        82.9736257,
        18.6358439
       ],
       [
        82.9734915,
        18.6356141
       ],
       [
        82.9733345,
        18.6353978
       ],
       [
        82.9731562,
        18.635197
       ],
       [
        82.9729584,
        18.6350136
       ],
       [
        82.9727428,
        18.6348494
       ],
       [
        82.9725116,
        18.6347059
       ],
       [
        82.9722669,
        18.6345844
       ],
       [
        82.9720109,
        18.6344861
       ],
       [
        82.9345194,
        18.6220643
       ],
       [
        82.9342557,
        18.6219903
       ],
       [
        82.9339856,
        18.6219409
       ],
       [
        82.9337119,
        18.6219166
       ],
       [
        82.9334369,
        18.6219177
       ]
      ]
     ],
     [
      [
       [
        82.8105917,
        18.6497715
       ],
       [
        82.8103137,
        18.6498342
       ],
       [
        82.8100436,
        18.6499231
       ],
       [
        82.8097842,
        18.6500375
       ],
       [
        82.8095382,
        18.6501761
       ],
       [
        82.8093081,
        18.6503375
       ],
       [
        82.8090961,
        18.6505201
       ],
       [
        82.8089044,
        18.6507221
       ],
       [
        82.8087349,
        18.6509414
       ],
       [
        82.8085894,
        18.6511759
       ],
       [
        82.8084693,
        18.651423
       ],
       [
        82.8082653,
        18.651905
       ],
       [
        82.8081725,
        18.6521602
       ],
       [
        82.8081068,
        18.6524229
       ],
       [
        82.8080689,
        18.6526905
       ],
       [
        82.8080591,
        18.6529604
       ],
       [
        82.8080775,
        18.6532299
       ],
       [
        82.808124,
        18.6534963
       ],
       [
        82.8081981,
        18.653757
       ],
       [
        82.808299,
        18.6540094
       ],
       [
        82.8084258,
        18.6542509
       ],
       [
        82.8085771,
        18.6544792
       ],
       [
        82.8087516,
        18.654692
       ],
       [
        82.8089474,
        18.6548872
       ],
       [
        82.8091626,
        18.6550628
       ],
       [
        82.8093951,
        18.6552172
       ],
       [
        82.8096425,
        18.6553488
       ],
       [
        82.8099025,
        18.6554562
       ],
       [
        82.8101723,
        18.6555384
       ],
       [
        82.8119504,
        18.6559884
       ],
       [
        82.8122286,
        18.6560448
       ],
       [
        82.8125115,
        18.6560744
       ],
       [
        82.8127959,
        18.6560769
       ],
       [
        82.8130793,
        18.6560523
       ],
       [
        82.8133586,
        18.6560009
       ],
       [
        82.8136312,
        18.655923
       ],
       [
        82.8138942,
        18.6558196
       ],
       [
        82.814145,
        18.6556917
       ],
       [
        82.8143812,
        18.6555405
       ],
       [
        82.8146004,
        18.6553676
       ],
       [
        82.8148003,
        18.6551746
       ],
       [
        82.814979,
        18.6549636
       ],
       [
        82.8151347,
        18.6547366
       ],
       [
        82.8152658,
        18.654496
       ],
       [
        82.815371,
        18.654244
       ],
       [
        82.8154492,
        18.6539833
       ],
       [
        82.8156262,
        18.6532583
       ],
       [
        82.8156769,
        18.6529908
       ],
       [
        82.8156991,
        18.6527198
       ],
       [
        82.8156928,
        18.652448
       ],
       [
        82.8156579,
        18.6521782
       ],
       [
        82.8155949,
        18.6519131
       ],
       [
        82.8155043,
        18.6516554
       ],
       [
        82.8153871,
        18.6514076
       ],
       [
        82.8152445,
        18.6511723
       ],
       [
        82.8150778,
        18.6509517
       ],
       [
        82.8148888,
        18.6507482
       ],
       [
        82.8146793,
        18.6505637
       ],
       [
        82.8144516,
        18.6504002
       ],
       [
        82.8142077,
        18.6502592
       ],
       [
        82.8139504,
        18.6501422
       ],
       [
        82.813682,
        18.6500504
       ],
       [
        82.8134053,
        18.6499847
       ],
       [
        82.8123163,
        18.6497807
       ],
       [
        82.8121501,
        18.6497544
       ],
       [
        82.8118871,
        18.6497204
       ],
       [
        82.811581,
        18.6496968
       ],
       [
        82.811274,
        18.6497048
       ],
       [
        82.810875,
        18.6497358
       ],
       [
        82.8105917,
        18.6497715
       ]
      ]
     ],
     [
      [
       [
        82.9627903,
        18.6741227
       ],
       [
        82.8685107,
        18.6883933
       ],
       [
        82.8682381,
        18.6884477
       ],
       [
        82.8679725,
        18.6885271
       ],
       [
        82.8677162,
        18.688631
       ],
       [
        82.8674719,
        18.6887582
       ],
       [
        82.8672418,
        18.6889076
       ],
       [
        82.8670281,
        18.6890777
       ],
       [
        82.8668329,
        18.689267
       ],
       [
        82.8666581,
        18.6894735
       ],
       [
        82.8665052,
        18.6896953
       ],
       [
        82.8663759,
        18.6899303
       ],
       [
        82.8662713,
        18.6901762
       ],
       [
        82.8661925,
        18.6904307
       ],
       [
        82.8661401,
        18.6906913
       ],
       [
        82.8661148,
        18.6909555
       ],
       [
        82.8661166,
        18.6912209
       ],
       [
        82.8661457,
        18.6914848
       ],
       [
        82.8662017,
        18.6917447
       ],
       [
        82.8662842,
        18.6919982
       ],
       [
        82.8663922,
        18.6922427
       ],
       [
        82.8665249,
        18.692476
       ],
       [
        82.8666808,
        18.6926959
       ],
       [
        82.8668586,
        18.6929001
       ],
       [
        82.8670564,
        18.6930868
       ],
       [
        82.8672725,
        18.6932542
       ],
       [
        82.8675047,
        18.6934006
       ],
       [
        82.8677508,
        18.6935247
       ],
       [
        82.8680085,
        18.6936252
       ],
       [
        82.8682752,
        18.6937013
       ],
       [
        82.8685485,
        18.6937521
       ],
       [
        82.8688257,
        18.6937772
       ],
       [
        82.8691042,
        18.6937764
       ],
       [
        82.9619496,
        18.6891372
       ],
       [
        82.9622565,
        18.6891058
       ],
       [
        82.962558,
        18.6890429
       ],
       [
        82.9628506,
        18.6889492
       ],
       [
        82.9757627,
        18.6840561
       ],
       [
        82.9760016,
        18.6839532
       ],
       [
        82.9762294,
        18.6838298
       ],
       [
        82.9769544,
        18.6833938
       ],
       [
        82.9771729,
        18.6832484
       ],
       [
        82.9773761,
        18.6830841
       ],
       [
        82.9775622,
        18.6829024
       ],
       [
        82.9777297,
        18.6827049
       ],
       [
        82.9778771,
        18.6824933
       ],
       [
        82.9780031,
        18.6822695
       ],
       [
        82.9781065,
        18.6820354
       ],
       [
        82.9781864,
        18.6817932
       ],
       [
        82.9782422,
        18.6815449
       ],
       [
        82.9782734,
        18.6812927
       ],
       [
        82.9782797,
        18.6810388
       ],
       [
        82.9782467,
        18.6796908
       ],
       [
        82.9782259,
        18.679421
       ],
       [
        82.978177,
        18.6791546
       ],
       [
        82.9781005,
        18.6788942
       ],
       [
        82.9779971,
        18.6786423
       ],
       [
        82.977868,
        18.6784015
       ],
       [
        82.9777142,
        18.6781741
       ],
       [
        82.9775375,
        18.6779625
       ],
       [
        82.9773395,
        18.6777688
       ],
       [
        82.9771222,
        18.6775948
       ],
       [
        82.9768878,
        18.6774423
       ],
       [
        82.9766387,
        18.6773129
       ],
       [
        82.9763772,
        18.6772077
       ],
       [
        82.9761061,
        18.677128
       ],
       [
        82.9639392,
        18.674173
       ],
       [
        82.9636555,
        18.6741186
       ],
       [
        82.9633674,
        18.6740919
       ],
       [
        82.963078,
        18.6740933
       ],
       [
        82.9627903,
        18.6741227
       ]
      ]
     ],
     [
      [
       [
        84.7014038,
        20.7424943
       ],
       [
        84.701454,
        20.7422312
       ],
       [
        84.7014764,
        20.7419648
       ],
       [
        84.7014707,
        20.7416975
       ],
       [
        84.7014371,
        20.7414321
       ],
       [
        84.7013758,
        20.7411711
       ],
       [
        84.7012875,
        20.7409171
       ],
       [
        84.701173,
        20.7406725
       ],
       [
        84.7010335,
        20.7404396
       ],
       [
        84.7008702,
        20.7402209
       ],
       [
        84.7006848,
        20.7400184
       ],
       [
        84.7004791,
        20.739834
       ],
       [
        84.700255,
        20.7396696
       ],
       [
        84.7000149,
        20.7395267
       ],
       [
        84.6997609,
        20.7394069
       ],
       [
        84.6994956,
        20.7393111
       ],
       [
        84.6992216,
        20.7392404
       ],
       [
        84.6989415,
        20.7391955
       ],
       [
        84.6986581,
        20.7391767
       ],
       [
        84.6983741,
        20.7391843
       ],
       [
        84.6980923,
        20.7392183
       ],
       [
        84.6978154,
        20.7392781
       ],
       [
        84.6955494,
        20.7398801
       ],
       [
        84.6952804,
        20.7399653
       ],
       [
        84.6950215,
        20.7400749
       ],
       [
        84.6947755,
        20.740208
       ],
       [
        84.6945445,
        20.7403632
       ],
       [
        84.6917665,
        20.7424322
       ],
       [
        84.6916872,
        20.7424935
       ],
       [
        84.6904062,
        20.7435195
       ],
       [
        84.6901938,
        20.7437079
       ],
       [
        84.6900028,
        20.7439155
       ],
       [
        84.6898351,
        20.7441402
       ],
       [
        84.6896925,
        20.7443798
       ],
       [
        84.6895763,
        20.7446317
       ],
       [
        84.6894879,
        20.7448934
       ],
       [
        84.6894281,
        20.7451622
       ],
       [
        84.6891471,
        20.7468472
       ],
       [
        84.6891167,
        20.7471173
       ],
       [
        84.6891152,
        20.747389
       ],
       [
        84.6891427,
        20.7476595
       ],
       [
        84.6891988,
        20.747926
       ],
       [
        84.689283,
        20.7481859
       ],
       [
        84.6893945,
        20.7484365
       ],
       [
        84.6895321,
        20.7486754
       ],
       [
        84.6896944,
        20.7489001
       ],
       [
        84.6898799,
        20.7491084
       ],
       [
        84.6900866,
        20.7492981
       ],
       [
        84.6903125,
        20.7494674
       ],
       [
        84.6905553,
        20.7496146
       ],
       [
        84.6908125,
        20.7497382
       ],
       [
        84.6910816,
        20.7498369
       ],
       [
        84.6913598,
        20.7499098
       ],
       [
        84.6916444,
        20.749956
       ],
       [
        84.6919325,
        20.7499753
       ],
       [
        84.6922212,
        20.7499672
       ],
       [
        84.6925076,
        20.7499321
       ],
       [
        84.6927888,
        20.7498701
       ],
       [
        84.693062,
        20.7497819
       ],
       [
        84.6955031,
        20.7488629
       ],
       [
        84.6957491,
        20.7487574
       ],
       [
        84.6959835,
        20.7486307
       ],
       [
        84.6962043,
        20.7484838
       ],
       [
        84.6964094,
        20.7483182
       ],
       [
        84.6965971,
        20.7481351
       ],
       [
        84.7007621,
        20.7436721
       ],
       [
        84.7009388,
        20.7434627
       ],
       [
        84.7010927,
        20.743238
       ],
       [
        84.7012223,
        20.7430002
       ],
       [
        84.7013263,
        20.7427515
       ],
       [
        84.7014038,
        20.7424943
       ]
      ]
     ],
     [
      [
       [
        84.6537336,
        20.8009226
       ],
       [
        84.6535368,
        20.8007401
       ],
       [
        84.6533222,
        20.8005762
       ],
       [
        84.653092,
        20.8004324
       ],
       [
        84.6528481,
        20.80031
       ],
       [
        84.6525929,
        20.8002101
       ],
       [
        84.6523287,
        20.8001337
       ],
       [
        84.6520579,
        20.8000815
       ],
       [
        84.6517831,
        20.8000539
       ],
       [
        84.6515067,
        20.8000512
       ],
       [
        84.6512313,
        20.8000734
       ],
       [
        84.6509594,
        20.8001203
       ],
       [
        84.6506935,
        20.8001916
       ],
       [
        84.6487406,
        20.8008116
       ],
       [
        84.6484962,
        20.800901
       ],
       [
        84.6482615,
        20.8010109
       ],
       [
        84.6480384,
        20.8011405
       ],
       [
        84.6478287,
        20.8012886
       ],
       [
        84.6476343,
        20.801454
       ],
       [
        84.6474566,
        20.8016354
       ],
       [
        84.6470616,
        20.8020773
       ],
       [
        84.6468846,
        20.8022972
       ],
       [
        84.6467323,
        20.8025329
       ],
       [
        84.6466062,
        20.8027819
       ],
       [
        84.6465078,
        20.8030417
       ],
       [
        84.6464379,
        20.8033095
       ],
       [
        84.6463974,
        20.8035827
       ],
       [
        84.6463866,
        20.8038582
       ],
       [
        84.6464056,
        20.8041334
       ],
       [
        84.6464544,
        20.8044054
       ],
       [
        84.6465322,
        20.8046713
       ],
       [
        84.6470772,
        20.8062193
       ],
       [
        84.6471764,
        20.8064614
       ],
       [
        84.6472997,
        20.8066934
       ],
       [
        84.6474461,
        20.8069134
       ],
       [
        84.6476141,
        20.8071191
       ],
       [
        84.6478024,
        20.8073088
       ],
       [
        84.648009,
        20.8074806
       ],
       [
        84.6482323,
        20.8076331
       ],
       [
        84.6494243,
        20.8083681
       ],
       [
        84.6496691,
        20.8085034
       ],
       [
        84.6499269,
        20.8086153
       ],
       [
        84.6501952,
        20.8087028
       ],
       [
        84.6504714,
        20.8087651
       ],
       [
        84.6507527,
        20.8088014
       ],
       [
        84.6510365,
        20.8088116
       ],
       [
        84.6513199,
        20.8087954
       ],
       [
        84.6516003,
        20.8087531
       ],
       [
        84.6518749,
        20.808685
       ],
       [
        84.652141,
        20.8085918
       ],
       [
        84.6523961,
        20.8084745
       ],
       [
        84.6526377,
        20.8083341
       ],
       [
        84.6528633,
        20.808172
       ],
       [
        84.653071,
        20.8079898
       ],
       [
        84.6532585,
        20.8077893
       ],
       [
        84.6534241,
        20.8075724
       ],
       [
        84.6541431,
        20.8065254
       ],
       [
        84.654297,
        20.8062724
       ],
       [
        84.6544211,
        20.8060052
       ],
       [
        84.6545139,
        20.8057272
       ],
       [
        84.6547829,
        20.8047381
       ],
       [
        84.6548415,
        20.8044648
       ],
       [
        84.6548699,
        20.8041873
       ],
       [
        84.6548678,
        20.8039085
       ],
       [
        84.6548352,
        20.8036314
       ],
       [
        84.6547725,
        20.8033589
       ],
       [
        84.6543955,
        20.8020499
       ],
       [
        84.6543105,
        20.8018026
       ],
       [
        84.6542007,
        20.801564
       ],
       [
        84.6540671,
        20.8013365
       ],
       [
        84.6539109,
        20.801122
       ],
       [
        84.6537336,
        20.8009226
       ]
      ]
     ],
     [
      [
       [
        84.645662,
        20.8229864
       ],
       [
        84.6453684,
        20.8230035
       ],
       [
        84.6450782,
        20.8230487
       ],
       [
        84.6447943,
        20.8231214
       ],
       [
        84.6439163,
        20.8233924
       ],
       [
        84.643669,
        20.8234808
       ],
       [
        84.6434314,
        20.8235901
       ],
       [
        84.6407504,
        20.82497
       ],
       [
        84.6405123,
        20.8251071
       ],
       [
        84.6402894,
        20.8252652
       ],
       [
        84.6400839,
        20.8254428
       ],
       [
        84.6398975,
        20.8256383
       ],
       [
        84.6397322,
        20.8258499
       ],
       [
        84.6395895,
        20.8260755
       ],
       [
        84.6394706,
        20.826313
       ],
       [
        84.6393768,
        20.8265602
       ],
       [
        84.6393088,
        20.8268148
       ],
       [
        84.6392674,
        20.8270744
       ],
       [
        84.6392529,
        20.8273365
       ],
       [
        84.6392654,
        20.8275988
       ],
       [
        84.6393049,
        20.8278586
       ],
       [
        84.639371,
        20.8281137
       ],
       [
        84.639463,
        20.8283615
       ],
       [
        84.6395801,
        20.8285998
       ],
       [
        84.6397212,
        20.8288263
       ],
       [
        84.6398849,
        20.829039
       ],
       [
        84.6400698,
        20.8292357
       ],
       [
        84.6407658,
        20.8299077
       ],
       [
        84.640965,
        20.8300827
       ],
       [
        84.641181,
        20.8302392
       ],
       [
        84.6414118,
        20.8303758
       ],
       [
        84.6416552,
        20.8304913
       ],
       [
        84.6419092,
        20.8305847
       ],
       [
        84.6421715,
        20.830655
       ],
       [
        84.6424396,
        20.8307018
       ],
       [
        84.6438396,
        20.8308818
       ],
       [
        84.6441388,
        20.8309054
       ],
       [
        84.6444389,
        20.8308996
       ],
       [
        84.6447368,
        20.8308645
       ],
       [
        84.6450291,
        20.8308005
       ],
       [
        84.6453128,
        20.8307082
       ],
       [
        84.6455848,
        20.8305886
       ],
       [
        84.6478028,
        20.8294776
       ],
       [
        84.6480378,
        20.8293461
       ],
       [
        84.6482584,
        20.8291942
       ],
       [
        84.6484628,
        20.8290233
       ],
       [
        84.648649,
        20.828835
       ],
       [
        84.6488153,
        20.8286309
       ],
       [
        84.6489604,
        20.828413
       ],
       [
        84.6490828,
        20.8281831
       ],
       [
        84.6491814,
        20.8279433
       ],
       [
        84.6492555,
        20.8276958
       ],
       [
        84.6493042,
        20.8274428
       ],
       [
        84.6494502,
        20.8264068
       ],
       [
        84.6494737,
        20.8261359
       ],
       [
        84.6494683,
        20.8258642
       ],
       [
        84.6494339,
        20.8255944
       ],
       [
        84.649371,
        20.8253292
       ],
       [
        84.6492801,
        20.8250713
       ],
       [
        84.6491621,
        20.8248232
       ],
       [
        84.6490184,
        20.8245875
       ],
       [
        84.6488502,
        20.8243665
       ],
       [
        84.6486593,
        20.8241624
       ],
       [
        84.6484477,
        20.8239774
       ],
       [
        84.6482174,
        20.8238132
       ],
       [
        84.6479707,
        20.8236715
       ],
       [
        84.6477102,
        20.8235538
       ],
       [
        84.6468092,
        20.8231978
       ],
       [
        84.6465326,
        20.8231038
       ],
       [
        84.6462471,
        20.8230368
       ],
       [
        84.6459559,
        20.8229976
       ],
       [
        84.645662,
        20.8229864
       ]
      ]
     ],
     [
      [
       [
        84.708949,
        20.75676
       ],
       [
        84.7086959,
        20.756848
       ],
       [
        84.7084526,
        20.7569579
       ],
       [
        84.7082214,
        20.7570888
       ],
       [
        84.7080042,
        20.7572394
       ],
       [
        84.7048132,
        20.7596774
       ],
       [
        84.7046001,
        20.7598575
       ],
       [
        84.704407,
        20.7600567
       ],
       [
        84.7042359,
        20.7602729
       ],
       [
        84.7040885,
        20.760504
       ],
       [
        84.7039663,
        20.7607478
       ],
       [
        84.7038704,
        20.7610018
       ],
       [
        84.7038018,
        20.7612635
       ],
       [
        84.7037613,
        20.7615303
       ],
       [
        84.7037491,
        20.7617996
       ],
       [
        84.7037654,
        20.7620687
       ],
       [
        84.7038101,
        20.7623349
       ],
       [
        84.7038826,
        20.7625957
       ],
       [
        84.7039824,
        20.7628483
       ],
       [
        84.7041084,
        20.7630904
       ],
       [
        84.7042593,
        20.7633195
       ],
       [
        84.7044337,
        20.7635334
       ],
       [
        84.7046298,
        20.7637299
       ],
       [
        84.7048458,
        20.7639071
       ],
       [
        84.7050793,
        20.7640633
       ],
       [
        84.7053282,
        20.7641968
       ],
       [
        84.70559,
        20.7643065
       ],
       [
        84.7058621,
        20.7643911
       ],
       [
        84.7147153,
        20.7666911
       ],
       [
        84.7149301,
        20.7667387
       ],
       [
        84.7151482,
        20.7667706
       ],
       [
        84.7185832,
        20.7671476
       ],
       [
        84.7188621,
        20.7671654
       ],
       [
        84.7191415,
        20.7671576
       ],
       [
        84.7194188,
        20.7671244
       ],
       [
        84.7196914,
        20.7670661
       ],
       [
        84.7199567,
        20.7669832
       ],
       [
        84.7238597,
        20.7655622
       ],
       [
        84.7241183,
        20.7654541
       ],
       [
        84.7243643,
        20.7653226
       ],
       [
        84.7245954,
        20.765169
       ],
       [
        84.7248093,
        20.7649949
       ],
       [
        84.7250041,
        20.7648018
       ],
       [
        84.7251778,
        20.7645917
       ],
       [
        84.7253287,
        20.7643666
       ],
       [
        84.7254554,
        20.7641286
       ],
       [
        84.7255567,
        20.7638801
       ],
       [
        84.7256315,
        20.7636234
       ],
       [
        84.7256793,
        20.7633611
       ],
       [
        84.7258792,
        20.7618051
       ],
       [
        84.7258995,
        20.7615311
       ],
       [
        84.7258902,
        20.7612566
       ],
       [
        84.7258514,
        20.7609844
       ],
       [
        84.7257835,
        20.7607172
       ],
       [
        84.7256872,
        20.760458
       ],
       [
        84.7255634,
        20.7602092
       ],
       [
        84.7254136,
        20.7599735
       ],
       [
        84.7252391,
        20.7597533
       ],
       [
        84.7250418,
        20.7595508
       ],
       [
        84.7248237,
        20.7593681
       ],
       [
        84.7229497,
        20.7579522
       ],
       [
        84.7227128,
        20.7577911
       ],
       [
        84.7224599,
        20.7576534
       ],
       [
        84.7221934,
        20.7575406
       ],
       [
        84.7219161,
        20.7574537
       ],
       [
        84.7216308,
        20.7573938
       ],
       [
        84.7213406,
        20.7573613
       ],
       [
        84.7100148,
        20.7566393
       ],
       [
        84.709745,
        20.7566341
       ],
       [
        84.7094759,
        20.7566525
       ],
       [
        84.7092098,
        20.7566946
       ],
       [
        84.708949,
        20.75676
       ]
      ]
     ],
     [
      [
       [
        85.6514326,
        20.9239732
       ],
       [
        85.6511694,
        20.9240839
       ],
       [
        85.6509192,
        20.9242187
       ],
       [
        85.6506847,
        20.9243764
       ],
       [
        85.6504681,
        20.9245552
       ],
       [
        85.6502715,
        20.9247535
       ],
       [
        85.6500971,
        20.9249692
       ],
       [
        85.6499464,
        20.9252002
       ],
       [
        85.649821,
        20.9254442
       ],
       [
        85.6497222,
        20.9256987
       ],
       [
        85.6496509,
        20.9259612
       ],
       [
        85.6496079,
        20.9262291
       ],
       [
        85.6495935,
        20.9264997
       ],
       [
        85.649608,
        20.9267703
       ],
       [
        85.649762,
        20.9282083
       ],
       [
        85.6498029,
        20.9284656
       ],
       [
        85.6498699,
        20.928718
       ],
       [
        85.6499623,
        20.9289632
       ],
       [
        85.6500793,
        20.9291989
       ],
       [
        85.6502198,
        20.9294231
       ],
       [
        85.6503826,
        20.9296335
       ],
       [
        85.6505661,
        20.9298283
       ],
       [
        85.6507686,
        20.9300057
       ],
       [
        85.6509883,
        20.930164
       ],
       [
        85.6512231,
        20.9303018
       ],
       [
        85.6640683,
        20.9370559
       ],
       [
        85.6643079,
        20.9371685
       ],
       [
        85.6645577,
        20.9372598
       ],
       [
        85.6648154,
        20.9373288
       ],
       [
        85.6650788,
        20.9373751
       ],
       [
        85.6677288,
        20.9377221
       ],
       [
        85.6680083,
        20.9377458
       ],
       [
        85.6682888,
        20.9377438
       ],
       [
        85.6685679,
        20.9377162
       ],
       [
        85.6688427,
        20.9376633
       ],
       [
        85.6691108,
        20.9375856
       ],
       [
        85.6693696,
        20.9374837
       ],
       [
        85.6696167,
        20.9373588
       ],
       [
        85.6698496,
        20.9372118
       ],
       [
        85.6700663,
        20.9370443
       ],
       [
        85.6702645,
        20.9368578
       ],
       [
        85.6704426,
        20.9366541
       ],
       [
        85.6705988,
        20.9364351
       ],
       [
        85.6707316,
        20.9362029
       ],
       [
        85.6708397,
        20.9359597
       ],
       [
        85.6709222,
        20.9357077
       ],
       [
        85.6709782,
        20.9354495
       ],
       [
        85.6710073,
        20.9351873
       ],
       [
        85.6710091,
        20.9349237
       ],
       [
        85.6709836,
        20.9346612
       ],
       [
        85.6697665,
        20.9265172
       ],
       [
        85.6697121,
        20.9262507
       ],
       [
        85.6696296,
        20.9259907
       ],
       [
        85.6695198,
        20.9257397
       ],
       [
        85.6693839,
        20.9255004
       ],
       [
        85.6692231,
        20.9252749
       ],
       [
        85.6690392,
        20.9250657
       ],
       [
        85.668834,
        20.9248749
       ],
       [
        85.6686095,
        20.9247042
       ],
       [
        85.6683679,
        20.9245556
       ],
       [
        85.6681117,
        20.9244303
       ],
       [
        85.6678435,
        20.9243298
       ],
       [
        85.6675659,
        20.9242549
       ],
       [
        85.6672817,
        20.9242065
       ],
       [
        85.6669939,
        20.9241851
       ],
       [
        85.6525621,
        20.9237901
       ],
       [
        85.6522738,
        20.9237957
       ],
       [
        85.6519876,
        20.9238284
       ],
       [
        85.6517062,
        20.9238878
       ],
       [
        85.6514326,
        20.9239732
       ]
      ]
     ],
     [
      [
       [
        85.6984526,
        20.9654142
       ],
       [
        85.698186,
        20.9653046
       ],
       [
        85.697909,
        20.9652208
       ],
       [
        85.6976245,
        20.9651636
       ],
       [
        85.6973352,
        20.9651337
       ],
       [
        85.6970442,
        20.9651312
       ],
       [
        85.6967544,
        20.9651564
       ],
       [
        85.6964688,
        20.9652087
       ],
       [
        85.6961903,
        20.9652879
       ],
       [
        85.6959217,
        20.965393
       ],
       [
        85.6956657,
        20.965523
       ],
       [
        85.6954249,
        20.9656765
       ],
       [
        85.6952018,
        20.9658521
       ],
       [
        85.6938428,
        20.967036
       ],
       [
        85.6936352,
        20.9672366
       ],
       [
        85.6934507,
        20.9674563
       ],
       [
        85.6932913,
        20.9676926
       ],
       [
        85.6931586,
        20.9679431
       ],
       [
        85.6930542,
        20.9682052
       ],
       [
        85.6929791,
        20.9684759
       ],
       [
        85.6929341,
        20.9687525
       ],
       [
        85.692758,
        20.9704005
       ],
       [
        85.6927442,
        20.9706191
       ],
       [
        85.6927081,
        20.9723851
       ],
       [
        85.692717,
        20.9726561
       ],
       [
        85.6927547,
        20.9729249
       ],
       [
        85.6928208,
        20.9731888
       ],
       [
        85.6929147,
        20.9734452
       ],
       [
        85.6930353,
        20.9736915
       ],
       [
        85.6931816,
        20.9739252
       ],
       [
        85.6933519,
        20.9741441
       ],
       [
        85.6935448,
        20.9743458
       ],
       [
        85.6937581,
        20.9745285
       ],
       [
        85.6939897,
        20.9746902
       ],
       [
        85.6942374,
        20.9748294
       ],
       [
        85.6944987,
        20.9749446
       ],
       [
        85.694771,
        20.9750348
       ],
       [
        85.6950514,
        20.9750989
       ],
       [
        85.6953373,
        20.9751364
       ],
       [
        85.6956258,
        20.9751469
       ],
       [
        85.6959139,
        20.9751303
       ],
       [
        85.6961988,
        20.9750867
       ],
       [
        85.6964776,
        20.9750166
       ],
       [
        85.6967476,
        20.9749207
       ],
       [
        85.697006,
        20.9747999
       ],
       [
        85.6972503,
        20.9746555
       ],
       [
        85.697478,
        20.9744888
       ],
       [
        85.6976869,
        20.9743017
       ],
       [
        85.6978747,
        20.9740958
       ],
       [
        85.6987837,
        20.9729928
       ],
       [
        85.6989527,
        20.9727645
       ],
       [
        85.6990958,
        20.9725212
       ],
       [
        85.6992117,
        20.9722654
       ],
       [
        85.7003306,
        20.9693933
       ],
       [
        85.7004128,
        20.9691466
       ],
       [
        85.7004695,
        20.9688937
       ],
       [
        85.7005003,
        20.9686369
       ],
       [
        85.700505,
        20.9683784
       ],
       [
        85.7004834,
        20.9681207
       ],
       [
        85.7004357,
        20.9678662
       ],
       [
        85.7003625,
        20.967617
       ],
       [
        85.7002643,
        20.9673755
       ],
       [
        85.7001421,
        20.967144
       ],
       [
        85.6999969,
        20.9669244
       ],
       [
        85.6995399,
        20.9663014
       ],
       [
        85.699363,
        20.9660844
       ],
       [
        85.6991636,
        20.9658853
       ],
       [
        85.6989439,
        20.965706
       ],
       [
        85.6987061,
        20.9655485
       ],
       [
        85.6984526,
        20.9654142
       ]
      ]
     ],
     [
      [
       [
        85.611351,
        21.0163721
       ],
       [
        85.6110981,
        21.0164984
       ],
       [
        85.6093701,
        21.0174674
       ],
       [
        85.6091387,
        21.0176118
       ],
       [
        85.6089231,
        21.0177764
       ],
       [
        85.6087253,
        21.0179598
       ],
       [
        85.6085473,
        21.0181602
       ],
       [
        85.6083906,
        21.0183757
       ],
       [
        85.6082567,
        21.0186044
       ],
       [
        85.6074127,
        21.0202263
       ],
       [
        85.6073009,
        21.0204711
       ],
       [
        85.6072152,
        21.0207249
       ],
       [
        85.6071564,
        21.0209854
       ],
       [
        85.6071252,
        21.0212501
       ],
       [
        85.6071217,
        21.0215164
       ],
       [
        85.6071461,
        21.0217817
       ],
       [
        85.6071982,
        21.0220434
       ],
       [
        85.6072773,
        21.0222992
       ],
       [
        85.6073828,
        21.0225463
       ],
       [
        85.6075136,
        21.0227826
       ],
       [
        85.6076685,
        21.0230057
       ],
       [
        85.6078459,
        21.0232134
       ],
       [
        85.6093439,
        21.0248004
       ],
       [
        85.6095561,
        21.0250028
       ],
       [
        85.6097897,
        21.0251832
       ],
       [
        85.6100421,
        21.0253397
       ],
       [
        85.6103106,
        21.0254705
       ],
       [
        85.6105922,
        21.0255742
       ],
       [
        85.6108838,
        21.0256497
       ],
       [
        85.6154249,
        21.0265877
       ],
       [
        85.6157051,
        21.0266321
       ],
       [
        85.6159886,
        21.0266505
       ],
       [
        85.6162726,
        21.0266426
       ],
       [
        85.6165545,
        21.0266084
       ],
       [
        85.6168314,
        21.0265485
       ],
       [
        85.6171007,
        21.0264632
       ],
       [
        85.6173598,
        21.0263535
       ],
       [
        85.6176061,
        21.0262204
       ],
       [
        85.6178372,
        21.0260653
       ],
       [
        85.6207293,
        21.0239142
       ],
       [
        85.62094,
        21.0237412
       ],
       [
        85.6211318,
        21.0235499
       ],
       [
        85.6213031,
        21.023342
       ],
       [
        85.621452,
        21.0231196
       ],
       [
        85.6215774,
        21.0228846
       ],
       [
        85.6225813,
        21.0207496
       ],
       [
        85.6226809,
        21.0205071
       ],
       [
        85.6227552,
        21.0202567
       ],
       [
        85.6228037,
        21.0200008
       ],
       [
        85.6228258,
        21.0197417
       ],
       [
        85.6228213,
        21.0194818
       ],
       [
        85.6227904,
        21.0192235
       ],
       [
        85.6227333,
        21.0189692
       ],
       [
        85.6226504,
        21.0187211
       ],
       [
        85.6225427,
        21.0184817
       ],
       [
        85.622411,
        21.0182531
       ],
       [
        85.6222566,
        21.0180373
       ],
       [
        85.6220809,
        21.0178365
       ],
       [
        85.6218855,
        21.0176524
       ],
       [
        85.6216722,
        21.0174867
       ],
       [
        85.621443,
        21.0173409
       ],
       [
        85.6212,
        21.0172164
       ],
       [
        85.6209454,
        21.0171144
       ],
       [
        85.6206816,
        21.0170357
       ],
       [
        85.6204109,
        21.0169812
       ],
       [
        85.616126,
        21.0163172
       ],
       [
        85.6158215,
        21.0162855
       ],
       [
        85.6127435,
        21.0161195
       ],
       [
        85.6124571,
        21.0161174
       ],
       [
        85.6121718,
        21.016142
       ],
       [
        85.6118905,
        21.016193
       ],
       [
        85.6116161,
        21.01627
       ],
       [
        85.611351,
        21.0163721
       ]
      ]
     ],
     [
      [
       [
        85.6931512,
        21.0392063
       ],
       [
        85.6929977,
        21.0389873
       ],
       [
        85.6928224,
        21.0387833
       ],
       [
        85.6926269,
        21.0385962
       ],
       [
        85.6924131,
        21.0384276
       ],
       [
        85.6921829,
        21.0382793
       ],
       [
        85.6919385,
        21.0381525
       ],
       [
        85.6916822,
        21.0380484
       ],
       [
        85.6914165,
        21.0379681
       ],
       [
        85.6911437,
        21.0379123
       ],
       [
        85.6908664,
        21.0378815
       ],
       [
        85.6905872,
        21.0378759
       ],
       [
        85.6903088,
        21.0378958
       ],
       [
        85.6900338,
        21.0379407
       ],
       [
        85.6897646,
        21.0380104
       ],
       [
        85.6871267,
        21.0388244
       ],
       [
        85.6868767,
        21.0389138
       ],
       [
        85.6866367,
        21.0390245
       ],
       [
        85.6864085,
        21.0391556
       ],
       [
        85.6861943,
        21.0393059
       ],
       [
        85.6859958,
        21.0394742
       ],
       [
        85.6858148,
        21.0396591
       ],
       [
        85.6814858,
        21.044512
       ],
       [
        85.6813101,
        21.0447305
       ],
       [
        85.6811588,
        21.0449645
       ],
       [
        85.6810334,
        21.0452117
       ],
       [
        85.6809352,
        21.0454694
       ],
       [
        85.6808652,
        21.0457352
       ],
       [
        85.6808241,
        21.0460062
       ],
       [
        85.6808123,
        21.0462797
       ],
       [
        85.68083,
        21.046553
       ],
       [
        85.680877,
        21.0468232
       ],
       [
        85.6809528,
        21.0470875
       ],
       [
        85.6810566,
        21.0473433
       ],
       [
        85.6811874,
        21.047588
       ],
       [
        85.6813438,
        21.0478191
       ],
       [
        85.6845337,
        21.0520441
       ],
       [
        85.6846977,
        21.0522414
       ],
       [
        85.6848804,
        21.0524236
       ],
       [
        85.6850803,
        21.0525892
       ],
       [
        85.6852955,
        21.0527368
       ],
       [
        85.6855244,
        21.0528652
       ],
       [
        85.6886424,
        21.0544352
       ],
       [
        85.6889035,
        21.0545513
       ],
       [
        85.6891756,
        21.0546422
       ],
       [
        85.689456,
        21.0547072
       ],
       [
        85.6897419,
        21.0547456
       ],
       [
        85.6900306,
        21.054757
       ],
       [
        85.6903189,
        21.0547412
       ],
       [
        85.6906042,
        21.0546984
       ],
       [
        85.6908834,
        21.0546292
       ],
       [
        85.6911539,
        21.054534
       ],
       [
        85.6914129,
        21.054414
       ],
       [
        85.6916579,
        21.0542702
       ],
       [
        85.6918863,
        21.0541043
       ],
       [
        85.6920959,
        21.0539177
       ],
       [
        85.6922845,
        21.0537124
       ],
       [
        85.6924504,
        21.0534904
       ],
       [
        85.6925918,
        21.0532539
       ],
       [
        85.6927074,
        21.0530054
       ],
       [
        85.6935523,
        21.0509074
       ],
       [
        85.693591,
        21.0508054
       ],
       [
        85.6944829,
        21.0482914
       ],
       [
        85.6945562,
        21.0480472
       ],
       [
        85.6946049,
        21.0477977
       ],
       [
        85.6946285,
        21.047545
       ],
       [
        85.6946268,
        21.0472913
       ],
       [
        85.6945998,
        21.0470389
       ],
       [
        85.6935217,
        21.0401889
       ],
       [
        85.6934676,
        21.0399317
       ],
       [
        85.6933873,
        21.0396807
       ],
       [
        85.6932815,
        21.0394381
       ],
       [
        85.6931512,
        21.0392063
       ]
      ]
     ],
     [
      [
       [
        85.5218616,
        21.0416331
       ],
       [
        85.5215777,
        21.0416468
       ],
       [
        85.5212966,
        21.0416867
       ],
       [
        85.5190337,
        21.0421157
       ],
       [
        85.5187607,
        21.0421806
       ],
       [
        85.5184958,
        21.0422702
       ],
       [
        85.5182414,
        21.0423835
       ],
       [
        85.518,
        21.0425196
       ],
       [
        85.5177739,
        21.0426771
       ],
       [
        85.5175652,
        21.0428546
       ],
       [
        85.5173759,
        21.0430502
       ],
       [
        85.5172079,
        21.0432623
       ],
       [
        85.5170626,
        21.0434887
       ],
       [
        85.5169415,
        21.0437274
       ],
       [
        85.5168458,
        21.043976
       ],
       [
        85.5167763,
        21.0442321
       ],
       [
        85.5167337,
        21.0444934
       ],
       [
        85.5167184,
        21.0447574
       ],
       [
        85.5167306,
        21.0450214
       ],
       [
        85.5167702,
        21.0452832
       ],
       [
        85.5168367,
        21.04554
       ],
       [
        85.5169296,
        21.0457895
       ],
       [
        85.5170479,
        21.0460294
       ],
       [
        85.5171906,
        21.0462573
       ],
       [
        85.5173562,
        21.0464711
       ],
       [
        85.5186122,
        21.0479361
       ],
       [
        85.5187872,
        21.048122
       ],
       [
        85.5189795,
        21.0482922
       ],
       [
        85.5216755,
        21.0504672
       ],
       [
        85.5218983,
        21.0506298
       ],
       [
        85.5221368,
        21.0507713
       ],
       [
        85.5223889,
        21.0508901
       ],
       [
        85.5226522,
        21.0509853
       ],
       [
        85.5240142,
        21.0514074
       ],
       [
        85.524289,
        21.0514786
       ],
       [
        85.5245698,
        21.051524
       ],
       [
        85.5248541,
        21.0515432
       ],
       [
        85.525139,
        21.051536
       ],
       [
        85.5254217,
        21.0515025
       ],
       [
        85.5256996,
        21.0514429
       ],
       [
        85.5259698,
        21.051358
       ],
       [
        85.5262298,
        21.0512484
       ],
       [
        85.5287129,
        21.0500604
       ],
       [
        85.528953,
        21.0499315
       ],
       [
        85.529179,
        21.0497816
       ],
       [
        85.5293886,
        21.0496121
       ],
       [
        85.5295799,
        21.0494246
       ],
       [
        85.5297513,
        21.0492207
       ],
       [
        85.5299011,
        21.0490024
       ],
       [
        85.5300279,
        21.0487716
       ],
       [
        85.5301306,
        21.0485304
       ],
       [
        85.5302083,
        21.0482812
       ],
       [
        85.5302601,
        21.0480261
       ],
       [
        85.5302858,
        21.0477675
       ],
       [
        85.5302849,
        21.0475078
       ],
       [
        85.5302576,
        21.0472493
       ],
       [
        85.530204,
        21.0469945
       ],
       [
        85.5301247,
        21.0467457
       ],
       [
        85.5300204,
        21.0465052
       ],
       [
        85.5298921,
        21.0462751
       ],
       [
        85.5297408,
        21.0460577
       ],
       [
        85.5293008,
        21.0454867
       ],
       [
        85.5291422,
        21.0452989
       ],
       [
        85.5289665,
        21.045125
       ],
       [
        85.5287751,
        21.0449663
       ],
       [
        85.5285695,
        21.0448241
       ],
       [
        85.5271745,
        21.0439462
       ],
       [
        85.5269265,
        21.0438065
       ],
       [
        85.5232275,
        21.0419525
       ],
       [
        85.5229705,
        21.0418385
       ],
       [
        85.5227027,
        21.0417489
       ],
       [
        85.5224269,
        21.0416844
       ],
       [
        85.5221456,
        21.0416457
       ],
       [
        85.5218616,
        21.0416331
       ]
      ]
     ],
     [
      [
       [
        85.3885755,
        21.0738843
       ],
       [
        85.3883041,
        21.0739206
       ],
       [
        85.3880376,
        21.073981
       ],
       [
        85.3877783,
        21.0740648
       ],
       [
        85.3875287,
        21.0741713
       ],
       [
        85.387291,
        21.0742995
       ],
       [
        85.3870673,
        21.0744483
       ],
       [
        85.3868597,
        21.0746164
       ],
       [
        85.38667,
        21.0748022
       ],
       [
        85.3864999,
        21.0750041
       ],
       [
        85.3847469,
        21.0773011
       ],
       [
        85.3845921,
        21.0775267
       ],
       [
        85.3844619,
        21.0777656
       ],
       [
        85.3843575,
        21.0780154
       ],
       [
        85.3842799,
        21.0782736
       ],
       [
        85.3842299,
        21.0785378
       ],
       [
        85.384208,
        21.0788054
       ],
       [
        85.3842144,
        21.0790737
       ],
       [
        85.384249,
        21.07934
       ],
       [
        85.3843115,
        21.0796019
       ],
       [
        85.3844013,
        21.0798566
       ],
       [
        85.3845176,
        21.0801018
       ],
       [
        85.3846591,
        21.080335
       ],
       [
        85.3848244,
        21.0805539
       ],
       [
        85.3850121,
        21.0807564
       ],
       [
        85.3852201,
        21.0809404
       ],
       [
        85.3854466,
        21.0811043
       ],
       [
        85.3856891,
        21.0812463
       ],
       [
        85.3859455,
        21.0813651
       ],
       [
        85.3862131,
        21.0814595
       ],
       [
        85.3864894,
        21.0815286
       ],
       [
        85.3867716,
        21.0815718
       ],
       [
        85.3891896,
        21.0818268
       ],
       [
        85.3895182,
        21.0818437
       ],
       [
        85.3898468,
        21.0818255
       ],
       [
        85.390171,
        21.0817722
       ],
       [
        85.39108,
        21.0815722
       ],
       [
        85.391348,
        21.0815003
       ],
       [
        85.3916074,
        21.0814044
       ],
       [
        85.3918557,
        21.0812855
       ],
       [
        85.3920906,
        21.0811447
       ],
       [
        85.3937816,
        21.0800197
       ],
       [
        85.3940029,
        21.0798567
       ],
       [
        85.3942062,
        21.0796743
       ],
       [
        85.3943897,
        21.0794742
       ],
       [
        85.3945515,
        21.0792583
       ],
       [
        85.3946902,
        21.0790286
       ],
       [
        85.3948044,
        21.0787873
       ],
       [
        85.394893,
        21.0785368
       ],
       [
        85.3949553,
        21.0782794
       ],
       [
        85.3949905,
        21.0780175
       ],
       [
        85.3949985,
        21.0777536
       ],
       [
        85.394979,
        21.0774902
       ],
       [
        85.3949324,
        21.0772299
       ],
       [
        85.394859,
        21.0769751
       ],
       [
        85.3947595,
        21.0767282
       ],
       [
        85.3946349,
        21.0764915
       ],
       [
        85.3944863,
        21.0762673
       ],
       [
        85.3943152,
        21.0760578
       ],
       [
        85.3941232,
        21.0758649
       ],
       [
        85.3939121,
        21.0756905
       ],
       [
        85.3936839,
        21.0755361
       ],
       [
        85.3934408,
        21.0754033
       ],
       [
        85.3931851,
        21.0752934
       ],
       [
        85.3899202,
        21.0740664
       ],
       [
        85.3896611,
        21.0739822
       ],
       [
        85.3893946,
        21.0739215
       ],
       [
        85.3891233,
        21.0738847
       ],
       [
        85.3888494,
        21.0738723
       ],
       [
        85.3885755,
        21.0738843
       ]
      ]
     ],
     [
      [
       [
        85.5678678,
        21.1046182
       ],
       [
        85.5676953,
        21.104401
       ],
       [
        85.5675004,
        21.1042009
       ],
       [
        85.5672853,
        21.1040202
       ],
       [
        85.567052,
        21.1038605
       ],
       [
        85.5668029,
        21.1037235
       ],
       [
        85.5665404,
        21.1036105
       ],
       [
        85.5662672,
        21.1035227
       ],
       [
        85.5659861,
        21.1034609
       ],
       [
        85.5656997,
        21.1034257
       ],
       [
        85.5654111,
        21.1034176
       ],
       [
        85.5651231,
        21.1034366
       ],
       [
        85.5648385,
        21.1034825
       ],
       [
        85.5645602,
        21.1035548
       ],
       [
        85.564291,
        21.1036528
       ],
       [
        85.5640335,
        21.1037756
       ],
       [
        85.5637905,
        21.1039219
       ],
       [
        85.5635642,
        21.1040902
       ],
       [
        85.5631222,
        21.1044542
       ],
       [
        85.5629191,
        21.1046387
       ],
       [
        85.5627361,
        21.104841
       ],
       [
        85.5625752,
        21.1050591
       ],
       [
        85.5624377,
        21.105291
       ],
       [
        85.5623251,
        21.1055343
       ],
       [
        85.5616351,
        21.1072503
       ],
       [
        85.5615912,
        21.1073676
       ],
       [
        85.5610891,
        21.1088136
       ],
       [
        85.5610073,
        21.1091025
       ],
       [
        85.5609599,
        21.1093981
       ],
       [
        85.5609475,
        21.1096969
       ],
       [
        85.5609625,
        21.1105659
       ],
       [
        85.5609811,
        21.1108323
       ],
       [
        85.5610275,
        21.1110957
       ],
       [
        85.5611014,
        21.1113535
       ],
       [
        85.5612019,
        21.1116033
       ],
       [
        85.5613282,
        21.1118426
       ],
       [
        85.5614789,
        21.1120691
       ],
       [
        85.5616527,
        21.1122805
       ],
       [
        85.5618477,
        21.1124749
       ],
       [
        85.5620623,
        21.1126503
       ],
       [
        85.5622941,
        21.112805
       ],
       [
        85.5625411,
        21.1129376
       ],
       [
        85.5628008,
        21.1130467
       ],
       [
        85.5630707,
        21.1131314
       ],
       [
        85.5633481,
        21.1131907
       ],
       [
        85.5636304,
        21.1132241
       ],
       [
        85.5639148,
        21.1132312
       ],
       [
        85.5641987,
        21.1132121
       ],
       [
        85.5644791,
        21.1131668
       ],
       [
        85.5647534,
        21.1130959
       ],
       [
        85.5650189,
        21.113
       ],
       [
        85.5652731,
        21.11288
       ],
       [
        85.5655135,
        21.1127372
       ],
       [
        85.5657378,
        21.1125728
       ],
       [
        85.5659437,
        21.1123885
       ],
       [
        85.5661293,
        21.1121861
       ],
       [
        85.5662927,
        21.1119676
       ],
       [
        85.5679817,
        21.1094546
       ],
       [
        85.568132,
        21.1092019
       ],
       [
        85.5682528,
        21.1089356
       ],
       [
        85.5683426,
        21.1086588
       ],
       [
        85.5684005,
        21.1083745
       ],
       [
        85.5685315,
        21.1074715
       ],
       [
        85.5685568,
        21.1071785
       ],
       [
        85.5685482,
        21.1068846
       ],
       [
        85.5685057,
        21.1065933
       ],
       [
        85.5683047,
        21.1056143
       ],
       [
        85.5682359,
        21.1053511
       ],
       [
        85.5681395,
        21.1050957
       ],
       [
        85.5680164,
        21.1048506
       ],
       [
        85.5678678,
        21.1046182
       ]
      ]
     ],
     [
      [
       [
        85.3658947,
        21.1518653
       ],
       [
        85.3656145,
        21.1518166
       ],
       [
        85.3653306,
        21.151794
       ],
       [
        85.3650458,
        21.1517978
       ],
       [
        85.3647626,
        21.1518279
       ],
       [
        85.3644841,
        21.151884
       ],
       [
        85.3642127,
        21.1519656
       ],
       [
        85.3639513,
        21.1520718
       ],
       [
        85.3637023,
        21.1522017
       ],
       [
        85.3634682,
        21.152354
       ],
       [
        85.3632511,
        21.1525272
       ],
       [
        85.3630534,
        21.1527196
       ],
       [
        85.3628767,
        21.1529293
       ],
       [
        85.362723,
        21.1531544
       ],
       [
        85.3625937,
        21.1533925
       ],
       [
        85.36249,
        21.1536415
       ],
       [
        85.3604899,
        21.1592435
       ],
       [
        85.3604137,
        21.1594973
       ],
       [
        85.3603641,
        21.1597569
       ],
       [
        85.3603417,
        21.1600198
       ],
       [
        85.3603467,
        21.1602835
       ],
       [
        85.360379,
        21.1605455
       ],
       [
        85.3604382,
        21.1608034
       ],
       [
        85.3605239,
        21.1610545
       ],
       [
        85.3606352,
        21.1612967
       ],
       [
        85.3607711,
        21.1615276
       ],
       [
        85.3609303,
        21.161745
       ],
       [
        85.3611113,
        21.1619469
       ],
       [
        85.3613123,
        21.1621313
       ],
       [
        85.3615315,
        21.1622964
       ],
       [
        85.3640445,
        21.1640085
       ],
       [
        85.3642855,
        21.164156
       ],
       [
        85.364541,
        21.1642804
       ],
       [
        85.3648084,
        21.1643803
       ],
       [
        85.3650851,
        21.1644547
       ],
       [
        85.3653683,
        21.1645029
       ],
       [
        85.3656552,
        21.1645245
       ],
       [
        85.365943,
        21.1645191
       ],
       [
        85.3662288,
        21.1644869
       ],
       [
        85.3665097,
        21.1644282
       ],
       [
        85.366783,
        21.1643436
       ],
       [
        85.367046,
        21.1642339
       ],
       [
        85.367296,
        21.1641002
       ],
       [
        85.3675307,
        21.1639438
       ],
       [
        85.3677475,
        21.1637662
       ],
       [
        85.3679445,
        21.1635693
       ],
       [
        85.3681195,
        21.163355
       ],
       [
        85.368271,
        21.1631255
       ],
       [
        85.3683974,
        21.1628829
       ],
       [
        85.3684974,
        21.1626297
       ],
       [
        85.3697153,
        21.1590007
       ],
       [
        85.3697833,
        21.1587599
       ],
       [
        85.3698275,
        21.1585143
       ],
       [
        85.3698474,
        21.158266
       ],
       [
        85.3699154,
        21.156079
       ],
       [
        85.3699099,
        21.155816
       ],
       [
        85.3698773,
        21.1555547
       ],
       [
        85.3698179,
        21.1552977
       ],
       [
        85.3697321,
        21.1550472
       ],
       [
        85.3696209,
        21.1548058
       ],
       [
        85.3694852,
        21.1545756
       ],
       [
        85.3693264,
        21.1543588
       ],
       [
        85.369146,
        21.1541575
       ],
       [
        85.3689455,
        21.1539735
       ],
       [
        85.3671465,
        21.1524755
       ],
       [
        85.3669244,
        21.1523082
       ],
       [
        85.3666857,
        21.1521621
       ],
       [
        85.3664329,
        21.1520389
       ],
       [
        85.3661684,
        21.1519396
       ],
       [
        85.3658947,
        21.1518653
       ]
      ]
     ],
     [
      [
       [
        85.3910714,
        21.5716599
       ],
       [
        85.390811,
        21.5715779
       ],
       [
        85.3905435,
        21.5715194
       ],
       [
        85.3902712,
        21.5714848
       ],
       [
        85.3899966,
        21.5714745
       ],
       [
        85.3897223,
        21.5714886
       ],
       [
        85.3894506,
        21.5715269
       ],
       [
        85.389184,
        21.5715892
       ],
       [
        85.3889249,
        21.5716747
       ],
       [
        85.3873769,
        21.5722647
       ],
       [
        85.3871312,
        21.5723712
       ],
       [
        85.3868971,
        21.5724986
       ],
       [
        85.3866768,
        21.572646
       ],
       [
        85.3864722,
        21.5728119
       ],
       [
        85.386285,
        21.572995
       ],
       [
        85.3861169,
        21.5731936
       ],
       [
        85.3859694,
        21.5734061
       ],
       [
        85.3853504,
        21.5743961
       ],
       [
        85.3852213,
        21.5746275
       ],
       [
        85.3851166,
        21.5748694
       ],
       [
        85.3850373,
        21.5751196
       ],
       [
        85.384984,
        21.5753758
       ],
       [
        85.3849574,
        21.5756357
       ],
       [
        85.3849576,
        21.5758967
       ],
       [
        85.3849847,
        21.5761564
       ],
       [
        85.3850384,
        21.5764126
       ],
       [
        85.3851181,
        21.5766627
       ],
       [
        85.3852232,
        21.5769045
       ],
       [
        85.4046136,
        21.6159817
       ],
       [
        85.4047473,
        21.6162194
       ],
       [
        85.4049055,
        21.6164436
       ],
       [
        85.4050866,
        21.616652
       ],
       [
        85.4052889,
        21.6168426
       ],
       [
        85.4055104,
        21.6170136
       ],
       [
        85.4057489,
        21.6171632
       ],
       [
        85.4060021,
        21.61729
       ],
       [
        85.4062674,
        21.6173927
       ],
       [
        85.4065423,
        21.6174704
       ],
       [
        85.4068241,
        21.6175223
       ],
       [
        85.40711,
        21.6175478
       ],
       [
        85.4073972,
        21.6175467
       ],
       [
        85.4076829,
        21.617519
       ],
       [
        85.4079642,
        21.6174651
       ],
       [
        85.4082384,
        21.6173853
       ],
       [
        85.4085029,
        21.6172806
       ],
       [
        85.408755,
        21.6171519
       ],
       [
        85.4089922,
        21.6170005
       ],
       [
        85.4092122,
        21.6168279
       ],
       [
        85.4094128,
        21.6166358
       ],
       [
        85.4095922,
        21.616426
       ],
       [
        85.4097484,
        21.6162007
       ],
       [
        85.4098801,
        21.615962
       ],
       [
        85.4099858,
        21.6157123
       ],
       [
        85.4100645,
        21.615454
       ],
       [
        85.4101156,
        21.6151898
       ],
       [
        85.4101384,
        21.6149221
       ],
       [
        85.4101327,
        21.6146536
       ],
       [
        85.4100987,
        21.6143869
       ],
       [
        85.4100366,
        21.6141247
       ],
       [
        85.409947,
        21.6138696
       ],
       [
        85.3936603,
        21.5742048
       ],
       [
        85.3935569,
        21.5739828
       ],
       [
        85.3934326,
        21.5737704
       ],
       [
        85.3932885,
        21.5735692
       ],
       [
        85.3931259,
        21.5733809
       ],
       [
        85.3921879,
        21.5723889
       ],
       [
        85.3919963,
        21.5722047
       ],
       [
        85.3917869,
        21.5720382
       ],
       [
        85.3915616,
        21.5718911
       ],
       [
        85.3913224,
        21.5717646
       ],
       [
        85.3910714,
        21.5716599
       ]
      ]
     ]
    ]
   }
  }
 ]
}
