{
  "type": "FeatureCollection",
  "name": "sanjay_van",
  "description": "Rough bounding-box approximation of Sanjay Van, Delhi. REPLACE THIS with the actual polygon you've been using in your notebooks. The bounds here are taken from the test ROI in your earlier code (~28.535-28.565 N, 77.165-77.205 E) and are NOT a real boundary.",
  "features": [
    {
      "type": "Feature",
      "properties": {
        "name": "sanjay_van",
        "source": "placeholder",
        "note": "Replace with real polygon from Forest Department or hand-traced boundary"
      },
      "geometry": {
        "type": "Polygon",
        "coordinates": [[
          [77.165, 28.535],
          [77.205, 28.535],
          [77.205, 28.565],
          [77.165, 28.565],
          [77.165, 28.535]
        ]]
      }
    }
  ]
}
